{
"type": "FeatureCollection",
"name": "10_aoi",
"crs": { "type": "name", "properties": { "name": "urn:ogc:def:crs:OGC:1.3:CRS84" } },
"features": [
{ "type": "Feature", "properties": { "osm_way_id": 475720359, "name": "Revelstoke Mountain Resort" }, "geometry": { "type": "Polygon", "coordinates": [ [ [ -118.1637205, 50.9539739 ], [ -118.1658905, 50.9547326 ], [ -118.165945900000011, 50.955958099999989 ], [ -118.165170900000021, 50.9562471 ], [ -118.164720099999982, 50.9570392 ], [ -118.164569799999981, 50.9577814 ], [ -118.16453820000001, 50.9590866 ], [ -118.1637157, 50.9591464 ], [ -118.1616753, 50.9587429 ], [ -118.1607816, 50.9582248 ], [ -118.1603862, 50.957079 ], [ -118.159832600000016, 50.956939499999983 ], [ -118.1554116, 50.9576121 ], [ -118.151042800000013, 50.9566267 ], [ -118.150141500000018, 50.9579919 ], [ -118.151557699999984, 50.9613707 ], [ -118.1493476, 50.9646953 ], [ -118.136408599999982, 50.9688169 ], [ -118.13134460000002, 50.9681818 ], [ -118.1284264, 50.9697087 ], [ -118.129263199999983, 50.9719112 ], [ -118.1266239, 50.9738434 ], [ -118.12610890000002, 50.979207099999989 ], [ -118.1202725, 50.98045 ], [ -118.1136849, 50.9846782 ], [ -118.114436, 50.9870151 ], [ -118.1135347, 50.9891087 ], [ -118.1124888, 50.989489199999987 ], [ -118.0974548, 50.9877361 ], [ -118.0946509, 50.9857329 ], [ -118.093137500000012, 50.9844461 ], [ -118.0929862, 50.9833808 ], [ -118.092014, 50.9825509 ], [ -118.0933045, 50.9794425 ], [ -118.0905935, 50.9748743 ], [ -118.0909558, 50.97381330000001 ], [ -118.0891038, 50.9705813 ], [ -118.089156499999987, 50.9685813 ], [ -118.0905772, 50.9675869 ], [ -118.09173060000002, 50.9671837 ], [ -118.0930243, 50.9673773 ], [ -118.0947871, 50.96583780000001 ], [ -118.0959854, 50.9653255 ], [ -118.0966387, 50.96450380000001 ], [ -118.0960908, 50.9641463 ], [ -118.0957119, 50.9630872 ], [ -118.0943044, 50.960209799999987 ], [ -118.096700200000015, 50.9548856 ], [ -118.097140700000011, 50.95502 ], [ -118.0975752, 50.9550043 ], [ -118.098878199999987, 50.9546804 ], [ -118.1008625, 50.9547737 ], [ -118.102833100000012, 50.95507460000001 ], [ -118.1057961, 50.9558054 ], [ -118.10782829999998, 50.9550258 ], [ -118.112192300000018, 50.9554607 ], [ -118.1159701, 50.9545991 ], [ -118.11439390000001, 50.952071499999988 ], [ -118.1195916, 50.9501101 ], [ -118.126548, 50.9508569 ], [ -118.1373276, 50.9481612 ], [ -118.14259, 50.9484991 ], [ -118.1458999, 50.9504188 ], [ -118.1505402, 50.9489047 ], [ -118.1538715, 50.9492697 ], [ -118.158227299999979, 50.9538117 ], [ -118.1637205, 50.9539739 ] ] ] } }
]
}
