{
"type": "FeatureCollection",
"name": "10_elevation_bands",
"crs": { "type": "name", "properties": { "name": "urn:ogc:def:crs:OGC:1.3:CRS84" } },
"features": [
{ "type": "Feature", "properties": { "band": "Base to lift top" }, "geometry": { "type": "Polygon", "coordinates": [ [ [ -118.0959854, 50.9653255 ], [ -118.096569903903315, 50.964631155458491 ], [ -118.096856619697974, 50.96462846316296 ], [ -118.096854487702544, 50.964537935003946 ], [ -118.097284560476339, 50.964533895254242 ], [ -118.097286693307296, 50.964624423400288 ], [ -118.097860124632092, 50.96461903458723 ], [ -118.097857990687061, 50.964528506458478 ], [ -118.098288063229333, 50.964524463014541 ], [ -118.098290198009877, 50.964614991130318 ], [ -118.098576913539901, 50.964612294612792 ], [ -118.098579048888524, 50.964702822718436 ], [ -118.09886790084812, 50.964790653584117 ], [ -118.09901553155504, 50.96497036087893 ], [ -118.099302249202822, 50.964967662567616 ], [ -118.099304385988177, 50.965058190645721 ], [ -118.099879960175755, 50.965143319954059 ], [ -118.100027595907065, 50.965323025927695 ], [ -118.100316454407562, 50.965410853160733 ], [ -118.100318593197784, 50.965501381201136 ], [ -118.100607453347322, 50.965589207701534 ], [ -118.100609592716751, 50.965679735730312 ], [ -118.100752953652815, 50.965678384692836 ], [ -118.100900594463923, 50.965858089515216 ], [ -118.101043955934927, 50.965856738117218 ], [ -118.10105037668265, 50.966128322146822 ], [ -118.101337101262686, 50.966125618797037 ], [ -118.101334960445286, 50.96603509079732 ], [ -118.101619543060622, 50.965941858760019 ], [ -118.101617401708324, 50.965851330766021 ], [ -118.10176076312402, 50.965849978488407 ], [ -118.101899840743073, 50.965667570059829 ], [ -118.102184419971749, 50.965574336661312 ], [ -118.102177992738532, 50.965302752709299 ], [ -118.102321352438793, 50.965301399754054 ], [ -118.102317067114953, 50.965120343787333 ], [ -118.102460426247092, 50.965118990664855 ], [ -118.102447568870261, 50.96457582275535 ], [ -118.102590926320204, 50.964574469483011 ], [ -118.102573781543228, 50.963850245555761 ], [ -118.102717136754094, 50.963848892142245 ], [ -118.102413284481102, 50.963127374736892 ], [ -118.102124436336737, 50.963039552592541 ], [ -118.102122294224586, 50.96294902456868 ], [ -118.101978941754368, 50.962950377235138 ], [ -118.101974658120255, 50.962769321174321 ], [ -118.101685813017085, 50.962681497920876 ], [ -118.101683671784642, 50.962590969878093 ], [ -118.101540320395145, 50.96259232199948 ], [ -118.101536038520464, 50.962411265900826 ], [ -118.101392687676849, 50.962412617837629 ], [ -118.101390547034569, 50.96232208978175 ], [ -118.101247196458417, 50.962323441538331 ], [ -118.101099565733691, 50.96214373698546 ], [ -118.10066951557647, 50.962147790646078 ], [ -118.100667376359738, 50.96205726256408 ], [ -118.100093977109239, 50.962062664964947 ], [ -118.100091839017438, 50.961972136864134 ], [ -118.099805139882832, 50.961974837000511 ], [ -118.099803002359025, 50.961884308889573 ], [ -118.098940770519008, 50.96180187691273 ], [ -118.098938634688096, 50.961711348772845 ], [ -118.098221890504163, 50.96171809069368 ], [ -118.098219756076631, 50.961627562530687 ], [ -118.097357531617007, 50.961545118814691 ], [ -118.097355398882328, 50.961454590622807 ], [ -118.096493179060303, 50.961372140493793 ], [ -118.096491048018436, 50.961281612273027 ], [ -118.095917657513112, 50.961286994114069 ], [ -118.095915527596077, 50.961196465874565 ], [ -118.09534000923631, 50.961111316625782 ], [ -118.095337880455105, 50.961020788366064 ], [ -118.094764492939206, 50.961026164526693 ], [ -118.094762365282818, 50.960935636248252 ], [ -118.094659906832945, 50.960936596615078 ], [ -118.0943044, 50.960209799999987 ], [ -118.096700200000015, 50.9548856 ], [ -118.097140700000011, 50.95502 ], [ -118.0975752, 50.9550043 ], [ -118.098878199999987, 50.9546804 ], [ -118.1008625, 50.9547737 ], [ -118.102833100000012, 50.95507460000001 ], [ -118.1057961, 50.9558054 ], [ -118.10782829999998, 50.9550258 ], [ -118.112192300000018, 50.9554607 ], [ -118.1159701, 50.9545991 ], [ -118.11439390000001, 50.952071499999988 ], [ -118.1195916, 50.9501101 ], [ -118.126548, 50.9508569 ], [ -118.1373276, 50.9481612 ], [ -118.14259, 50.9484991 ], [ -118.1458999, 50.9504188 ], [ -118.1505402, 50.9489047 ], [ -118.1538715, 50.9492697 ], [ -118.158227299999979, 50.9538117 ], [ -118.1637205, 50.9539739 ], [ -118.1658905, 50.9547326 ], [ -118.165945900000011, 50.955958099999989 ], [ -118.165170900000021, 50.9562471 ], [ -118.164720099999982, 50.9570392 ], [ -118.164569799999981, 50.9577814 ], [ -118.16453820000001, 50.9590866 ], [ -118.1637157, 50.9591464 ], [ -118.1616753, 50.9587429 ], [ -118.1607816, 50.9582248 ], [ -118.1603862, 50.957079 ], [ -118.159832600000016, 50.956939499999983 ], [ -118.1554116, 50.9576121 ], [ -118.151042800000013, 50.9566267 ], [ -118.150141500000018, 50.9579919 ], [ -118.151557699999984, 50.9613707 ], [ -118.1493476, 50.9646953 ], [ -118.136408599999982, 50.9688169 ], [ -118.13134460000002, 50.9681818 ], [ -118.1284264, 50.9697087 ], [ -118.129263199999983, 50.9719112 ], [ -118.1266239, 50.9738434 ], [ -118.12610890000002, 50.979207099999989 ], [ -118.1202725, 50.98045 ], [ -118.1136849, 50.9846782 ], [ -118.114436, 50.9870151 ], [ -118.1135347, 50.9891087 ], [ -118.1124888, 50.989489199999987 ], [ -118.0974548, 50.9877361 ], [ -118.0946509, 50.9857329 ], [ -118.093137500000012, 50.9844461 ], [ -118.0929862, 50.9833808 ], [ -118.092014, 50.9825509 ], [ -118.0933045, 50.9794425 ], [ -118.0905935, 50.9748743 ], [ -118.0909558, 50.97381330000001 ], [ -118.0891038, 50.9705813 ], [ -118.089156499999987, 50.9685813 ], [ -118.0905772, 50.9675869 ], [ -118.09173060000002, 50.9671837 ], [ -118.0930243, 50.9673773 ], [ -118.0947871, 50.96583780000001 ], [ -118.0959854, 50.9653255 ] ] ] } },
{ "type": "Feature", "properties": { "band": "Lift top to sub peak" }, "geometry": { "type": "MultiPolygon", "coordinates": [ [ [ [ -118.096430808342291, 50.964813557681879 ], [ -118.096392138771591, 50.964813920693324 ], [ -118.096429704559711, 50.964766671355548 ], [ -118.096430808342291, 50.964813557681879 ] ] ], [ [ [ -118.094762365282818, 50.960935636248252 ], [ -118.094764492939206, 50.961026164526693 ], [ -118.095337880455105, 50.961020788366064 ], [ -118.09534000923631, 50.961111316625782 ], [ -118.095626703485195, 50.961108627481487 ], [ -118.095628832834294, 50.96119915573108 ], [ -118.095915527596077, 50.961196465874565 ], [ -118.095917657513112, 50.961286994114069 ], [ -118.096491048018436, 50.961281612273027 ], [ -118.096493179060303, 50.961372140493793 ], [ -118.096923222659058, 50.961368102253161 ], [ -118.096925354547338, 50.961458630459475 ], [ -118.097355398882328, 50.961454590622807 ], [ -118.097357531617007, 50.961545118814691 ], [ -118.098219756076631, 50.961627562530687 ], [ -118.098221890504163, 50.96171809069368 ], [ -118.098938634688096, 50.961711348772845 ], [ -118.098940770519008, 50.96180187691273 ], [ -118.099803002359025, 50.961884308889573 ], [ -118.099805139882832, 50.961974837000511 ], [ -118.100091839017438, 50.961972136864134 ], [ -118.100093977109239, 50.962062664964947 ], [ -118.100667376359738, 50.96205726256408 ], [ -118.10066951557647, 50.962147790646078 ], [ -118.101099565733691, 50.96214373698546 ], [ -118.101247196458417, 50.962323441538331 ], [ -118.101390547034569, 50.96232208978175 ], [ -118.101392687676849, 50.962412617837629 ], [ -118.101536038520464, 50.962411265900826 ], [ -118.101540320395145, 50.96259232199948 ], [ -118.101683671784642, 50.962590969878093 ], [ -118.101685813017085, 50.962681497920876 ], [ -118.101974658120255, 50.962769321174321 ], [ -118.101978941754368, 50.962950377235138 ], [ -118.102122294224586, 50.96294902456868 ], [ -118.102269931476073, 50.963128727763866 ], [ -118.102413284481102, 50.963127374736892 ], [ -118.102717136754094, 50.963848892142245 ], [ -118.102573781543228, 50.963850245555761 ], [ -118.102590926320204, 50.964574469483011 ], [ -118.102447568870261, 50.96457582275535 ], [ -118.102460426247092, 50.965118990664855 ], [ -118.102317067114953, 50.965120343787333 ], [ -118.102321352438793, 50.965301399754054 ], [ -118.102177992738532, 50.965302752709299 ], [ -118.102184419971749, 50.965574336661312 ], [ -118.102041059424892, 50.965575689453658 ], [ -118.101901982630324, 50.965758098048099 ], [ -118.101617401708324, 50.965851330766021 ], [ -118.101619543060622, 50.965941858760019 ], [ -118.101334960445286, 50.96603509079732 ], [ -118.101337101262686, 50.966125618797037 ], [ -118.10105037668265, 50.966128322146822 ], [ -118.101043955934927, 50.965856738117218 ], [ -118.10075509331179, 50.965768912715809 ], [ -118.100752953652815, 50.965678384692836 ], [ -118.100464092678749, 50.965590558558752 ], [ -118.100461953598909, 50.965500030524176 ], [ -118.100318593197784, 50.965501381201136 ], [ -118.100316454407562, 50.965410853160733 ], [ -118.100027595907065, 50.965323025927695 ], [ -118.099879960175755, 50.965143319954059 ], [ -118.099593241502234, 50.965146019690039 ], [ -118.099591104148814, 50.965055491622074 ], [ -118.099304385988177, 50.965058190645721 ], [ -118.099302249202822, 50.964967662567616 ], [ -118.09901553155504, 50.96497036087893 ], [ -118.099013395337749, 50.964879832790707 ], [ -118.098870036775836, 50.964881181678159 ], [ -118.09886790084812, 50.964790653584117 ], [ -118.098724542553668, 50.964792002291318 ], [ -118.098576913539901, 50.964612294612792 ], [ -118.098290198009877, 50.964614991130318 ], [ -118.098288063229333, 50.964524463014541 ], [ -118.097857990687061, 50.964528506458478 ], [ -118.097860124632092, 50.96461903458723 ], [ -118.097286693307296, 50.964624423400288 ], [ -118.097284560476339, 50.964533895254242 ], [ -118.096854487702544, 50.964537935003946 ], [ -118.096856619697974, 50.96462846316296 ], [ -118.096569903903315, 50.964631155458491 ], [ -118.096572035352722, 50.96472168362466 ], [ -118.09646467076719, 50.964722691611009 ], [ -118.0966387, 50.96450380000001 ], [ -118.0960908, 50.9641463 ], [ -118.095780994687829, 50.963280337016513 ], [ -118.095964518472726, 50.963278615009905 ], [ -118.095962388313538, 50.963188086802852 ], [ -118.096249095284193, 50.963185396052801 ], [ -118.096246964579024, 50.963094867852924 ], [ -118.096390317769348, 50.963093522218351 ], [ -118.096383924884421, 50.962821937622792 ], [ -118.095810515398895, 50.962827319053801 ], [ -118.095808385573221, 50.962736790835073 ], [ -118.095541709932974, 50.962739292615481 ], [ -118.094659906832945, 50.960936596615078 ], [ -118.094762365282818, 50.960935636248252 ] ], [ [ -118.099852168201409, 50.963966455068068 ], [ -118.09999552390093, 50.963965104992511 ], [ -118.099993385855583, 50.963874576918364 ], [ -118.099704537525199, 50.963786748800594 ], [ -118.099556907996103, 50.963607042333983 ], [ -118.099126844106991, 50.963611090397713 ], [ -118.099131116800436, 50.963792146605378 ], [ -118.0992744719982, 50.963790797418035 ], [ -118.099278745292821, 50.963971853611142 ], [ -118.099422101036538, 50.963970504239235 ], [ -118.099424237978923, 50.964061032329241 ], [ -118.099710949990211, 50.964058333049032 ], [ -118.099713087500632, 50.964148861128905 ], [ -118.099856443768232, 50.964147511220617 ], [ -118.099852168201409, 50.963966455068068 ] ] ] ] } },
{ "type": "Feature", "properties": { "band": "Sub peak to summit" }, "geometry": { "type": "MultiPolygon", "coordinates": [ [ [ [ -118.095808385573221, 50.962736790835073 ], [ -118.095810515398895, 50.962827319053801 ], [ -118.096383924884421, 50.962821937622792 ], [ -118.096390317769348, 50.963093522218351 ], [ -118.096246964579024, 50.963094867852924 ], [ -118.096249095284193, 50.963185396052801 ], [ -118.095962388313538, 50.963188086802852 ], [ -118.095964518472726, 50.963278615009905 ], [ -118.095780994687829, 50.963280337016513 ], [ -118.095541709932974, 50.962739292615481 ], [ -118.095808385573221, 50.962736790835073 ] ] ], [ [ [ -118.099424237978923, 50.964061032329241 ], [ -118.099422101036538, 50.963970504239235 ], [ -118.099278745292821, 50.963971853611142 ], [ -118.0992744719982, 50.963790797418035 ], [ -118.099131116800436, 50.963792146605378 ], [ -118.099126844106991, 50.963611090397713 ], [ -118.099556907996103, 50.963607042333983 ], [ -118.099704537525199, 50.963786748800594 ], [ -118.099993385855583, 50.963874576918364 ], [ -118.09999552390093, 50.963965104992511 ], [ -118.099852168201409, 50.963966455068068 ], [ -118.099856443768232, 50.964147511220617 ], [ -118.099713087500632, 50.964148861128905 ], [ -118.099710949990211, 50.964058333049032 ], [ -118.099424237978923, 50.964061032329241 ] ] ] ] } }
]
}
