{
"type": "FeatureCollection",
"name": "10_funnel_parcels",
"crs": { "type": "name", "properties": { "name": "urn:ogc:def:crs:OGC:1.3:CRS84" } },
"features": [
{ "type": "Feature", "properties": { "PID": "016797256", "PARCEL_CLASS": "Subdivision", "FEATURE_AREA_SQM": 232.6854, "passed_full_funnel": true, "network_dist_to_gondola_base_m": 6748.633378927143, "network_dist_to_downtown_m": 390.29187645151291 }, "geometry": { "type": "Polygon", "coordinates": [ [ [ -118.193540190274419, 50.99761733297661 ], [ -118.193618905356701, 50.997664499121235 ], [ -118.193918244634062, 50.997466213204476 ], [ -118.193839157192826, 50.997418839706313 ], [ -118.193540190274419, 50.99761733297661 ] ] ] } },
{ "type": "Feature", "properties": { "PID": "010532773", "PARCEL_CLASS": "Subdivision", "FEATURE_AREA_SQM": 3121.9882, "passed_full_funnel": true, "network_dist_to_gondola_base_m": 5837.0068007834907, "network_dist_to_downtown_m": 1218.4085941668241 }, "geometry": { "type": "Polygon", "coordinates": [ [ [ -118.192988141428287, 50.992712061972789 ], [ -118.193154686038596, 50.992819512422102 ], [ -118.194086871145174, 50.992199256791174 ], [ -118.193577456156888, 50.99189319740313 ], [ -118.192988141428287, 50.992712061972789 ] ] ] } },
{ "type": "Feature", "properties": { "PID": "016218931", "PARCEL_CLASS": "Subdivision", "FEATURE_AREA_SQM": 231.7583, "passed_full_funnel": true, "network_dist_to_gondola_base_m": 6739.90487944903, "network_dist_to_downtown_m": 381.5633769734003 }, "geometry": { "type": "Polygon", "coordinates": [ [ [ -118.193697615902877, 50.997711700114152 ], [ -118.193776306297437, 50.99775889421241 ], [ -118.194075321899973, 50.997560351347637 ], [ -118.193996920782368, 50.99751335649318 ], [ -118.193697615902877, 50.997711700114152 ] ] ] } },
{ "type": "Feature", "properties": { "PID": "014078953", "PARCEL_CLASS": "Subdivision", "FEATURE_AREA_SQM": 234.329, "passed_full_funnel": true, "network_dist_to_gondola_base_m": 6927.2312996747587, "network_dist_to_downtown_m": 525.50024632943064 }, "geometry": { "type": "Polygon", "coordinates": [ [ [ -118.199694194623163, 50.999417255047867 ], [ -118.199394950056188, 50.999615864280393 ], [ -118.199472404901712, 50.999664668701584 ], [ -118.199771556581183, 50.999466326540336 ], [ -118.199694194623163, 50.999417255047867 ] ] ] } },
{ "type": "Feature", "properties": { "PID": "032564571", "PARCEL_CLASS": "Building Strata", "FEATURE_AREA_SQM": 6205.7404, "passed_full_funnel": true, "network_dist_to_gondola_base_m": 6436.2165185658632, "network_dist_to_downtown_m": 2535.2006118511622 }, "geometry": { "type": "Polygon", "coordinates": [ [ [ -118.185532913182286, 50.990064663745237 ], [ -118.18450463764681, 50.990745143749422 ], [ -118.185116667782339, 50.991113961999268 ], [ -118.186143105592038, 50.990433945638358 ], [ -118.185532913182286, 50.990064663745237 ] ] ] } },
{ "type": "Feature", "properties": { "PID": "032564503", "PARCEL_CLASS": "Building Strata", "FEATURE_AREA_SQM": 6205.7404, "passed_full_funnel": true, "network_dist_to_gondola_base_m": 6436.2165185658632, "network_dist_to_downtown_m": 2535.2006118511622 }, "geometry": { "type": "Polygon", "coordinates": [ [ [ -118.185532913182286, 50.990064663745237 ], [ -118.18450463764681, 50.990745143749422 ], [ -118.185116667782339, 50.991113961999268 ], [ -118.186143105592038, 50.990433945638358 ], [ -118.185532913182286, 50.990064663745237 ] ] ] } },
{ "type": "Feature", "properties": { "PID": "032488921", "PARCEL_CLASS": "Building Strata", "FEATURE_AREA_SQM": 6205.7404, "passed_full_funnel": true, "network_dist_to_gondola_base_m": 6436.2165185658632, "network_dist_to_downtown_m": 2535.2006118511622 }, "geometry": { "type": "Polygon", "coordinates": [ [ [ -118.185532913182286, 50.990064663745237 ], [ -118.18450463764681, 50.990745143749422 ], [ -118.185116667782339, 50.991113961999268 ], [ -118.186143105592038, 50.990433945638358 ], [ -118.185532913182286, 50.990064663745237 ] ] ] } },
{ "type": "Feature", "properties": { "PID": "032366744", "PARCEL_CLASS": "Building Strata", "FEATURE_AREA_SQM": 6205.7404, "passed_full_funnel": true, "network_dist_to_gondola_base_m": 6436.2165185658632, "network_dist_to_downtown_m": 2535.2006118511622 }, "geometry": { "type": "Polygon", "coordinates": [ [ [ -118.185532913182286, 50.990064663745237 ], [ -118.18450463764681, 50.990745143749422 ], [ -118.185116667782339, 50.991113961999268 ], [ -118.186143105592038, 50.990433945638358 ], [ -118.185532913182286, 50.990064663745237 ] ] ] } },
{ "type": "Feature", "properties": { "PID": "032366671", "PARCEL_CLASS": "Building Strata", "FEATURE_AREA_SQM": 6205.7404, "passed_full_funnel": true, "network_dist_to_gondola_base_m": 6436.2165185658632, "network_dist_to_downtown_m": 2535.2006118511622 }, "geometry": { "type": "Polygon", "coordinates": [ [ [ -118.185532913182286, 50.990064663745237 ], [ -118.18450463764681, 50.990745143749422 ], [ -118.185116667782339, 50.991113961999268 ], [ -118.186143105592038, 50.990433945638358 ], [ -118.185532913182286, 50.990064663745237 ] ] ] } },
{ "type": "Feature", "properties": { "PID": "032366701", "PARCEL_CLASS": "Building Strata", "FEATURE_AREA_SQM": 6205.7404, "passed_full_funnel": true, "network_dist_to_gondola_base_m": 6436.2165185658632, "network_dist_to_downtown_m": 2535.2006118511622 }, "geometry": { "type": "Polygon", "coordinates": [ [ [ -118.185532913182286, 50.990064663745237 ], [ -118.18450463764681, 50.990745143749422 ], [ -118.185116667782339, 50.991113961999268 ], [ -118.186143105592038, 50.990433945638358 ], [ -118.185532913182286, 50.990064663745237 ] ] ] } },
{ "type": "Feature", "properties": { "PID": "032564473", "PARCEL_CLASS": "Building Strata", "FEATURE_AREA_SQM": 6205.7404, "passed_full_funnel": true, "network_dist_to_gondola_base_m": 6436.2165185658632, "network_dist_to_downtown_m": 2535.2006118511622 }, "geometry": { "type": "Polygon", "coordinates": [ [ [ -118.185532913182286, 50.990064663745237 ], [ -118.18450463764681, 50.990745143749422 ], [ -118.185116667782339, 50.991113961999268 ], [ -118.186143105592038, 50.990433945638358 ], [ -118.185532913182286, 50.990064663745237 ] ] ] } },
{ "type": "Feature", "properties": { "PID": "032366779", "PARCEL_CLASS": "Building Strata", "FEATURE_AREA_SQM": 6205.7404, "passed_full_funnel": true, "network_dist_to_gondola_base_m": 6436.2165185658632, "network_dist_to_downtown_m": 2535.2006118511622 }, "geometry": { "type": "Polygon", "coordinates": [ [ [ -118.185532913182286, 50.990064663745237 ], [ -118.18450463764681, 50.990745143749422 ], [ -118.185116667782339, 50.991113961999268 ], [ -118.186143105592038, 50.990433945638358 ], [ -118.185532913182286, 50.990064663745237 ] ] ] } },
{ "type": "Feature", "properties": { "PID": "032366752", "PARCEL_CLASS": "Building Strata", "FEATURE_AREA_SQM": 6205.7404, "passed_full_funnel": true, "network_dist_to_gondola_base_m": 6436.2165185658632, "network_dist_to_downtown_m": 2535.2006118511622 }, "geometry": { "type": "Polygon", "coordinates": [ [ [ -118.185532913182286, 50.990064663745237 ], [ -118.18450463764681, 50.990745143749422 ], [ -118.185116667782339, 50.991113961999268 ], [ -118.186143105592038, 50.990433945638358 ], [ -118.185532913182286, 50.990064663745237 ] ] ] } },
{ "type": "Feature", "properties": { "PID": "032366663", "PARCEL_CLASS": "Building Strata", "FEATURE_AREA_SQM": 6205.7404, "passed_full_funnel": true, "network_dist_to_gondola_base_m": 6436.2165185658632, "network_dist_to_downtown_m": 2535.2006118511622 }, "geometry": { "type": "Polygon", "coordinates": [ [ [ -118.185532913182286, 50.990064663745237 ], [ -118.18450463764681, 50.990745143749422 ], [ -118.185116667782339, 50.991113961999268 ], [ -118.186143105592038, 50.990433945638358 ], [ -118.185532913182286, 50.990064663745237 ] ] ] } },
{ "type": "Feature", "properties": { "PID": "032366736", "PARCEL_CLASS": "Building Strata", "FEATURE_AREA_SQM": 6205.7404, "passed_full_funnel": true, "network_dist_to_gondola_base_m": 6436.2165185658632, "network_dist_to_downtown_m": 2535.2006118511622 }, "geometry": { "type": "Polygon", "coordinates": [ [ [ -118.185532913182286, 50.990064663745237 ], [ -118.18450463764681, 50.990745143749422 ], [ -118.185116667782339, 50.991113961999268 ], [ -118.186143105592038, 50.990433945638358 ], [ -118.185532913182286, 50.990064663745237 ] ] ] } },
{ "type": "Feature", "properties": { "PID": "032564554", "PARCEL_CLASS": "Building Strata", "FEATURE_AREA_SQM": 6205.7404, "passed_full_funnel": true, "network_dist_to_gondola_base_m": 6436.2165185658632, "network_dist_to_downtown_m": 2535.2006118511622 }, "geometry": { "type": "Polygon", "coordinates": [ [ [ -118.185532913182286, 50.990064663745237 ], [ -118.18450463764681, 50.990745143749422 ], [ -118.185116667782339, 50.991113961999268 ], [ -118.186143105592038, 50.990433945638358 ], [ -118.185532913182286, 50.990064663745237 ] ] ] } },
{ "type": "Feature", "properties": { "PID": "032564431", "PARCEL_CLASS": "Building Strata", "FEATURE_AREA_SQM": 6205.7404, "passed_full_funnel": true, "network_dist_to_gondola_base_m": 6436.2165185658632, "network_dist_to_downtown_m": 2535.2006118511622 }, "geometry": { "type": "Polygon", "coordinates": [ [ [ -118.185532913182286, 50.990064663745237 ], [ -118.18450463764681, 50.990745143749422 ], [ -118.185116667782339, 50.991113961999268 ], [ -118.186143105592038, 50.990433945638358 ], [ -118.185532913182286, 50.990064663745237 ] ] ] } },
{ "type": "Feature", "properties": { "PID": "032488963", "PARCEL_CLASS": "Building Strata", "FEATURE_AREA_SQM": 6205.7404, "passed_full_funnel": true, "network_dist_to_gondola_base_m": 6436.2165185658632, "network_dist_to_downtown_m": 2535.2006118511622 }, "geometry": { "type": "Polygon", "coordinates": [ [ [ -118.185532913182286, 50.990064663745237 ], [ -118.18450463764681, 50.990745143749422 ], [ -118.185116667782339, 50.991113961999268 ], [ -118.186143105592038, 50.990433945638358 ], [ -118.185532913182286, 50.990064663745237 ] ] ] } },
{ "type": "Feature", "properties": { "PID": "032366728", "PARCEL_CLASS": "Building Strata", "FEATURE_AREA_SQM": 6205.7404, "passed_full_funnel": true, "network_dist_to_gondola_base_m": 6436.2165185658632, "network_dist_to_downtown_m": 2535.2006118511622 }, "geometry": { "type": "Polygon", "coordinates": [ [ [ -118.185532913182286, 50.990064663745237 ], [ -118.18450463764681, 50.990745143749422 ], [ -118.185116667782339, 50.991113961999268 ], [ -118.186143105592038, 50.990433945638358 ], [ -118.185532913182286, 50.990064663745237 ] ] ] } },
{ "type": "Feature", "properties": { "PID": "032564538", "PARCEL_CLASS": "Building Strata", "FEATURE_AREA_SQM": 6205.7404, "passed_full_funnel": true, "network_dist_to_gondola_base_m": 6436.2165185658632, "network_dist_to_downtown_m": 2535.2006118511622 }, "geometry": { "type": "Polygon", "coordinates": [ [ [ -118.185532913182286, 50.990064663745237 ], [ -118.18450463764681, 50.990745143749422 ], [ -118.185116667782339, 50.991113961999268 ], [ -118.186143105592038, 50.990433945638358 ], [ -118.185532913182286, 50.990064663745237 ] ] ] } },
{ "type": "Feature", "properties": { "PID": "032488998", "PARCEL_CLASS": "Building Strata", "FEATURE_AREA_SQM": 6205.7404, "passed_full_funnel": true, "network_dist_to_gondola_base_m": 6436.2165185658632, "network_dist_to_downtown_m": 2535.2006118511622 }, "geometry": { "type": "Polygon", "coordinates": [ [ [ -118.185532913182286, 50.990064663745237 ], [ -118.18450463764681, 50.990745143749422 ], [ -118.185116667782339, 50.991113961999268 ], [ -118.186143105592038, 50.990433945638358 ], [ -118.185532913182286, 50.990064663745237 ] ] ] } },
{ "type": "Feature", "properties": { "PID": "032564511", "PARCEL_CLASS": "Building Strata", "FEATURE_AREA_SQM": 6205.7404, "passed_full_funnel": true, "network_dist_to_gondola_base_m": 6436.2165185658632, "network_dist_to_downtown_m": 2535.2006118511622 }, "geometry": { "type": "Polygon", "coordinates": [ [ [ -118.185532913182286, 50.990064663745237 ], [ -118.18450463764681, 50.990745143749422 ], [ -118.185116667782339, 50.991113961999268 ], [ -118.186143105592038, 50.990433945638358 ], [ -118.185532913182286, 50.990064663745237 ] ] ] } },
{ "type": "Feature", "properties": { "PID": "032489005", "PARCEL_CLASS": "Building Strata", "FEATURE_AREA_SQM": 6205.7404, "passed_full_funnel": true, "network_dist_to_gondola_base_m": 6436.2165185658632, "network_dist_to_downtown_m": 2535.2006118511622 }, "geometry": { "type": "Polygon", "coordinates": [ [ [ -118.185532913182286, 50.990064663745237 ], [ -118.18450463764681, 50.990745143749422 ], [ -118.185116667782339, 50.991113961999268 ], [ -118.186143105592038, 50.990433945638358 ], [ -118.185532913182286, 50.990064663745237 ] ] ] } },
{ "type": "Feature", "properties": { "PID": "032564546", "PARCEL_CLASS": "Building Strata", "FEATURE_AREA_SQM": 6205.7404, "passed_full_funnel": true, "network_dist_to_gondola_base_m": 6436.2165185658632, "network_dist_to_downtown_m": 2535.2006118511622 }, "geometry": { "type": "Polygon", "coordinates": [ [ [ -118.185532913182286, 50.990064663745237 ], [ -118.18450463764681, 50.990745143749422 ], [ -118.185116667782339, 50.991113961999268 ], [ -118.186143105592038, 50.990433945638358 ], [ -118.185532913182286, 50.990064663745237 ] ] ] } },
{ "type": "Feature", "properties": { "PID": "032488971", "PARCEL_CLASS": "Building Strata", "FEATURE_AREA_SQM": 6205.7404, "passed_full_funnel": true, "network_dist_to_gondola_base_m": 6436.2165185658632, "network_dist_to_downtown_m": 2535.2006118511622 }, "geometry": { "type": "Polygon", "coordinates": [ [ [ -118.185532913182286, 50.990064663745237 ], [ -118.18450463764681, 50.990745143749422 ], [ -118.185116667782339, 50.991113961999268 ], [ -118.186143105592038, 50.990433945638358 ], [ -118.185532913182286, 50.990064663745237 ] ] ] } },
{ "type": "Feature", "properties": { "PID": "032366710", "PARCEL_CLASS": "Building Strata", "FEATURE_AREA_SQM": 6205.7404, "passed_full_funnel": true, "network_dist_to_gondola_base_m": 6436.2165185658632, "network_dist_to_downtown_m": 2535.2006118511622 }, "geometry": { "type": "Polygon", "coordinates": [ [ [ -118.185532913182286, 50.990064663745237 ], [ -118.18450463764681, 50.990745143749422 ], [ -118.185116667782339, 50.991113961999268 ], [ -118.186143105592038, 50.990433945638358 ], [ -118.185532913182286, 50.990064663745237 ] ] ] } },
{ "type": "Feature", "properties": { "PID": "032488955", "PARCEL_CLASS": "Building Strata", "FEATURE_AREA_SQM": 6205.7404, "passed_full_funnel": true, "network_dist_to_gondola_base_m": 6436.2165185658632, "network_dist_to_downtown_m": 2535.2006118511622 }, "geometry": { "type": "Polygon", "coordinates": [ [ [ -118.185532913182286, 50.990064663745237 ], [ -118.18450463764681, 50.990745143749422 ], [ -118.185116667782339, 50.991113961999268 ], [ -118.186143105592038, 50.990433945638358 ], [ -118.185532913182286, 50.990064663745237 ] ] ] } },
{ "type": "Feature", "properties": { "PID": "032366761", "PARCEL_CLASS": "Building Strata", "FEATURE_AREA_SQM": 6205.7404, "passed_full_funnel": true, "network_dist_to_gondola_base_m": 6436.2165185658632, "network_dist_to_downtown_m": 2535.2006118511622 }, "geometry": { "type": "Polygon", "coordinates": [ [ [ -118.185532913182286, 50.990064663745237 ], [ -118.18450463764681, 50.990745143749422 ], [ -118.185116667782339, 50.991113961999268 ], [ -118.186143105592038, 50.990433945638358 ], [ -118.185532913182286, 50.990064663745237 ] ] ] } },
{ "type": "Feature", "properties": { "PID": "032488939", "PARCEL_CLASS": "Building Strata", "FEATURE_AREA_SQM": 6205.7404, "passed_full_funnel": true, "network_dist_to_gondola_base_m": 6436.2165185658632, "network_dist_to_downtown_m": 2535.2006118511622 }, "geometry": { "type": "Polygon", "coordinates": [ [ [ -118.185532913182286, 50.990064663745237 ], [ -118.18450463764681, 50.990745143749422 ], [ -118.185116667782339, 50.991113961999268 ], [ -118.186143105592038, 50.990433945638358 ], [ -118.185532913182286, 50.990064663745237 ] ] ] } },
{ "type": "Feature", "properties": { "PID": "032489013", "PARCEL_CLASS": "Building Strata", "FEATURE_AREA_SQM": 6205.7404, "passed_full_funnel": true, "network_dist_to_gondola_base_m": 6436.2165185658632, "network_dist_to_downtown_m": 2535.2006118511622 }, "geometry": { "type": "Polygon", "coordinates": [ [ [ -118.185532913182286, 50.990064663745237 ], [ -118.18450463764681, 50.990745143749422 ], [ -118.185116667782339, 50.991113961999268 ], [ -118.186143105592038, 50.990433945638358 ], [ -118.185532913182286, 50.990064663745237 ] ] ] } },
{ "type": "Feature", "properties": { "PID": "032564562", "PARCEL_CLASS": "Building Strata", "FEATURE_AREA_SQM": 6205.7404, "passed_full_funnel": true, "network_dist_to_gondola_base_m": 6436.2165185658632, "network_dist_to_downtown_m": 2535.2006118511622 }, "geometry": { "type": "Polygon", "coordinates": [ [ [ -118.185532913182286, 50.990064663745237 ], [ -118.18450463764681, 50.990745143749422 ], [ -118.185116667782339, 50.991113961999268 ], [ -118.186143105592038, 50.990433945638358 ], [ -118.185532913182286, 50.990064663745237 ] ] ] } },
{ "type": "Feature", "properties": { "PID": "032366787", "PARCEL_CLASS": "Building Strata", "FEATURE_AREA_SQM": 6205.7404, "passed_full_funnel": true, "network_dist_to_gondola_base_m": 6436.2165185658632, "network_dist_to_downtown_m": 2535.2006118511622 }, "geometry": { "type": "Polygon", "coordinates": [ [ [ -118.185532913182286, 50.990064663745237 ], [ -118.18450463764681, 50.990745143749422 ], [ -118.185116667782339, 50.991113961999268 ], [ -118.186143105592038, 50.990433945638358 ], [ -118.185532913182286, 50.990064663745237 ] ] ] } },
{ "type": "Feature", "properties": { "PID": "032488947", "PARCEL_CLASS": "Building Strata", "FEATURE_AREA_SQM": 6205.7404, "passed_full_funnel": true, "network_dist_to_gondola_base_m": 6436.2165185658632, "network_dist_to_downtown_m": 2535.2006118511622 }, "geometry": { "type": "Polygon", "coordinates": [ [ [ -118.185532913182286, 50.990064663745237 ], [ -118.18450463764681, 50.990745143749422 ], [ -118.185116667782339, 50.991113961999268 ], [ -118.186143105592038, 50.990433945638358 ], [ -118.185532913182286, 50.990064663745237 ] ] ] } },
{ "type": "Feature", "properties": { "PID": "032564465", "PARCEL_CLASS": "Building Strata", "FEATURE_AREA_SQM": 6205.7404, "passed_full_funnel": true, "network_dist_to_gondola_base_m": 6436.2165185658632, "network_dist_to_downtown_m": 2535.2006118511622 }, "geometry": { "type": "Polygon", "coordinates": [ [ [ -118.185532913182286, 50.990064663745237 ], [ -118.18450463764681, 50.990745143749422 ], [ -118.185116667782339, 50.991113961999268 ], [ -118.186143105592038, 50.990433945638358 ], [ -118.185532913182286, 50.990064663745237 ] ] ] } },
{ "type": "Feature", "properties": { "PID": "032564449", "PARCEL_CLASS": "Building Strata", "FEATURE_AREA_SQM": 6205.7404, "passed_full_funnel": true, "network_dist_to_gondola_base_m": 6436.2165185658632, "network_dist_to_downtown_m": 2535.2006118511622 }, "geometry": { "type": "Polygon", "coordinates": [ [ [ -118.185532913182286, 50.990064663745237 ], [ -118.18450463764681, 50.990745143749422 ], [ -118.185116667782339, 50.991113961999268 ], [ -118.186143105592038, 50.990433945638358 ], [ -118.185532913182286, 50.990064663745237 ] ] ] } },
{ "type": "Feature", "properties": { "PID": "032564490", "PARCEL_CLASS": "Building Strata", "FEATURE_AREA_SQM": 6205.7404, "passed_full_funnel": true, "network_dist_to_gondola_base_m": 6436.2165185658632, "network_dist_to_downtown_m": 2535.2006118511622 }, "geometry": { "type": "Polygon", "coordinates": [ [ [ -118.185532913182286, 50.990064663745237 ], [ -118.18450463764681, 50.990745143749422 ], [ -118.185116667782339, 50.991113961999268 ], [ -118.186143105592038, 50.990433945638358 ], [ -118.185532913182286, 50.990064663745237 ] ] ] } },
{ "type": "Feature", "properties": { "PID": "032366698", "PARCEL_CLASS": "Building Strata", "FEATURE_AREA_SQM": 6205.7404, "passed_full_funnel": true, "network_dist_to_gondola_base_m": 6436.2165185658632, "network_dist_to_downtown_m": 2535.2006118511622 }, "geometry": { "type": "Polygon", "coordinates": [ [ [ -118.185532913182286, 50.990064663745237 ], [ -118.18450463764681, 50.990745143749422 ], [ -118.185116667782339, 50.991113961999268 ], [ -118.186143105592038, 50.990433945638358 ], [ -118.185532913182286, 50.990064663745237 ] ] ] } },
{ "type": "Feature", "properties": { "PID": "032564520", "PARCEL_CLASS": "Building Strata", "FEATURE_AREA_SQM": 6205.7404, "passed_full_funnel": true, "network_dist_to_gondola_base_m": 6436.2165185658632, "network_dist_to_downtown_m": 2535.2006118511622 }, "geometry": { "type": "Polygon", "coordinates": [ [ [ -118.185532913182286, 50.990064663745237 ], [ -118.18450463764681, 50.990745143749422 ], [ -118.185116667782339, 50.991113961999268 ], [ -118.186143105592038, 50.990433945638358 ], [ -118.185532913182286, 50.990064663745237 ] ] ] } },
{ "type": "Feature", "properties": { "PID": "032366680", "PARCEL_CLASS": "Building Strata", "FEATURE_AREA_SQM": 6205.7404, "passed_full_funnel": true, "network_dist_to_gondola_base_m": 6436.2165185658632, "network_dist_to_downtown_m": 2535.2006118511622 }, "geometry": { "type": "Polygon", "coordinates": [ [ [ -118.185532913182286, 50.990064663745237 ], [ -118.18450463764681, 50.990745143749422 ], [ -118.185116667782339, 50.991113961999268 ], [ -118.186143105592038, 50.990433945638358 ], [ -118.185532913182286, 50.990064663745237 ] ] ] } },
{ "type": "Feature", "properties": { "PID": "032564457", "PARCEL_CLASS": "Building Strata", "FEATURE_AREA_SQM": 6205.7404, "passed_full_funnel": true, "network_dist_to_gondola_base_m": 6436.2165185658632, "network_dist_to_downtown_m": 2535.2006118511622 }, "geometry": { "type": "Polygon", "coordinates": [ [ [ -118.185532913182286, 50.990064663745237 ], [ -118.18450463764681, 50.990745143749422 ], [ -118.185116667782339, 50.991113961999268 ], [ -118.186143105592038, 50.990433945638358 ], [ -118.185532913182286, 50.990064663745237 ] ] ] } },
{ "type": "Feature", "properties": { "PID": "032366655", "PARCEL_CLASS": "Building Strata", "FEATURE_AREA_SQM": 6205.7404, "passed_full_funnel": true, "network_dist_to_gondola_base_m": 6436.2165185658632, "network_dist_to_downtown_m": 2535.2006118511622 }, "geometry": { "type": "Polygon", "coordinates": [ [ [ -118.185532913182286, 50.990064663745237 ], [ -118.18450463764681, 50.990745143749422 ], [ -118.185116667782339, 50.991113961999268 ], [ -118.186143105592038, 50.990433945638358 ], [ -118.185532913182286, 50.990064663745237 ] ] ] } },
{ "type": "Feature", "properties": { "PID": "032564481", "PARCEL_CLASS": "Building Strata", "FEATURE_AREA_SQM": 6205.7404, "passed_full_funnel": true, "network_dist_to_gondola_base_m": 6436.2165185658632, "network_dist_to_downtown_m": 2535.2006118511622 }, "geometry": { "type": "Polygon", "coordinates": [ [ [ -118.185532913182286, 50.990064663745237 ], [ -118.18450463764681, 50.990745143749422 ], [ -118.185116667782339, 50.991113961999268 ], [ -118.186143105592038, 50.990433945638358 ], [ -118.185532913182286, 50.990064663745237 ] ] ] } },
{ "type": "Feature", "properties": { "PID": "032488980", "PARCEL_CLASS": "Building Strata", "FEATURE_AREA_SQM": 6205.7404, "passed_full_funnel": true, "network_dist_to_gondola_base_m": 6436.2165185658632, "network_dist_to_downtown_m": 2535.2006118511622 }, "geometry": { "type": "Polygon", "coordinates": [ [ [ -118.185532913182286, 50.990064663745237 ], [ -118.18450463764681, 50.990745143749422 ], [ -118.185116667782339, 50.991113961999268 ], [ -118.186143105592038, 50.990433945638358 ], [ -118.185532913182286, 50.990064663745237 ] ] ] } },
{ "type": "Feature", "properties": { "PID": "024881287", "PARCEL_CLASS": "Subdivision", "FEATURE_AREA_SQM": 418.4233, "passed_full_funnel": true, "network_dist_to_gondola_base_m": 6656.2032208310338, "network_dist_to_downtown_m": 439.0601587478904 }, "geometry": { "type": "Polygon", "coordinates": [ [ [ -118.196047899867963, 50.997682795257852 ], [ -118.196362721676877, 50.997871617868142 ], [ -118.196497389780021, 50.997782227566226 ], [ -118.196182586911419, 50.997593379527437 ], [ -118.196047899867963, 50.997682795257852 ] ] ] } },
{ "type": "Feature", "properties": { "PID": "030927986", "PARCEL_CLASS": "Subdivision", "FEATURE_AREA_SQM": 571.0886, "passed_full_funnel": true, "network_dist_to_gondola_base_m": 7204.101441005856, "network_dist_to_downtown_m": 448.10623981133381 }, "geometry": { "type": "Polygon", "coordinates": [ [ [ -118.201401136492578, 51.000894610799151 ], [ -118.2012074610018, 51.000778496420907 ], [ -118.200908236584922, 51.000976736033344 ], [ -118.201101912445793, 51.001092816591715 ], [ -118.201401136492578, 51.000894610799151 ] ] ] } },
{ "type": "Feature", "properties": { "PID": "008112231", "PARCEL_CLASS": "Subdivision", "FEATURE_AREA_SQM": 232.253, "passed_full_funnel": true, "network_dist_to_gondola_base_m": 6682.1376521172187, "network_dist_to_downtown_m": 364.36718045287512 }, "geometry": { "type": "Polygon", "coordinates": [ [ [ -118.193933719390074, 50.997853272708873 ], [ -118.194012423820041, 50.997900454930061 ], [ -118.194311474247186, 50.997701859697656 ], [ -118.194232756315941, 50.997654689379829 ], [ -118.193933719390074, 50.997853272708873 ] ] ] } },
{ "type": "Feature", "properties": { "PID": "014494442", "PARCEL_CLASS": "Subdivision", "FEATURE_AREA_SQM": 913.1724, "passed_full_funnel": true, "network_dist_to_gondola_base_m": 6819.4586378724689, "network_dist_to_downtown_m": 2918.4427311577674 }, "geometry": { "type": "Polygon", "coordinates": [ [ [ -118.180889466618495, 50.989392604256309 ], [ -118.181083943882896, 50.989510039727001 ], [ -118.181559347947754, 50.989196004965095 ], [ -118.181364868909782, 50.989078564723023 ], [ -118.180889466618495, 50.989392604256309 ] ] ] } },
{ "type": "Feature", "properties": { "PID": "017825822", "PARCEL_CLASS": "Subdivision", "FEATURE_AREA_SQM": 698.5488, "passed_full_funnel": true, "network_dist_to_gondola_base_m": 6878.9971458796281, "network_dist_to_downtown_m": 520.6556434039984 }, "geometry": { "type": "Polygon", "coordinates": [ [ [ -118.192170372522881, 50.996796340679133 ], [ -118.19240664451992, 50.996937833288378 ], [ -118.192706376043375, 50.996738929994208 ], [ -118.192470318824633, 50.996597245164004 ], [ -118.192170372522881, 50.996796340679133 ] ] ] } },
{ "type": "Feature", "properties": { "PID": "016167481", "PARCEL_CLASS": "Subdivision", "FEATURE_AREA_SQM": 232.295, "passed_full_funnel": true, "network_dist_to_gondola_base_m": 7019.0057760994296, "network_dist_to_downtown_m": 508.94045818586108 }, "geometry": { "type": "Polygon", "coordinates": [ [ [ -118.196052200261406, 51.000179990821643 ], [ -118.196296077778868, 51.000406927265473 ], [ -118.196385811576604, 51.000368449816293 ], [ -118.196142274265753, 51.000141715259851 ], [ -118.196052200261406, 51.000179990821643 ] ] ] } },
{ "type": "Feature", "properties": { "PID": "016797281", "PARCEL_CLASS": "Subdivision", "FEATURE_AREA_SQM": 231.59, "passed_full_funnel": true, "network_dist_to_gondola_base_m": 6754.5688061080928, "network_dist_to_downtown_m": 396.22730363246239 }, "geometry": { "type": "Polygon", "coordinates": [ [ [ -118.193461483371891, 50.997570137519858 ], [ -118.193540190274419, 50.99761733297661 ], [ -118.193839157192826, 50.997418839706313 ], [ -118.193760849831577, 50.997371901773818 ], [ -118.193461483371891, 50.997570137519858 ] ] ] } },
{ "type": "Feature", "properties": { "PID": "006642187", "PARCEL_CLASS": "Subdivision", "FEATURE_AREA_SQM": 237.1979, "passed_full_funnel": true, "network_dist_to_gondola_base_m": 6682.0169365203183, "network_dist_to_downtown_m": 364.246464855976 }, "geometry": { "type": "Polygon", "coordinates": [ [ [ -118.194660802166297, 50.997909675599146 ], [ -118.194580362251102, 50.997861417971521 ], [ -118.194281139204108, 50.998060017199187 ], [ -118.194361339709545, 50.998108143602039 ], [ -118.194660802166297, 50.997909675599146 ] ] ] } },
{ "type": "Feature", "properties": { "PID": "008343870", "PARCEL_CLASS": "Subdivision", "FEATURE_AREA_SQM": 463.6993, "passed_full_funnel": true, "network_dist_to_gondola_base_m": 7882.49847578765, "network_dist_to_downtown_m": 1117.0850298856276 }, "geometry": { "type": "Polygon", "coordinates": [ [ [ -118.208171704123004, 51.005463456178141 ], [ -118.208006139810195, 51.005375236667703 ], [ -118.207726301052716, 51.005584803212479 ], [ -118.207891889525001, 51.005673017552724 ], [ -118.208171704123004, 51.005463456178141 ] ] ] } },
{ "type": "Feature", "properties": { "PID": "014713144", "PARCEL_CLASS": "Subdivision", "FEATURE_AREA_SQM": 226.3563, "passed_full_funnel": true, "network_dist_to_gondola_base_m": 7191.9213013598473, "network_dist_to_downtown_m": 248.80764431283265 }, "geometry": { "type": "Polygon", "coordinates": [ [ [ -118.199061709570628, 51.000927835624715 ], [ -118.19913728416752, 51.000973127581318 ], [ -118.199436557957895, 51.000774395079731 ], [ -118.199358695635425, 51.000727841766 ], [ -118.199061709570628, 51.000927835624715 ] ] ] } },
{ "type": "Feature", "properties": { "PID": "016835638", "PARCEL_CLASS": "Subdivision", "FEATURE_AREA_SQM": 230.891, "passed_full_funnel": true, "network_dist_to_gondola_base_m": 6875.9578779678204, "network_dist_to_downtown_m": 317.11702965225595 }, "geometry": { "type": "Polygon", "coordinates": [ [ [ -118.193923147767975, 50.999093272186578 ], [ -118.194238170953611, 50.999281760278727 ], [ -118.194312488956172, 50.999232433785615 ], [ -118.193997551590982, 50.999043882307994 ], [ -118.193923147767975, 50.999093272186578 ] ] ] } },
{ "type": "Feature", "properties": { "PID": "016179048", "PARCEL_CLASS": "Subdivision", "FEATURE_AREA_SQM": 234.6075, "passed_full_funnel": true, "network_dist_to_gondola_base_m": 6483.5537855482089, "network_dist_to_downtown_m": 587.47338399553848 }, "geometry": { "type": "Polygon", "coordinates": [ [ [ -118.192842368746, 50.996747925013715 ], [ -118.192921123602787, 50.996795097334704 ], [ -118.193223168832574, 50.996594552748043 ], [ -118.1931444672297, 50.996547371690838 ], [ -118.192842368746, 50.996747925013715 ] ] ] } },
{ "type": "Feature", "properties": { "PID": "016797345", "PARCEL_CLASS": "Subdivision", "FEATURE_AREA_SQM": 232.1516, "passed_full_funnel": true, "network_dist_to_gondola_base_m": 6593.9902005342738, "network_dist_to_downtown_m": 970.65114437197838 }, "geometry": { "type": "Polygon", "coordinates": [ [ [ -118.193304066933266, 50.997475772414596 ], [ -118.193382775228699, 50.997522958169164 ], [ -118.193681710421501, 50.997324491086289 ], [ -118.193602985946939, 50.997277316144817 ], [ -118.193304066933266, 50.997475772414596 ] ] ] } },
{ "type": "Feature", "properties": { "PID": "007362161", "PARCEL_CLASS": "Subdivision", "FEATURE_AREA_SQM": 232.4803, "passed_full_funnel": true, "network_dist_to_gondola_base_m": 6583.7008295816031, "network_dist_to_downtown_m": 960.36177341930818 }, "geometry": { "type": "Polygon", "coordinates": [ [ [ -118.192800320831665, 50.997173761164376 ], [ -118.192879056249907, 50.997220950156525 ], [ -118.193178429816115, 50.997022342342071 ], [ -118.19309975298745, 50.996975114267492 ], [ -118.192800320831665, 50.997173761164376 ] ] ] } },
{ "type": "Feature", "properties": { "PID": "025389467", "PARCEL_CLASS": "Subdivision", "FEATURE_AREA_SQM": 1197.3534, "passed_full_funnel": true, "network_dist_to_gondola_base_m": 8653.1709441403564, "network_dist_to_downtown_m": 1725.4318397535171 }, "geometry": { "type": "Polygon", "coordinates": [ [ [ -118.201168519483218, 51.003511443751592 ], [ -118.20148473900818, 51.003701563368608 ], [ -118.201868507389705, 51.003445654095685 ], [ -118.201553326466652, 51.003257024373752 ], [ -118.201168519483218, 51.003511443751592 ] ] ] } },
{ "type": "Feature", "properties": { "PID": "017931371", "PARCEL_CLASS": "Subdivision", "FEATURE_AREA_SQM": 697.0297, "passed_full_funnel": true, "network_dist_to_gondola_base_m": 6597.6865919186803, "network_dist_to_downtown_m": 463.79315157651467 }, "geometry": { "type": "Polygon", "coordinates": [ [ [ -118.194136516422176, 50.997519849099582 ], [ -118.194372439740192, 50.997661288963322 ], [ -118.194671848543464, 50.997462488456378 ], [ -118.1944355310427, 50.997321088556177 ], [ -118.194136516422176, 50.997519849099582 ] ] ] } },
{ "type": "Feature", "properties": { "PID": "013841165", "PARCEL_CLASS": "Subdivision", "FEATURE_AREA_SQM": 699.6628, "passed_full_funnel": true, "network_dist_to_gondola_base_m": 8010.9547264424637, "network_dist_to_downtown_m": 1094.1797113406317 }, "geometry": { "type": "Polygon", "coordinates": [ [ [ -118.206600130297872, 51.006213266321836 ], [ -118.206182197611881, 51.0065255244238 ], [ -118.206339642196383, 51.006620161990355 ], [ -118.20676603422973, 51.006301516851892 ], [ -118.206600130297872, 51.006213266321836 ] ] ] } },
{ "type": "Feature", "properties": { "PID": "013822926", "PARCEL_CLASS": "Subdivision", "FEATURE_AREA_SQM": 462.5479, "passed_full_funnel": true, "network_dist_to_gondola_base_m": 8360.5501474590474, "network_dist_to_downtown_m": 1455.3391826703471 }, "geometry": { "type": "Polygon", "coordinates": [ [ [ -118.211551428709555, 51.007267264448032 ], [ -118.211273758992931, 51.007475054818443 ], [ -118.211439223646011, 51.007564621902475 ], [ -118.21171682285906, 51.007356790120234 ], [ -118.211551428709555, 51.007267264448032 ] ] ] } },
{ "type": "Feature", "properties": { "PID": "013822870", "PARCEL_CLASS": "Subdivision", "FEATURE_AREA_SQM": 462.5273, "passed_full_funnel": true, "network_dist_to_gondola_base_m": 8419.9746351326667, "network_dist_to_downtown_m": 1514.7636703439669 }, "geometry": { "type": "Polygon", "coordinates": [ [ [ -118.211770170236775, 51.007743766314277 ], [ -118.21193563940723, 51.007833334623427 ], [ -118.212212972278564, 51.007625363953224 ], [ -118.212047604489044, 51.007535841009172 ], [ -118.211770170236775, 51.007743766314277 ] ] ] } },
{ "type": "Feature", "properties": { "PID": "023586834", "PARCEL_CLASS": "Subdivision", "FEATURE_AREA_SQM": 693.8343, "passed_full_funnel": true, "network_dist_to_gondola_base_m": 6612.4543885325438, "network_dist_to_downtown_m": 989.11533237024878 }, "geometry": { "type": "Polygon", "coordinates": [ [ [ -118.192669813843025, 50.997697723813125 ], [ -118.192905150100742, 50.997839057390344 ], [ -118.193204187726153, 50.99764124896388 ], [ -118.192968119005243, 50.997499920914599 ], [ -118.192669813843025, 50.997697723813125 ] ] ] } },
{ "type": "Feature", "properties": { "PID": "013822900", "PARCEL_CLASS": "Subdivision", "FEATURE_AREA_SQM": 462.541, "passed_full_funnel": true, "network_dist_to_gondola_base_m": 8361.2821025281792, "network_dist_to_downtown_m": 1456.0711377394791 }, "geometry": { "type": "Polygon", "coordinates": [ [ [ -118.211439223646011, 51.007564621902475 ], [ -118.211604688807441, 51.007654189626784 ], [ -118.21188221073308, 51.007446306023724 ], [ -118.21171682285906, 51.007356790120234 ], [ -118.211439223646011, 51.007564621902475 ] ] ] } },
{ "type": "Feature", "properties": { "PID": "005715610", "PARCEL_CLASS": "Subdivision", "FEATURE_AREA_SQM": 976.9983, "passed_full_funnel": true, "network_dist_to_gondola_base_m": 8469.4044702639676, "network_dist_to_downtown_m": 1564.1935054752685 }, "geometry": { "type": "Polygon", "coordinates": [ [ [ -118.212084611832125, 51.008177640067743 ], [ -118.212688508094871, 51.008159895363129 ], [ -118.212190761345283, 51.007894816061892 ], [ -118.211950522911593, 51.008074372620833 ], [ -118.212084611832125, 51.008177640067743 ] ] ] } },
{ "type": "Feature", "properties": { "PID": "017038537", "PARCEL_CLASS": "Subdivision", "FEATURE_AREA_SQM": 230.5478, "passed_full_funnel": true, "network_dist_to_gondola_base_m": 6881.9645772956173, "network_dist_to_downtown_m": 323.12372898005435 }, "geometry": { "type": "Polygon", "coordinates": [ [ [ -118.194146059031382, 50.998945305551075 ], [ -118.194461026401584, 50.999133848792034 ], [ -118.194535269297276, 50.99908457114779 ], [ -118.194220312191462, 50.998896018879918 ], [ -118.194146059031382, 50.998945305551075 ] ] ] } },
{ "type": "Feature", "properties": { "PID": "016835646", "PARCEL_CLASS": "Subdivision", "FEATURE_AREA_SQM": 230.5696, "passed_full_funnel": true, "network_dist_to_gondola_base_m": 6875.742495268616, "network_dist_to_downtown_m": 316.90164695305339 }, "geometry": { "type": "Polygon", "coordinates": [ [ [ -118.193997551590982, 50.999043882307994 ], [ -118.194312488956172, 50.999232433785615 ], [ -118.194386760988024, 50.999183139281094 ], [ -118.194071795476816, 50.998994601394905 ], [ -118.193997551590982, 50.999043882307994 ] ] ] } },
{ "type": "Feature", "properties": { "PID": "016177606", "PARCEL_CLASS": "Subdivision", "FEATURE_AREA_SQM": 232.5031, "passed_full_funnel": true, "network_dist_to_gondola_base_m": 7040.5429680113739, "network_dist_to_downtown_m": 639.81252344033851 }, "geometry": { "type": "Polygon", "coordinates": [ [ [ -118.199426671435603, 51.000088644114314 ], [ -118.199505438896935, 51.000135878482133 ], [ -118.19980482579173, 50.999937423323338 ], [ -118.199726073008321, 50.999890187464764 ], [ -118.199426671435603, 51.000088644114314 ] ] ] } },
{ "type": "Feature", "properties": { "PID": "016797311", "PARCEL_CLASS": "Subdivision", "FEATURE_AREA_SQM": 232.7552, "passed_full_funnel": true, "network_dist_to_gondola_base_m": 6601.4257229759423, "network_dist_to_downtown_m": 978.08666681364718 }, "geometry": { "type": "Polygon", "coordinates": [ [ [ -118.193681710421501, 50.997324491086289 ], [ -118.193382775228699, 50.997522958169164 ], [ -118.193461483371891, 50.997570137519858 ], [ -118.193760849831577, 50.997371901773818 ], [ -118.193681710421501, 50.997324491086289 ] ] ] } },
{ "type": "Feature", "properties": { "PID": "026380005", "PARCEL_CLASS": "Subdivision", "FEATURE_AREA_SQM": 1526.0578, "passed_full_funnel": true, "network_dist_to_gondola_base_m": 8142.7055736755156, "network_dist_to_downtown_m": 1214.9664692886747 }, "geometry": { "type": "Polygon", "coordinates": [ [ [ -118.206811983580081, 51.00690406904247 ], [ -118.207126870730917, 51.007093338832732 ], [ -118.207595474658049, 51.006742831773828 ], [ -118.207263749497656, 51.006566269598807 ], [ -118.206811983580081, 51.00690406904247 ] ] ] } },
{ "type": "Feature", "properties": { "PID": "013822896", "PARCEL_CLASS": "Subdivision", "FEATURE_AREA_SQM": 462.5912, "passed_full_funnel": true, "network_dist_to_gondola_base_m": 8369.5185061564935, "network_dist_to_downtown_m": 1464.3075413677934 }, "geometry": { "type": "Polygon", "coordinates": [ [ [ -118.211604688807441, 51.007654189626784 ], [ -118.211770170236775, 51.007743766314277 ], [ -118.212047604489044, 51.007535841009172 ], [ -118.21188221073308, 51.007446306023724 ], [ -118.211604688807441, 51.007654189626784 ] ] ] } },
{ "type": "Feature", "properties": { "PID": "024210862", "PARCEL_CLASS": "Subdivision", "FEATURE_AREA_SQM": 393.07, "passed_full_funnel": true, "network_dist_to_gondola_base_m": 6640.6458428448004, "network_dist_to_downtown_m": 551.73997868622803 }, "geometry": { "type": "Polygon", "coordinates": [ [ [ -118.19300161717463, 50.997974669997532 ], [ -118.192727712908066, 50.997810537910723 ], [ -118.192694158831756, 50.997790431309319 ], [ -118.192778248913996, 50.998122971184031 ], [ -118.19300161717463, 50.997974669997532 ] ] ] } },
{ "type": "Feature", "properties": { "PID": "016179064", "PARCEL_CLASS": "Subdivision", "FEATURE_AREA_SQM": 234.5428, "passed_full_funnel": true, "network_dist_to_gondola_base_m": 6481.6414839555691, "network_dist_to_downtown_m": 585.56108240289882 }, "geometry": { "type": "Polygon", "coordinates": [ [ [ -118.19299982144436, 50.996842235797715 ], [ -118.193078579782764, 50.996889406416201 ], [ -118.193380555211732, 50.996688907157576 ], [ -118.193301861308655, 50.99664172948588 ], [ -118.19299982144436, 50.996842235797715 ] ] ] } },
{ "type": "Feature", "properties": { "PID": "013020676", "PARCEL_CLASS": "Subdivision", "FEATURE_AREA_SQM": 600.5927, "passed_full_funnel": true, "network_dist_to_gondola_base_m": 8781.1883216303795, "network_dist_to_downtown_m": 1853.4492172435389 }, "geometry": { "type": "Polygon", "coordinates": [ [ [ -118.200035364209143, 51.002832967359225 ], [ -118.200422509747085, 51.002577723463773 ], [ -118.200265325525834, 51.002483234386609 ], [ -118.199877986394043, 51.002738533851016 ], [ -118.200035364209143, 51.002832967359225 ] ] ] } },
{ "type": "Feature", "properties": { "PID": "012963241", "PARCEL_CLASS": "Subdivision", "FEATURE_AREA_SQM": 427.5359, "passed_full_funnel": true, "network_dist_to_gondola_base_m": 7287.2508086251237, "network_dist_to_downtown_m": 361.56462387296477 }, "geometry": { "type": "Polygon", "coordinates": [ [ [ -118.200666756112184, 51.001619735291065 ], [ -118.200450682562575, 51.001762962939338 ], [ -118.200607350982082, 51.001856929114496 ], [ -118.200907822823623, 51.001658442610186 ], [ -118.200666756112184, 51.001619735291065 ] ] ] } },
{ "type": "Feature", "properties": { "PID": "024467006", "PARCEL_CLASS": "Subdivision", "FEATURE_AREA_SQM": 232.4131, "passed_full_funnel": true, "network_dist_to_gondola_base_m": 6569.1653524473895, "network_dist_to_downtown_m": 498.78350992946389 }, "geometry": { "type": "Polygon", "coordinates": [ [ [ -118.193900354741928, 50.997378361279246 ], [ -118.19397910711433, 50.997425543338338 ], [ -118.194278285483122, 50.997226888560576 ], [ -118.194199535038067, 50.997179712253171 ], [ -118.193900354741928, 50.997378361279246 ] ] ] } },
{ "type": "Feature", "properties": { "PID": "016177991", "PARCEL_CLASS": "Subdivision", "FEATURE_AREA_SQM": 339.3083, "passed_full_funnel": true, "network_dist_to_gondola_base_m": 6857.5922048242792, "network_dist_to_downtown_m": 634.19625519635326 }, "geometry": { "type": "Polygon", "coordinates": [ [ [ -118.199578280098734, 50.998677366566554 ], [ -118.199820956014392, 50.998904485994082 ], [ -118.19993972533203, 50.999015640459675 ], [ -118.200016279967784, 50.998964794230737 ], [ -118.199668238751329, 50.998639089536574 ], [ -118.199578280098734, 50.998677366566554 ] ] ] } },
{ "type": "Feature", "properties": { "PID": "018250645", "PARCEL_CLASS": "Subdivision", "FEATURE_AREA_SQM": 1288.4096, "passed_full_funnel": true, "network_dist_to_gondola_base_m": 4744.3147706768432, "network_dist_to_downtown_m": 2318.6232831517509 }, "geometry": { "type": "Polygon", "coordinates": [ [ [ -118.185532913182286, 50.990064663745237 ], [ -118.186143105592038, 50.990433945638358 ], [ -118.186299860251111, 50.990330689459292 ], [ -118.186297361065314, 50.990253117495996 ], [ -118.185749258512345, 50.989921433705469 ], [ -118.185532913182286, 50.990064663745237 ] ] ] } },
{ "type": "Feature", "properties": { "PID": "013943821", "PARCEL_CLASS": "Subdivision", "FEATURE_AREA_SQM": 462.9937, "passed_full_funnel": true, "network_dist_to_gondola_base_m": 5297.2374798455839, "network_dist_to_downtown_m": 2023.5177485309189 }, "geometry": { "type": "Polygon", "coordinates": [ [ [ -118.188532461508458, 50.991357869178863 ], [ -118.188688613061075, 50.991451871878709 ], [ -118.188989679914101, 50.991253238105372 ], [ -118.188834378175272, 50.991159224626237 ], [ -118.188532461508458, 50.991357869178863 ] ] ] } },
{ "type": "Feature", "properties": { "PID": "016220528", "PARCEL_CLASS": "Subdivision", "FEATURE_AREA_SQM": 115.982, "passed_full_funnel": true, "network_dist_to_gondola_base_m": 6568.2358367698507, "network_dist_to_downtown_m": 529.02127163386069 }, "geometry": { "type": "Polygon", "coordinates": [ [ [ -118.197006089670978, 50.99704886127325 ], [ -118.197281875191265, 50.997261884853714 ], [ -118.197319321102299, 50.997237046543489 ], [ -118.197006089670978, 50.99704886127325 ] ] ] } },
{ "type": "Feature", "properties": { "PID": "016167457", "PARCEL_CLASS": "Subdivision", "FEATURE_AREA_SQM": 334.544, "passed_full_funnel": true, "network_dist_to_gondola_base_m": 7008.2507848962796, "network_dist_to_downtown_m": 498.18546698271177 }, "geometry": { "type": "Polygon", "coordinates": [ [ [ -118.195793561089289, 51.000289792819238 ], [ -118.196116755398307, 51.000483657206814 ], [ -118.196206327288095, 51.00044540077851 ], [ -118.195962134303699, 51.000218284949653 ], [ -118.195793561089289, 51.000289792819238 ] ] ] } },
{ "type": "Feature", "properties": { "PID": "011074892", "PARCEL_CLASS": "Subdivision", "FEATURE_AREA_SQM": 142.1037, "passed_full_funnel": true, "network_dist_to_gondola_base_m": 6908.3312766982908, "network_dist_to_downtown_m": 664.33127200833076 }, "geometry": { "type": "Polygon", "coordinates": [ [ [ -118.196188846527974, 50.998941163374319 ], [ -118.196377388114485, 50.999054467559617 ], [ -118.196453827925581, 50.999003769954044 ], [ -118.19626495493479, 50.998890563850679 ], [ -118.196188846527974, 50.998941163374319 ] ] ] } },
{ "type": "Feature", "properties": { "PID": "016221095", "PARCEL_CLASS": "Subdivision", "FEATURE_AREA_SQM": 233.1613, "passed_full_funnel": true, "network_dist_to_gondola_base_m": 6441.6016273702062, "network_dist_to_downtown_m": 801.12752879600589 }, "geometry": { "type": "Polygon", "coordinates": [ [ [ -118.191631321114258, 50.996020365382229 ], [ -118.191710309547176, 50.996067713159952 ], [ -118.192009492492616, 50.995869264029103 ], [ -118.191930389129567, 50.995821893075259 ], [ -118.191631321114258, 50.996020365382229 ] ] ] } },
{ "type": "Feature", "properties": { "PID": "005720184", "PARCEL_CLASS": "Subdivision", "FEATURE_AREA_SQM": 557.3505, "passed_full_funnel": true, "network_dist_to_gondola_base_m": 7028.550673148331, "network_dist_to_downtown_m": 639.99614105108935 }, "geometry": { "type": "Polygon", "coordinates": [ [ [ -118.198279497895527, 50.999626328465133 ], [ -118.197909539094155, 50.999784394203367 ], [ -118.198132307717287, 50.999917868076885 ], [ -118.198432698818991, 50.999717925057823 ], [ -118.198279497895527, 50.999626328465133 ] ] ] } },
{ "type": "Feature", "properties": { "PID": "006276326", "PARCEL_CLASS": "Subdivision", "FEATURE_AREA_SQM": 321.3885, "passed_full_funnel": true, "network_dist_to_gondola_base_m": 7191.458766958769, "network_dist_to_downtown_m": 388.73409795280872 }, "geometry": { "type": "Polygon", "coordinates": [ [ [ -118.197544290102982, 51.001338682646441 ], [ -118.19762243330392, 51.001385634444325 ], [ -118.198038850540826, 51.001109201013968 ], [ -118.197960688959213, 51.001062248207155 ], [ -118.197544290102982, 51.001338682646441 ] ] ] } },
{ "type": "Feature", "properties": { "PID": "011385120", "PARCEL_CLASS": "Subdivision", "FEATURE_AREA_SQM": 233.0133, "passed_full_funnel": true, "network_dist_to_gondola_base_m": 6659.9966106667671, "network_dist_to_downtown_m": 594.67305377583182 }, "geometry": { "type": "Polygon", "coordinates": [ [ [ -118.197872476597581, 50.997667150076147 ], [ -118.198189409850116, 50.997854609070728 ], [ -118.198264240239865, 50.997804987214536 ], [ -118.197947705865261, 50.997617250855427 ], [ -118.197872476597581, 50.997667150076147 ] ] ] } },
{ "type": "Feature", "properties": { "PID": "028641914", "PARCEL_CLASS": "Subdivision", "FEATURE_AREA_SQM": 461.4258, "passed_full_funnel": true, "network_dist_to_gondola_base_m": 6936.4810659185805, "network_dist_to_downtown_m": 534.75001257325277 }, "geometry": { "type": "Polygon", "coordinates": [ [ [ -118.20000629620607, 50.99960704107167 ], [ -118.19984980967314, 50.999513225885927 ], [ -118.199550613291521, 50.999711553384181 ], [ -118.199707035588972, 50.999805302150307 ], [ -118.20000629620607, 50.99960704107167 ] ] ] } },
{ "type": "Feature", "properties": { "PID": "008593019", "PARCEL_CLASS": "Subdivision", "FEATURE_AREA_SQM": 115.3934, "passed_full_funnel": true, "network_dist_to_gondola_base_m": 6658.5882081402397, "network_dist_to_downtown_m": 441.44514605709583 }, "geometry": { "type": "Polygon", "coordinates": [ [ [ -118.196968510886109, 50.99707376972669 ], [ -118.197244503846136, 50.997286674144569 ], [ -118.197281875191265, 50.997261884853714 ], [ -118.196968510886109, 50.99707376972669 ] ] ] } },
{ "type": "Feature", "properties": { "PID": "016178688", "PARCEL_CLASS": "Subdivision", "FEATURE_AREA_SQM": 232.9637, "passed_full_funnel": true, "network_dist_to_gondola_base_m": 7220.1079106644574, "network_dist_to_downtown_m": 435.26068165166828 }, "geometry": { "type": "Polygon", "coordinates": [ [ [ -118.200842351772678, 51.001165627406593 ], [ -118.200542530788042, 51.001364019841439 ], [ -118.200621181189547, 51.001411228706232 ], [ -118.200922625572517, 51.001211705139148 ], [ -118.200842351772678, 51.001165627406593 ] ] ] } },
{ "type": "Feature", "properties": { "PID": "016914783", "PARCEL_CLASS": "Subdivision", "FEATURE_AREA_SQM": 186.5943, "passed_full_funnel": true, "network_dist_to_gondola_base_m": 6876.3900104979639, "network_dist_to_downtown_m": 331.22559466540497 }, "geometry": { "type": "Polygon", "coordinates": [ [ [ -118.194429979493123, 50.999472537848774 ], [ -118.194744750907233, 50.999661178205805 ], [ -118.194804890803994, 50.999621333789612 ], [ -118.194490060954479, 50.999432634408059 ], [ -118.194429979493123, 50.999472537848774 ] ] ] } },
{ "type": "Feature", "properties": { "PID": "011385154", "PARCEL_CLASS": "Subdivision", "FEATURE_AREA_SQM": 232.8936, "passed_full_funnel": true, "network_dist_to_gondola_base_m": 6653.1692356296189, "network_dist_to_downtown_m": 587.84567873868264 }, "geometry": { "type": "Polygon", "coordinates": [ [ [ -118.197947705865261, 50.997617250855427 ], [ -118.198264240239865, 50.997804987214536 ], [ -118.198339048900877, 50.99775538187199 ], [ -118.19802290066977, 50.997567399783591 ], [ -118.197947705865261, 50.997617250855427 ] ] ] } },
{ "type": "Feature", "properties": { "PID": "018332617", "PARCEL_CLASS": "Subdivision", "FEATURE_AREA_SQM": 696.5317, "passed_full_funnel": true, "network_dist_to_gondola_base_m": 7158.2163372270206, "network_dist_to_downtown_m": 522.24205127248831 }, "geometry": { "type": "Polygon", "coordinates": [ [ [ -118.20055744666152, 51.000766489621839 ], [ -118.200793680424795, 51.000908077247061 ], [ -118.201092804822792, 51.00070975416434 ], [ -118.200856678740678, 51.000568191794486 ], [ -118.20055744666152, 51.000766489621839 ] ] ] } },
{ "type": "Feature", "properties": { "PID": "016180011", "PARCEL_CLASS": "Subdivision", "FEATURE_AREA_SQM": 228.0046, "passed_full_funnel": true, "network_dist_to_gondola_base_m": 6886.7378261922022, "network_dist_to_downtown_m": 327.89697787663931 }, "geometry": { "type": "Polygon", "coordinates": [ [ [ -118.194636813451098, 50.999335226593438 ], [ -118.194951607322864, 50.999524162489379 ], [ -118.195025035934236, 50.999475517992614 ], [ -118.194710199061532, 50.999286516955848 ], [ -118.194636813451098, 50.999335226593438 ] ] ] } },
{ "type": "Feature", "properties": { "PID": "014713161", "PARCEL_CLASS": "Subdivision", "FEATURE_AREA_SQM": 231.5745, "passed_full_funnel": true, "network_dist_to_gondola_base_m": 7196.5620016973808, "network_dist_to_downtown_m": 253.44834465036601 }, "geometry": { "type": "Polygon", "coordinates": [ [ [ -118.198982997605341, 51.000880663640828 ], [ -118.199061709570628, 51.000927835624715 ], [ -118.199358695635425, 51.000727841766 ], [ -118.199280390907546, 51.00068102267501 ], [ -118.198982997605341, 51.000880663640828 ] ] ] } },
{ "type": "Feature", "properties": { "PID": "013961926", "PARCEL_CLASS": "Subdivision", "FEATURE_AREA_SQM": 232.524, "passed_full_funnel": true, "network_dist_to_gondola_base_m": 6857.1697216398825, "network_dist_to_downtown_m": 498.82821916425326 }, "geometry": { "type": "Polygon", "coordinates": [ [ [ -118.192642844041629, 50.9970793870745 ], [ -118.19272157959719, 50.99712657350436 ], [ -118.193021824257343, 50.996928324052902 ], [ -118.192943193123625, 50.996881115288645 ], [ -118.192642844041629, 50.9970793870745 ] ] ] } },
{ "type": "Feature", "properties": { "PID": "016178084", "PARCEL_CLASS": "Subdivision", "FEATURE_AREA_SQM": 116.1637, "passed_full_funnel": true, "network_dist_to_gondola_base_m": 7215.3566664625578, "network_dist_to_downtown_m": 459.36146526803566 }, "geometry": { "type": "Polygon", "coordinates": [ [ [ -118.201168063494222, 51.000754876291289 ], [ -118.200908236584922, 51.000976736033344 ], [ -118.2012074610018, 51.000778496420907 ], [ -118.201168063494222, 51.000754876291289 ] ] ] } },
{ "type": "Feature", "properties": { "PID": "013822934", "PARCEL_CLASS": "Subdivision", "FEATURE_AREA_SQM": 462.5232, "passed_full_funnel": true, "network_dist_to_gondola_base_m": 8328.7968267814776, "network_dist_to_downtown_m": 1401.8277969079611 }, "geometry": { "type": "Polygon", "coordinates": [ [ [ -118.211108300675704, 51.00738548787627 ], [ -118.211273758992931, 51.007475054818443 ], [ -118.211551428709555, 51.007267264448032 ], [ -118.211386048774727, 51.007177743079595 ], [ -118.211108300675704, 51.00738548787627 ] ] ] } },
{ "type": "Feature", "properties": { "PID": "012826324", "PARCEL_CLASS": "Subdivision", "FEATURE_AREA_SQM": 2005.236, "passed_full_funnel": true, "network_dist_to_gondola_base_m": 6035.0637953490586, "network_dist_to_downtown_m": 2973.674134538257 }, "geometry": { "type": "Polygon", "coordinates": [ [ [ -118.18078057055088, 50.992428275328749 ], [ -118.18115770267552, 50.992654990010521 ], [ -118.18169689680451, 50.992298379462255 ], [ -118.181319545017558, 50.992071742387644 ], [ -118.18078057055088, 50.992428275328749 ] ] ] } },
{ "type": "Feature", "properties": { "PID": "016797388", "PARCEL_CLASS": "Subdivision", "FEATURE_AREA_SQM": 232.6567, "passed_full_funnel": true, "network_dist_to_gondola_base_m": 6579.6961952717757, "network_dist_to_downtown_m": 956.35713910948061 }, "geometry": { "type": "Polygon", "coordinates": [ [ [ -118.19314750078793, 50.997380728216818 ], [ -118.193225352654537, 50.997428572622262 ], [ -118.193524259907903, 50.997230142832045 ], [ -118.193446545058649, 50.997182025400626 ], [ -118.19314750078793, 50.997380728216818 ] ] ] } },
{ "type": "Feature", "properties": { "PID": "013961900", "PARCEL_CLASS": "Subdivision", "FEATURE_AREA_SQM": 231.4415, "passed_full_funnel": true, "network_dist_to_gondola_base_m": 6860.1660127381874, "network_dist_to_downtown_m": 501.82451026255706 }, "geometry": { "type": "Polygon", "coordinates": [ [ [ -118.19272157959719, 50.99712657350436 ], [ -118.192800320831665, 50.997173761164376 ], [ -118.19309975298745, 50.996975114267492 ], [ -118.193021824257343, 50.996928324052902 ], [ -118.19272157959719, 50.99712657350436 ] ] ] } },
{ "type": "Feature", "properties": { "PID": "013822764", "PARCEL_CLASS": "Subdivision", "FEATURE_AREA_SQM": 470.6707, "passed_full_funnel": true, "network_dist_to_gondola_base_m": 8471.2362932050419, "network_dist_to_downtown_m": 1566.0253284163423 }, "geometry": { "type": "Polygon", "coordinates": [ [ [ -118.211597856251274, 51.008086637631507 ], [ -118.211879708230441, 51.007875281590067 ], [ -118.211714627016818, 51.007785922670941 ], [ -118.211431218840929, 51.007997804293296 ], [ -118.211597856251274, 51.008086637631507 ] ] ] } },
{ "type": "Feature", "properties": { "PID": "015744507", "PARCEL_CLASS": "Subdivision", "FEATURE_AREA_SQM": 898.8895, "passed_full_funnel": true, "network_dist_to_gondola_base_m": 6434.0142449346749, "network_dist_to_downtown_m": 793.54014636047441 }, "geometry": { "type": "Polygon", "coordinates": [ [ [ -118.191465416696062, 50.995832392619334 ], [ -118.191631321114258, 50.996020365382229 ], [ -118.191930389129567, 50.995821893075259 ], [ -118.191547699335004, 50.995607925099605 ], [ -118.191465416696062, 50.995832392619334 ] ] ] } },
{ "type": "Feature", "properties": { "PID": "016222008", "PARCEL_CLASS": "Subdivision", "FEATURE_AREA_SQM": 230.2809, "passed_full_funnel": true, "network_dist_to_gondola_base_m": 7219.1698697820939, "network_dist_to_downtown_m": 270.62832131371943 }, "geometry": { "type": "Polygon", "coordinates": [ [ [ -118.199481846801277, 51.001181097425551 ], [ -118.199560644980735, 51.001228421330353 ], [ -118.19985958367856, 51.001029756576351 ], [ -118.199782415623574, 51.000983436291193 ], [ -118.199481846801277, 51.001181097425551 ] ] ] } },
{ "type": "Feature", "properties": { "PID": "013841173", "PARCEL_CLASS": "Subdivision", "FEATURE_AREA_SQM": 713.7583, "passed_full_funnel": true, "network_dist_to_gondola_base_m": 8025.6105696217892, "network_dist_to_downtown_m": 1108.8355545199579 }, "geometry": { "type": "Polygon", "coordinates": [ [ [ -118.206339642196383, 51.006620161990355 ], [ -118.20649708760601, 51.006714798434061 ], [ -118.206931938662024, 51.006389768020874 ], [ -118.20676603422973, 51.006301516851892 ], [ -118.206339642196383, 51.006620161990355 ] ] ] } },
{ "type": "Feature", "properties": { "PID": "013822730", "PARCEL_CLASS": "Subdivision", "FEATURE_AREA_SQM": 476.6858, "passed_full_funnel": true, "network_dist_to_gondola_base_m": 8311.5299357441982, "network_dist_to_downtown_m": 1383.7908313573585 }, "geometry": { "type": "Polygon", "coordinates": [ [ [ -118.210931364294638, 51.007731291121765 ], [ -118.21109799531061, 51.007820133954823 ], [ -118.211383418099913, 51.007606637004862 ], [ -118.211217811883728, 51.007516993149309 ], [ -118.210931364294638, 51.007731291121765 ] ] ] } },
{ "type": "Feature", "properties": { "PID": "013822748", "PARCEL_CLASS": "Subdivision", "FEATURE_AREA_SQM": 474.8719, "passed_full_funnel": true, "network_dist_to_gondola_base_m": 8305.8921217371335, "network_dist_to_downtown_m": 1378.1530173502936 }, "geometry": { "type": "Polygon", "coordinates": [ [ [ -118.21109799531061, 51.007820133954823 ], [ -118.211264607926424, 51.007908970689215 ], [ -118.211548995672686, 51.00769626772869 ], [ -118.211383418099913, 51.007606637004862 ], [ -118.21109799531061, 51.007820133954823 ] ] ] } },
{ "type": "Feature", "properties": { "PID": "016178025", "PARCEL_CLASS": "Subdivision", "FEATURE_AREA_SQM": 165.0639, "passed_full_funnel": true, "network_dist_to_gondola_base_m": 6785.7050364284914, "network_dist_to_downtown_m": 674.73044654803709 }, "geometry": { "type": "Polygon", "coordinates": [ [ [ -118.199851120867919, 50.998561271059678 ], [ -118.200173624927643, 50.998860287133041 ], [ -118.200247728188742, 50.998811067816376 ], [ -118.199851120867919, 50.998561271059678 ] ] ] } },
{ "type": "Feature", "properties": { "PID": "016221508", "PARCEL_CLASS": "Subdivision", "FEATURE_AREA_SQM": 232.249, "passed_full_funnel": true, "network_dist_to_gondola_base_m": 7150.1867143504223, "network_dist_to_downtown_m": 514.21242839589013 }, "geometry": { "type": "Polygon", "coordinates": [ [ [ -118.200376637538611, 51.00088638071783 ], [ -118.200297909121133, 51.000839189626461 ], [ -118.199998586629846, 51.00103753501736 ], [ -118.200077250686917, 51.001084749828365 ], [ -118.200376637538611, 51.00088638071783 ] ] ] } },
{ "type": "Feature", "properties": { "PID": "007572140", "PARCEL_CLASS": "Subdivision", "FEATURE_AREA_SQM": 301.7168, "passed_full_funnel": true, "network_dist_to_gondola_base_m": 8865.5932199168037, "network_dist_to_downtown_m": 1937.8541155299629 }, "geometry": { "type": "Polygon", "coordinates": [ [ [ -118.199913243402818, 51.002516197965647 ], [ -118.200070576113404, 51.002610655457993 ], [ -118.200265325525834, 51.002483234386609 ], [ -118.200106573763534, 51.002387805605444 ], [ -118.199913243402818, 51.002516197965647 ] ] ] } },
{ "type": "Feature", "properties": { "PID": "016221991", "PARCEL_CLASS": "Subdivision", "FEATURE_AREA_SQM": 233.2952, "passed_full_funnel": true, "network_dist_to_gondola_base_m": 7221.068260670565, "network_dist_to_downtown_m": 272.52671220219145 }, "geometry": { "type": "Polygon", "coordinates": [ [ [ -118.1996392964856, 51.001275658157603 ], [ -118.199938931841089, 51.001077380517721 ], [ -118.19985958367856, 51.001029756576351 ], [ -118.199560644980735, 51.001228421330353 ], [ -118.1996392964856, 51.001275658157603 ] ] ] } },
{ "type": "Feature", "properties": { "PID": "016204549", "PARCEL_CLASS": "Subdivision", "FEATURE_AREA_SQM": 232.2674, "passed_full_funnel": true, "network_dist_to_gondola_base_m": 6760.4034502658815, "network_dist_to_downtown_m": 516.40344557592118 }, "geometry": { "type": "Polygon", "coordinates": [ [ [ -118.19705154225116, 50.998211512762225 ], [ -118.197366221269405, 50.998400455650703 ], [ -118.197441036808627, 50.998350847664781 ], [ -118.197126323347945, 50.998161921544593 ], [ -118.19705154225116, 50.998211512762225 ] ] ] } },
{ "type": "Feature", "properties": { "PID": "018815103", "PARCEL_CLASS": "Subdivision", "FEATURE_AREA_SQM": 698.9934, "passed_full_funnel": true, "network_dist_to_gondola_base_m": 6637.7239155732259, "network_dist_to_downtown_m": 572.40035868228938 }, "geometry": { "type": "Polygon", "coordinates": [ [ [ -118.19802290066977, 50.997567399783591 ], [ -118.198339048900877, 50.99775538187199 ], [ -118.198563505362344, 50.997606541523083 ], [ -118.198248611220421, 50.997417718692304 ], [ -118.19802290066977, 50.997567399783591 ] ] ] } },
{ "type": "Feature", "properties": { "PID": "015744493", "PARCEL_CLASS": "Subdivision", "FEATURE_AREA_SQM": 200.0248, "passed_full_funnel": true, "network_dist_to_gondola_base_m": 6498.8133181918474, "network_dist_to_downtown_m": 704.03240868829835 }, "geometry": { "type": "Polygon", "coordinates": [ [ [ -118.191644780596164, 50.996310022006661 ], [ -118.191816480990965, 50.996526136583498 ], [ -118.191932583959726, 50.996516044671779 ], [ -118.191972770511143, 50.996489938233545 ], [ -118.191644780596164, 50.996310022006661 ] ] ] } },
{ "type": "Feature", "properties": { "PID": "006642225", "PARCEL_CLASS": "Subdivision", "FEATURE_AREA_SQM": 232.3938, "passed_full_funnel": true, "network_dist_to_gondola_base_m": 6689.66153507938, "network_dist_to_downtown_m": 371.89106341503748 }, "geometry": { "type": "Polygon", "coordinates": [ [ [ -118.194361339709545, 50.998108143602039 ], [ -118.194440014508871, 50.998155352291633 ], [ -118.194739512527676, 50.997956893798317 ], [ -118.194660802166297, 50.997909675599146 ], [ -118.194361339709545, 50.998108143602039 ] ] ] } },
{ "type": "Feature", "properties": { "PID": "016914767", "PARCEL_CLASS": "Subdivision", "FEATURE_AREA_SQM": 227.8934, "passed_full_funnel": true, "network_dist_to_gondola_base_m": 6877.508841113191, "network_dist_to_downtown_m": 332.34442528063266 }, "geometry": { "type": "Polygon", "coordinates": [ [ [ -118.194563437282838, 50.999383930526044 ], [ -118.194878183258496, 50.999572780160882 ], [ -118.194951607322864, 50.999524162489379 ], [ -118.194636813451098, 50.999335226593438 ], [ -118.194563437282838, 50.999383930526044 ] ] ] } },
{ "type": "Feature", "properties": { "PID": "006275931", "PARCEL_CLASS": "Subdivision", "FEATURE_AREA_SQM": 322.0842, "passed_full_funnel": true, "network_dist_to_gondola_base_m": 7171.2431538485271, "network_dist_to_downtown_m": 782.68862175128515 }, "geometry": { "type": "Polygon", "coordinates": [ [ [ -118.197569984900014, 51.000827649387723 ], [ -118.197151593924545, 51.001105203019442 ], [ -118.197231722889825, 51.00115088509974 ], [ -118.197648147680624, 51.000874566482459 ], [ -118.197569984900014, 51.000827649387723 ] ] ] } },
{ "type": "Feature", "properties": { "PID": "016221541", "PARCEL_CLASS": "Subdivision", "FEATURE_AREA_SQM": 238.3277, "passed_full_funnel": true, "network_dist_to_gondola_base_m": 7299.733221409695, "network_dist_to_downtown_m": 374.04703665753573 }, "geometry": { "type": "Polygon", "coordinates": [ [ [ -118.200559557474875, 51.00145240000721 ], [ -118.200332392800789, 51.001313545183358 ], [ -118.200120963291354, 51.001453004120087 ], [ -118.200559557474875, 51.00145240000721 ] ] ] } },
{ "type": "Feature", "properties": { "PID": "011010452", "PARCEL_CLASS": "Subdivision", "FEATURE_AREA_SQM": 236.7638, "passed_full_funnel": true, "network_dist_to_gondola_base_m": 6485.4263778755194, "network_dist_to_downtown_m": 1030.188932295913 }, "geometry": { "type": "Polygon", "coordinates": [ [ [ -118.198632289212526, 50.996683850096133 ], [ -118.198948710840952, 50.996873911575165 ], [ -118.199023469152323, 50.996824309607028 ], [ -118.198709094454699, 50.996632878618037 ], [ -118.198632289212526, 50.996683850096133 ] ] ] } },
{ "type": "Feature", "properties": { "PID": "010899651", "PARCEL_CLASS": "Subdivision", "FEATURE_AREA_SQM": 595.9389, "passed_full_funnel": true, "network_dist_to_gondola_base_m": 8767.947983279395, "network_dist_to_downtown_m": 1840.2088788925532 }, "geometry": { "type": "Polygon", "coordinates": [ [ [ -118.200194468457696, 51.002926741195424 ], [ -118.200578272622238, 51.002671355301288 ], [ -118.200422509747085, 51.002577723463773 ], [ -118.200035364209143, 51.002832967359225 ], [ -118.200194468457696, 51.002926741195424 ] ] ] } },
{ "type": "Feature", "properties": { "PID": "016034112", "PARCEL_CLASS": "Subdivision", "FEATURE_AREA_SQM": 233.271, "passed_full_funnel": true, "network_dist_to_gondola_base_m": 6535.9225114891378, "network_dist_to_downtown_m": 912.58345532684359 }, "geometry": { "type": "Polygon", "coordinates": [ [ [ -118.193884468625825, 50.996991000018035 ], [ -118.193805381567699, 50.996943588492329 ], [ -118.193506335459332, 50.997142296481712 ], [ -118.19358529306183, 50.997189628711276 ], [ -118.193884468625825, 50.996991000018035 ] ] ] } },
{ "type": "Feature", "properties": { "PID": "006430678", "PARCEL_CLASS": "Subdivision", "FEATURE_AREA_SQM": 233.6393, "passed_full_funnel": true, "network_dist_to_gondola_base_m": 6499.8833868645561, "network_dist_to_downtown_m": 1044.6459412849497 }, "geometry": { "type": "Polygon", "coordinates": [ [ [ -118.198482761650027, 50.996783079855035 ], [ -118.198799161277904, 50.996973112190304 ], [ -118.198873981156211, 50.996923480263447 ], [ -118.198557529133254, 50.99673346073692 ], [ -118.198482761650027, 50.996783079855035 ] ] ] } },
{ "type": "Feature", "properties": { "PID": "016179854", "PARCEL_CLASS": "Subdivision", "FEATURE_AREA_SQM": 232.2186, "passed_full_funnel": true, "network_dist_to_gondola_base_m": 6742.6483765989196, "network_dist_to_downtown_m": 384.30687412328922 }, "geometry": { "type": "Polygon", "coordinates": [ [ [ -118.193776306297437, 50.99775889421241 ], [ -118.19385502503799, 50.997806074859383 ], [ -118.194154037128968, 50.997607510774401 ], [ -118.194075321899973, 50.997560351347637 ], [ -118.193776306297437, 50.99775889421241 ] ] ] } },
{ "type": "Feature", "properties": { "PID": "010500715", "PARCEL_CLASS": "Subdivision", "FEATURE_AREA_SQM": 297.106, "passed_full_funnel": true, "network_dist_to_gondola_base_m": 7202.5295072341305, "network_dist_to_downtown_m": 253.98795876575639 }, "geometry": { "type": "Polygon", "coordinates": [ [ [ -118.198490484828042, 51.001304734765661 ], [ -118.198567531543233, 51.001350949952617 ], [ -118.198957838085931, 51.001092287732021 ], [ -118.198880430016487, 51.001045900363835 ], [ -118.198490484828042, 51.001304734765661 ] ] ] } },
{ "type": "Feature", "properties": { "PID": "032101236", "PARCEL_CLASS": "Building Strata", "FEATURE_AREA_SQM": 980.4894, "passed_full_funnel": true, "network_dist_to_gondola_base_m": 5487.386673868561, "network_dist_to_downtown_m": 2226.036562991525 }, "geometry": { "type": "Polygon", "coordinates": [ [ [ -118.186319381953652, 50.993577707816861 ], [ -118.185645511004381, 50.993983183367867 ], [ -118.18643810315568, 50.993841191638261 ], [ -118.186319381953652, 50.993577707816861 ] ] ] } },
{ "type": "Feature", "properties": { "PID": "032101244", "PARCEL_CLASS": "Building Strata", "FEATURE_AREA_SQM": 980.4894, "passed_full_funnel": true, "network_dist_to_gondola_base_m": 5487.386673868561, "network_dist_to_downtown_m": 2226.036562991525 }, "geometry": { "type": "Polygon", "coordinates": [ [ [ -118.186319381953652, 50.993577707816861 ], [ -118.185645511004381, 50.993983183367867 ], [ -118.18643810315568, 50.993841191638261 ], [ -118.186319381953652, 50.993577707816861 ] ] ] } },
{ "type": "Feature", "properties": { "PID": "032101252", "PARCEL_CLASS": "Building Strata", "FEATURE_AREA_SQM": 980.4894, "passed_full_funnel": true, "network_dist_to_gondola_base_m": 5487.386673868561, "network_dist_to_downtown_m": 2226.036562991525 }, "geometry": { "type": "Polygon", "coordinates": [ [ [ -118.186319381953652, 50.993577707816861 ], [ -118.185645511004381, 50.993983183367867 ], [ -118.18643810315568, 50.993841191638261 ], [ -118.186319381953652, 50.993577707816861 ] ] ] } },
{ "type": "Feature", "properties": { "PID": "032101261", "PARCEL_CLASS": "Building Strata", "FEATURE_AREA_SQM": 980.4894, "passed_full_funnel": true, "network_dist_to_gondola_base_m": 5487.386673868561, "network_dist_to_downtown_m": 2226.036562991525 }, "geometry": { "type": "Polygon", "coordinates": [ [ [ -118.186319381953652, 50.993577707816861 ], [ -118.185645511004381, 50.993983183367867 ], [ -118.18643810315568, 50.993841191638261 ], [ -118.186319381953652, 50.993577707816861 ] ] ] } },
{ "type": "Feature", "properties": { "PID": "016221982", "PARCEL_CLASS": "Subdivision", "FEATURE_AREA_SQM": 232.2531, "passed_full_funnel": true, "network_dist_to_gondola_base_m": 7224.8726562906286, "network_dist_to_downtown_m": 276.33110782225367 }, "geometry": { "type": "Polygon", "coordinates": [ [ [ -118.199938931841089, 51.001077380517721 ], [ -118.1996392964856, 51.001275658157603 ], [ -118.199717939332814, 51.001322887988806 ], [ -118.200017569595019, 51.001124581791167 ], [ -118.199938931841089, 51.001077380517721 ] ] ] } },
{ "type": "Feature", "properties": { "PID": "009560629", "PARCEL_CLASS": "Subdivision", "FEATURE_AREA_SQM": 232.0421, "passed_full_funnel": true, "network_dist_to_gondola_base_m": 7153.5777383397362, "network_dist_to_downtown_m": 517.60345238520244 }, "geometry": { "type": "Polygon", "coordinates": [ [ [ -118.200376637538611, 51.00088638071783 ], [ -118.200077250686917, 51.001084749828365 ], [ -118.200155754834782, 51.001131871220387 ], [ -118.200455355096764, 51.000933569176773 ], [ -118.200376637538611, 51.00088638071783 ] ] ] } },
{ "type": "Feature", "properties": { "PID": "007579705", "PARCEL_CLASS": "Subdivision", "FEATURE_AREA_SQM": 232.1869, "passed_full_funnel": true, "network_dist_to_gondola_base_m": 6826.609930147597, "network_dist_to_downtown_m": 609.50676834553576 }, "geometry": { "type": "Polygon", "coordinates": [ [ [ -118.201069310147929, 50.998506481362298 ], [ -118.20077014422472, 50.998705026807698 ], [ -118.20084882746626, 50.998752194885917 ], [ -118.201147964230728, 50.99855365986074 ], [ -118.201069310147929, 50.998506481362298 ] ] ] } },
{ "type": "Feature", "properties": { "PID": "010576665", "PARCEL_CLASS": "Subdivision", "FEATURE_AREA_SQM": 681.0137, "passed_full_funnel": true, "network_dist_to_gondola_base_m": 8216.5761074981965, "network_dist_to_downtown_m": 1288.8370031113568 }, "geometry": { "type": "Polygon", "coordinates": [ [ [ -118.205836551228771, 51.006317761636716 ], [ -118.205993226415103, 51.006411935215361 ], [ -118.206409943451007, 51.006101797464169 ], [ -118.206244983830402, 51.006012900124468 ], [ -118.205836551228771, 51.006317761636716 ] ] ] } },
{ "type": "Feature", "properties": { "PID": "010390162", "PARCEL_CLASS": "Subdivision", "FEATURE_AREA_SQM": 233.5744, "passed_full_funnel": true, "network_dist_to_gondola_base_m": 6541.7010636969389, "network_dist_to_downtown_m": 502.48649856094949 }, "geometry": { "type": "Polygon", "coordinates": [ [ [ -118.197230631436327, 50.996900032965094 ], [ -118.197543777383444, 50.997088164712309 ], [ -118.197619466903845, 50.997037961721048 ], [ -118.197306081607223, 50.996850016762536 ], [ -118.197230631436327, 50.996900032965094 ] ] ] } },
{ "type": "Feature", "properties": { "PID": "016218957", "PARCEL_CLASS": "Subdivision", "FEATURE_AREA_SQM": 232.1511, "passed_full_funnel": true, "network_dist_to_gondola_base_m": 6743.5641834491889, "network_dist_to_downtown_m": 385.22268097355857 }, "geometry": { "type": "Polygon", "coordinates": [ [ [ -118.193618905356701, 50.997664499121235 ], [ -118.193697615902877, 50.997711700114152 ], [ -118.193996920782368, 50.99751335649318 ], [ -118.193918244634062, 50.997466213204476 ], [ -118.193618905356701, 50.997664499121235 ] ] ] } },
{ "type": "Feature", "properties": { "PID": "016180003", "PARCEL_CLASS": "Subdivision", "FEATURE_AREA_SQM": 228.076, "passed_full_funnel": true, "network_dist_to_gondola_base_m": 6889.745468751511, "network_dist_to_downtown_m": 330.90462043594903 }, "geometry": { "type": "Polygon", "coordinates": [ [ [ -118.194710199061532, 50.999286516955848 ], [ -118.195025035934236, 50.999475517992614 ], [ -118.19509848704773, 50.999426850632425 ], [ -118.194783568298035, 50.99923781788187 ], [ -118.194710199061532, 50.999286516955848 ] ] ] } },
{ "type": "Feature", "properties": { "PID": "013052632", "PARCEL_CLASS": "Subdivision", "FEATURE_AREA_SQM": 942.9266, "passed_full_funnel": true, "network_dist_to_gondola_base_m": 8120.3347448535787, "network_dist_to_downtown_m": 1192.5956404667388 }, "geometry": { "type": "Polygon", "coordinates": [ [ [ -118.207126870730917, 51.007093338832732 ], [ -118.207315869120151, 51.00720691850622 ], [ -118.207794612531487, 51.006848822994151 ], [ -118.207595474658049, 51.006742831773828 ], [ -118.207126870730917, 51.007093338832732 ] ] ] } },
{ "type": "Feature", "properties": { "PID": "016222024", "PARCEL_CLASS": "Subdivision", "FEATURE_AREA_SQM": 230.8865, "passed_full_funnel": true, "network_dist_to_gondola_base_m": 7191.5256303012138, "network_dist_to_downtown_m": 248.41197325419927 }, "geometry": { "type": "Polygon", "coordinates": [ [ [ -118.199702458054858, 51.000935444528295 ], [ -118.199624283233774, 51.000888519150017 ], [ -118.199324969875107, 51.001086889803922 ], [ -118.199403198151316, 51.00113386246565 ], [ -118.199702458054858, 51.000935444528295 ] ] ] } },
{ "type": "Feature", "properties": { "PID": "032852533", "PARCEL_CLASS": "Building Strata", "FEATURE_AREA_SQM": 1574.7763, "passed_full_funnel": true, "network_dist_to_gondola_base_m": 4523.1059739474231, "network_dist_to_downtown_m": 2668.9692438266857 }, "geometry": { "type": "Polygon", "coordinates": [ [ [ -118.181915471466226, 50.98830712199323 ], [ -118.182527639089741, 50.988676329254844 ], [ -118.182788595470427, 50.988504273784926 ], [ -118.182175908041472, 50.988135112867546 ], [ -118.181915471466226, 50.98830712199323 ] ] ] } },
{ "type": "Feature", "properties": { "PID": "032852495", "PARCEL_CLASS": "Building Strata", "FEATURE_AREA_SQM": 1574.7763, "passed_full_funnel": true, "network_dist_to_gondola_base_m": 4523.1059739474231, "network_dist_to_downtown_m": 2668.9692438266857 }, "geometry": { "type": "Polygon", "coordinates": [ [ [ -118.181915471466226, 50.98830712199323 ], [ -118.182527639089741, 50.988676329254844 ], [ -118.182788595470427, 50.988504273784926 ], [ -118.182175908041472, 50.988135112867546 ], [ -118.181915471466226, 50.98830712199323 ] ] ] } },
{ "type": "Feature", "properties": { "PID": "032852541", "PARCEL_CLASS": "Building Strata", "FEATURE_AREA_SQM": 1574.7763, "passed_full_funnel": true, "network_dist_to_gondola_base_m": 4523.1059739474231, "network_dist_to_downtown_m": 2668.9692438266857 }, "geometry": { "type": "Polygon", "coordinates": [ [ [ -118.181915471466226, 50.98830712199323 ], [ -118.182527639089741, 50.988676329254844 ], [ -118.182788595470427, 50.988504273784926 ], [ -118.182175908041472, 50.988135112867546 ], [ -118.181915471466226, 50.98830712199323 ] ] ] } },
{ "type": "Feature", "properties": { "PID": "032852509", "PARCEL_CLASS": "Building Strata", "FEATURE_AREA_SQM": 1574.7763, "passed_full_funnel": true, "network_dist_to_gondola_base_m": 4523.1059739474231, "network_dist_to_downtown_m": 2668.9692438266857 }, "geometry": { "type": "Polygon", "coordinates": [ [ [ -118.181915471466226, 50.98830712199323 ], [ -118.182527639089741, 50.988676329254844 ], [ -118.182788595470427, 50.988504273784926 ], [ -118.182175908041472, 50.988135112867546 ], [ -118.181915471466226, 50.98830712199323 ] ] ] } },
{ "type": "Feature", "properties": { "PID": "032852517", "PARCEL_CLASS": "Building Strata", "FEATURE_AREA_SQM": 1574.7763, "passed_full_funnel": true, "network_dist_to_gondola_base_m": 4523.1059739474231, "network_dist_to_downtown_m": 2668.9692438266857 }, "geometry": { "type": "Polygon", "coordinates": [ [ [ -118.181915471466226, 50.98830712199323 ], [ -118.182527639089741, 50.988676329254844 ], [ -118.182788595470427, 50.988504273784926 ], [ -118.182175908041472, 50.988135112867546 ], [ -118.181915471466226, 50.98830712199323 ] ] ] } },
{ "type": "Feature", "properties": { "PID": "032852576", "PARCEL_CLASS": "Building Strata", "FEATURE_AREA_SQM": 1574.7763, "passed_full_funnel": true, "network_dist_to_gondola_base_m": 4523.1059739474231, "network_dist_to_downtown_m": 2668.9692438266857 }, "geometry": { "type": "Polygon", "coordinates": [ [ [ -118.181915471466226, 50.98830712199323 ], [ -118.182527639089741, 50.988676329254844 ], [ -118.182788595470427, 50.988504273784926 ], [ -118.182175908041472, 50.988135112867546 ], [ -118.181915471466226, 50.98830712199323 ] ] ] } },
{ "type": "Feature", "properties": { "PID": "032852550", "PARCEL_CLASS": "Building Strata", "FEATURE_AREA_SQM": 1574.7763, "passed_full_funnel": true, "network_dist_to_gondola_base_m": 4523.1059739474231, "network_dist_to_downtown_m": 2668.9692438266857 }, "geometry": { "type": "Polygon", "coordinates": [ [ [ -118.181915471466226, 50.98830712199323 ], [ -118.182527639089741, 50.988676329254844 ], [ -118.182788595470427, 50.988504273784926 ], [ -118.182175908041472, 50.988135112867546 ], [ -118.181915471466226, 50.98830712199323 ] ] ] } },
{ "type": "Feature", "properties": { "PID": "032852568", "PARCEL_CLASS": "Building Strata", "FEATURE_AREA_SQM": 1574.7763, "passed_full_funnel": true, "network_dist_to_gondola_base_m": 4523.1059739474231, "network_dist_to_downtown_m": 2668.9692438266857 }, "geometry": { "type": "Polygon", "coordinates": [ [ [ -118.181915471466226, 50.98830712199323 ], [ -118.182527639089741, 50.988676329254844 ], [ -118.182788595470427, 50.988504273784926 ], [ -118.182175908041472, 50.988135112867546 ], [ -118.181915471466226, 50.98830712199323 ] ] ] } },
{ "type": "Feature", "properties": { "PID": "032852525", "PARCEL_CLASS": "Building Strata", "FEATURE_AREA_SQM": 1574.7763, "passed_full_funnel": true, "network_dist_to_gondola_base_m": 4523.1059739474231, "network_dist_to_downtown_m": 2668.9692438266857 }, "geometry": { "type": "Polygon", "coordinates": [ [ [ -118.181915471466226, 50.98830712199323 ], [ -118.182527639089741, 50.988676329254844 ], [ -118.182788595470427, 50.988504273784926 ], [ -118.182175908041472, 50.988135112867546 ], [ -118.181915471466226, 50.98830712199323 ] ] ] } },
{ "type": "Feature", "properties": { "PID": "016178882", "PARCEL_CLASS": "Subdivision", "FEATURE_AREA_SQM": 282.4746, "passed_full_funnel": true, "network_dist_to_gondola_base_m": 6810.7299849445608, "network_dist_to_downtown_m": 398.20937134159146 }, "geometry": { "type": "Polygon", "coordinates": [ [ [ -118.193627128836425, 50.998991388071879 ], [ -118.193705868654206, 50.999038574604612 ], [ -118.194058584907935, 50.998788348215029 ], [ -118.193980672806205, 50.998741587312608 ], [ -118.193627128836425, 50.998991388071879 ] ] ] } },
{ "type": "Feature", "properties": { "PID": "013822756", "PARCEL_CLASS": "Subdivision", "FEATURE_AREA_SQM": 473.1882, "passed_full_funnel": true, "network_dist_to_gondola_base_m": 8327.1783520120644, "network_dist_to_downtown_m": 1399.4392476252249 }, "geometry": { "type": "Polygon", "coordinates": [ [ [ -118.211264607926424, 51.007908970689215 ], [ -118.211431218840929, 51.007997804293296 ], [ -118.211714627016818, 51.007785922670941 ], [ -118.211548995672686, 51.00769626772869 ], [ -118.211264607926424, 51.007908970689215 ] ] ] } },
{ "type": "Feature", "properties": { "PID": "016914775", "PARCEL_CLASS": "Subdivision", "FEATURE_AREA_SQM": 227.6566, "passed_full_funnel": true, "network_dist_to_gondola_base_m": 6876.0973494586997, "network_dist_to_downtown_m": 330.93293362614179 }, "geometry": { "type": "Polygon", "coordinates": [ [ [ -118.194490060954479, 50.999432634408059 ], [ -118.194804890803994, 50.999621333789612 ], [ -118.194878183258496, 50.999572780160882 ], [ -118.194563437282838, 50.999383930526044 ], [ -118.194490060954479, 50.999432634408059 ] ] ] } },
{ "type": "Feature", "properties": { "PID": "017132690", "PARCEL_CLASS": "Subdivision", "FEATURE_AREA_SQM": 232.5855, "passed_full_funnel": true, "network_dist_to_gondola_base_m": 6550.7180856732029, "network_dist_to_downtown_m": 927.3790295109078 }, "geometry": { "type": "Polygon", "coordinates": [ [ [ -118.193663978938687, 50.997236801894189 ], [ -118.193742820566939, 50.997283979542956 ], [ -118.194042041263884, 50.997085362637002 ], [ -118.193963158877324, 50.997038172405752 ], [ -118.193663978938687, 50.997236801894189 ] ] ] } },
{ "type": "Feature", "properties": { "PID": "016835620", "PARCEL_CLASS": "Subdivision", "FEATURE_AREA_SQM": 186.0238, "passed_full_funnel": true, "network_dist_to_gondola_base_m": 6878.1854399738277, "network_dist_to_downtown_m": 319.34459165826581 }, "geometry": { "type": "Polygon", "coordinates": [ [ [ -118.193863364547738, 50.999132963954075 ], [ -118.194178131166055, 50.999321605968653 ], [ -118.194238170953611, 50.999281760278727 ], [ -118.193923147767975, 50.999093272186578 ], [ -118.193863364547738, 50.999132963954075 ] ] ] } },
{ "type": "Feature", "properties": { "PID": "013006223", "PARCEL_CLASS": "Subdivision", "FEATURE_AREA_SQM": 231.5377, "passed_full_funnel": true, "network_dist_to_gondola_base_m": 7202.226496417823, "network_dist_to_downtown_m": 259.11283937080759 }, "geometry": { "type": "Polygon", "coordinates": [ [ [ -118.198904281397489, 51.000833492195738 ], [ -118.198982997605341, 51.000880663640828 ], [ -118.199280390907546, 51.00068102267501 ], [ -118.199202069642695, 51.000634192425899 ], [ -118.198904281397489, 51.000833492195738 ] ] ] } },
{ "type": "Feature", "properties": { "PID": "013837974", "PARCEL_CLASS": "Subdivision", "FEATURE_AREA_SQM": 592.5485, "passed_full_funnel": true, "network_dist_to_gondola_base_m": 8420.6693281893913, "network_dist_to_downtown_m": 1492.9302238025512 }, "geometry": { "type": "Polygon", "coordinates": [ [ [ -118.204252179456049, 51.005365381521642 ], [ -118.204636782744615, 51.00511037070563 ], [ -118.204479310022407, 51.00501582738957 ], [ -118.204097370599186, 51.00527232043833 ], [ -118.204252179456049, 51.005365381521642 ] ] ] } },
{ "type": "Feature", "properties": { "PID": "016178017", "PARCEL_CLASS": "Subdivision", "FEATURE_AREA_SQM": 327.3947, "passed_full_funnel": true, "network_dist_to_gondola_base_m": 6790.4527866881162, "network_dist_to_downtown_m": 679.47819680766315 }, "geometry": { "type": "Polygon", "coordinates": [ [ [ -118.19975817898677, 50.998600818388141 ], [ -118.200000799804997, 50.998827927249692 ], [ -118.200092753368054, 50.998914001022321 ], [ -118.200173624927643, 50.998860287133041 ], [ -118.199851120867919, 50.998561271059678 ], [ -118.19975817898677, 50.998600818388141 ] ] ] } },
{ "type": "Feature", "properties": { "PID": "013841220", "PARCEL_CLASS": "Subdivision", "FEATURE_AREA_SQM": 648.7075, "passed_full_funnel": true, "network_dist_to_gondola_base_m": 8852.0514334814579, "network_dist_to_downtown_m": 1924.3123290946176 }, "geometry": { "type": "Polygon", "coordinates": [ [ [ -118.200429209022616, 51.001975759505946 ], [ -118.200272225157121, 51.001881644647256 ], [ -118.19985303752037, 51.002159722992971 ], [ -118.200009617999882, 51.002253848246397 ], [ -118.200429209022616, 51.001975759505946 ] ] ] } },
{ "type": "Feature", "properties": { "PID": "013822721", "PARCEL_CLASS": "Subdivision", "FEATURE_AREA_SQM": 478.3099, "passed_full_funnel": true, "network_dist_to_gondola_base_m": 8267.6386087038663, "network_dist_to_downtown_m": 1339.8995043170253 }, "geometry": { "type": "Polygon", "coordinates": [ [ [ -118.210764749702051, 51.007642456356415 ], [ -118.210931364294638, 51.007731291121765 ], [ -118.211217811883728, 51.007516993149309 ], [ -118.211052279771863, 51.007427388477424 ], [ -118.210764749702051, 51.007642456356415 ] ] ] } },
{ "type": "Feature", "properties": { "PID": "016797353", "PARCEL_CLASS": "Subdivision", "FEATURE_AREA_SQM": 232.1556, "passed_full_funnel": true, "network_dist_to_gondola_base_m": 6586.6896936745161, "network_dist_to_downtown_m": 963.35063751222117 }, "geometry": { "type": "Polygon", "coordinates": [ [ [ -118.193225352654537, 50.997428572622262 ], [ -118.193304066933266, 50.997475772414596 ], [ -118.193602985946939, 50.997277316144817 ], [ -118.193524259907903, 50.997230142832045 ], [ -118.193225352654537, 50.997428572622262 ] ] ] } },
{ "type": "Feature", "properties": { "PID": "024467201", "PARCEL_CLASS": "Subdivision", "FEATURE_AREA_SQM": 92.523, "passed_full_funnel": true, "network_dist_to_gondola_base_m": 6828.7099135206354, "network_dist_to_downtown_m": 259.98378669184115 }, "geometry": { "type": "Polygon", "coordinates": [ [ [ -118.195045431095465, 50.998348284220633 ], [ -118.195172737517822, 50.998424622748843 ], [ -118.195246388444616, 50.998375681102068 ], [ -118.195119070890911, 50.998299397888744 ], [ -118.195045431095465, 50.998348284220633 ] ] ] } },
{ "type": "Feature", "properties": { "PID": "013840991", "PARCEL_CLASS": "Subdivision", "FEATURE_AREA_SQM": 325.7533, "passed_full_funnel": true, "network_dist_to_gondola_base_m": 7363.9057332395369, "network_dist_to_downtown_m": 415.9385678176908 }, "geometry": { "type": "Polygon", "coordinates": [ [ [ -118.200481754419926, 51.002537656670498 ], [ -118.200560331882841, 51.00258489191598 ], [ -118.20098000446329, 51.002305967652035 ], [ -118.200901402881726, 51.002258845736058 ], [ -118.200481754419926, 51.002537656670498 ] ] ] } },
{ "type": "Feature", "properties": { "PID": "016167490", "PARCEL_CLASS": "Subdivision", "FEATURE_AREA_SQM": 232.0182, "passed_full_funnel": true, "network_dist_to_gondola_base_m": 7034.8832550365314, "network_dist_to_downtown_m": 524.8179371229628 }, "geometry": { "type": "Polygon", "coordinates": [ [ [ -118.196142274265753, 51.000141715259851 ], [ -118.196385811576604, 51.000368449816293 ], [ -118.196475509464875, 51.000329963478123 ], [ -118.196232332204858, 51.000103432191445 ], [ -118.196142274265753, 51.000141715259851 ] ] ] } },
{ "type": "Feature", "properties": { "PID": "013958470", "PARCEL_CLASS": "Subdivision", "FEATURE_AREA_SQM": 230.3836, "passed_full_funnel": true, "network_dist_to_gondola_base_m": 7035.1463663938721, "network_dist_to_downtown_m": 634.41592182283648 }, "geometry": { "type": "Polygon", "coordinates": [ [ [ -118.198714230006502, 51.000266872851519 ], [ -118.198792420246832, 51.000313781139965 ], [ -118.199090636870338, 51.00011534997725 ], [ -118.199012390787871, 51.000068482260431 ], [ -118.198714230006502, 51.000266872851519 ] ] ] } },
{ "type": "Feature", "properties": { "PID": "016178963", "PARCEL_CLASS": "Subdivision", "FEATURE_AREA_SQM": 234.4925, "passed_full_funnel": true, "network_dist_to_gondola_base_m": 6585.4388963864822, "network_dist_to_downtown_m": 520.11533949554655 }, "geometry": { "type": "Polygon", "coordinates": [ [ [ -118.1976438079259, 50.997341851963348 ], [ -118.19796005362339, 50.99752989096438 ], [ -118.198035309641497, 50.997479984530194 ], [ -118.197719506256817, 50.997291633248956 ], [ -118.1976438079259, 50.997341851963348 ] ] ] } },
{ "type": "Feature", "properties": { "PID": "014041430", "PARCEL_CLASS": "Subdivision", "FEATURE_AREA_SQM": 232.2581, "passed_full_funnel": true, "network_dist_to_gondola_base_m": 6736.0592872316811, "network_dist_to_downtown_m": 377.7177847560514 }, "geometry": { "type": "Polygon", "coordinates": [ [ [ -118.19385502503799, 50.997806074859383 ], [ -118.193933719390074, 50.997853272708873 ], [ -118.194232756315941, 50.997654689379829 ], [ -118.194154037128968, 50.997607510774401 ], [ -118.19385502503799, 50.997806074859383 ] ] ] } },
{ "type": "Feature", "properties": { "PID": "013853538", "PARCEL_CLASS": "Subdivision", "FEATURE_AREA_SQM": 405.7328, "passed_full_funnel": true, "network_dist_to_gondola_base_m": 8116.3542786467478, "network_dist_to_downtown_m": 1188.6151742599077 }, "geometry": { "type": "Polygon", "coordinates": [ [ [ -118.207473287143898, 51.007301520611769 ], [ -118.20755201153429, 51.007348829406247 ], [ -118.208043476478821, 51.006981277764147 ], [ -118.207960522821949, 51.006937127823576 ], [ -118.207473287143898, 51.007301520611769 ] ] ] } },
{ "type": "Feature", "properties": { "PID": "016180178", "PARCEL_CLASS": "Subdivision", "FEATURE_AREA_SQM": 205.164, "passed_full_funnel": true, "network_dist_to_gondola_base_m": 7217.693799667868, "network_dist_to_downtown_m": 440.15650340353091 }, "geometry": { "type": "Polygon", "coordinates": [ [ [ -118.2011113634494, 51.0013250033265 ], [ -118.200917216424699, 51.00145354794855 ], [ -118.201325766067285, 51.001453691300981 ], [ -118.201242384884196, 51.001403645621394 ], [ -118.2011113634494, 51.0013250033265 ] ] ] } },
{ "type": "Feature", "properties": { "PID": "013837982", "PARCEL_CLASS": "Subdivision", "FEATURE_AREA_SQM": 601.936, "passed_full_funnel": true, "network_dist_to_gondola_base_m": 8432.7741140723192, "network_dist_to_downtown_m": 1505.0350096854777 }, "geometry": { "type": "Polygon", "coordinates": [ [ [ -118.204252179456049, 51.005365381521642 ], [ -118.204411850823078, 51.005461365473998 ], [ -118.204794264797229, 51.00520491349085 ], [ -118.204636782744615, 51.00511037070563 ], [ -118.204252179456049, 51.005365381521642 ] ] ] } },
{ "type": "Feature", "properties": { "PID": "016167465", "PARCEL_CLASS": "Subdivision", "FEATURE_AREA_SQM": 232.5494, "passed_full_funnel": true, "network_dist_to_gondola_base_m": 7020.3784341895534, "network_dist_to_downtown_m": 510.31311627598507 }, "geometry": { "type": "Polygon", "coordinates": [ [ [ -118.195962134303699, 51.000218284949653 ], [ -118.196206327288095, 51.00044540077851 ], [ -118.196296077778868, 51.000406927265473 ], [ -118.196052200261406, 51.000179990821643 ], [ -118.195962134303699, 51.000218284949653 ] ] ] } },
{ "type": "Feature", "properties": { "PID": "016179960", "PARCEL_CLASS": "Subdivision", "FEATURE_AREA_SQM": 232.4283, "passed_full_funnel": true, "network_dist_to_gondola_base_m": 7149.6601320119207, "network_dist_to_downtown_m": 513.68584605738863 }, "geometry": { "type": "Polygon", "coordinates": [ [ [ -118.20021918527965, 51.000791997881358 ], [ -118.200140534327232, 51.000744759649351 ], [ -118.199841094682498, 51.000943003433605 ], [ -118.19991991391494, 51.000990313210323 ], [ -118.20021918527965, 51.000791997881358 ] ] ] } },
{ "type": "Feature", "properties": { "PID": "012901156", "PARCEL_CLASS": "Subdivision", "FEATURE_AREA_SQM": 3430.0031, "passed_full_funnel": true, "network_dist_to_gondola_base_m": 9383.7592498174472, "network_dist_to_downtown_m": 2485.0464077665802 }, "geometry": { "type": "Polygon", "coordinates": [ [ [ -118.218010001054367, 51.012223301169506 ], [ -118.218162302208739, 51.012319309127079 ], [ -118.21880952468382, 51.012319558558069 ], [ -118.218809786362911, 51.011760671356924 ], [ -118.218011239903106, 51.01176034892471 ], [ -118.218010001054367, 51.012223301169506 ] ] ] } },
{ "type": "Feature", "properties": { "PID": "012063258", "PARCEL_CLASS": "Subdivision", "FEATURE_AREA_SQM": 599.4157, "passed_full_funnel": true, "network_dist_to_gondola_base_m": 7461.4357035455378, "network_dist_to_downtown_m": 555.21719855635456 }, "geometry": { "type": "Polygon", "coordinates": [ [ [ -118.200352570105949, 51.003021488361824 ], [ -118.200736320829762, 51.002766356615972 ], [ -118.200578272622238, 51.002671355301288 ], [ -118.200194468457696, 51.002926741195424 ], [ -118.200352570105949, 51.003021488361824 ] ] ] } },
{ "type": "Feature", "properties": { "PID": "016222016", "PARCEL_CLASS": "Subdivision", "FEATURE_AREA_SQM": 234.1593, "passed_full_funnel": true, "network_dist_to_gondola_base_m": 7219.4559196110658, "network_dist_to_downtown_m": 270.91437114269172 }, "geometry": { "type": "Polygon", "coordinates": [ [ [ -118.199481846801277, 51.001181097425551 ], [ -118.199782415623574, 51.000983436291193 ], [ -118.199702458054858, 51.000935444528295 ], [ -118.199403198151316, 51.00113386246565 ], [ -118.199481846801277, 51.001181097425551 ] ] ] } },
{ "type": "Feature", "properties": { "PID": "012096032", "PARCEL_CLASS": "Subdivision", "FEATURE_AREA_SQM": 234.543, "passed_full_funnel": true, "network_dist_to_gondola_base_m": 6593.1358139304266, "network_dist_to_downtown_m": 527.8122570394911 }, "geometry": { "type": "Polygon", "coordinates": [ [ [ -118.197568137770773, 50.997392072599297 ], [ -118.197884720767149, 50.997579825429582 ], [ -118.19796005362339, 50.99752989096438 ], [ -118.1976438079259, 50.997341851963348 ], [ -118.197568137770773, 50.997392072599297 ] ] ] } },
{ "type": "Feature", "properties": { "PID": "031927181", "PARCEL_CLASS": "Building Strata", "FEATURE_AREA_SQM": 452.0879, "passed_full_funnel": true, "network_dist_to_gondola_base_m": 7049.3027554567161, "network_dist_to_downtown_m": 648.57231088567983 }, "geometry": { "type": "Polygon", "coordinates": [ [ [ -118.199505438896935, 51.000135878482133 ], [ -118.199658605061984, 51.000227719977318 ], [ -118.199957969068564, 51.000029280005961 ], [ -118.19980482579173, 50.999937423323338 ], [ -118.199505438896935, 51.000135878482133 ] ] ] } },
{ "type": "Feature", "properties": { "PID": "031927190", "PARCEL_CLASS": "Building Strata", "FEATURE_AREA_SQM": 452.0879, "passed_full_funnel": true, "network_dist_to_gondola_base_m": 7049.3027554567161, "network_dist_to_downtown_m": 648.57231088567983 }, "geometry": { "type": "Polygon", "coordinates": [ [ [ -118.199505438896935, 51.000135878482133 ], [ -118.199658605061984, 51.000227719977318 ], [ -118.199957969068564, 51.000029280005961 ], [ -118.19980482579173, 50.999937423323338 ], [ -118.199505438896935, 51.000135878482133 ] ] ] } },
{ "type": "Feature", "properties": { "PID": "006275974", "PARCEL_CLASS": "Subdivision", "FEATURE_AREA_SQM": 321.2011, "passed_full_funnel": true, "network_dist_to_gondola_base_m": 7177.4361441557194, "network_dist_to_downtown_m": 788.8816120584778 }, "geometry": { "type": "Polygon", "coordinates": [ [ [ -118.197648147680624, 51.000874566482459 ], [ -118.197231722889825, 51.00115088509974 ], [ -118.197309862272462, 51.001197822449704 ], [ -118.197726265273843, 51.000921488491016 ], [ -118.197648147680624, 51.000874566482459 ] ] ] } },
{ "type": "Feature", "properties": { "PID": "007214189", "PARCEL_CLASS": "Subdivision", "FEATURE_AREA_SQM": 926.0765, "passed_full_funnel": true, "network_dist_to_gondola_base_m": 10058.110102134411, "network_dist_to_downtown_m": 3159.397260083545 }, "geometry": { "type": "Polygon", "coordinates": [ [ [ -118.212790355071192, 51.013434936566171 ], [ -118.212789985404783, 51.013161710096114 ], [ -118.21235569428255, 51.013161703371104 ], [ -118.212356513964352, 51.013435024553175 ], [ -118.212790355071192, 51.013434936566171 ] ] ] } },
{ "type": "Feature", "properties": { "PID": "027811158", "PARCEL_CLASS": "Subdivision", "FEATURE_AREA_SQM": 8.8774, "passed_full_funnel": true, "network_dist_to_gondola_base_m": 6740.5232874930043, "network_dist_to_downtown_m": 551.73492011000576 }, "geometry": { "type": "Polygon", "coordinates": [ [ [ -118.196046978545979, 50.998383595132886 ], [ -118.195987372059847, 50.998438753291978 ], [ -118.196059518316673, 50.998391134617023 ], [ -118.196046978545979, 50.998383595132886 ] ] ] } },
{ "type": "Feature", "properties": { "PID": "013853511", "PARCEL_CLASS": "Subdivision", "FEATURE_AREA_SQM": 800.8966, "passed_full_funnel": true, "network_dist_to_gondola_base_m": 8111.5593369793987, "network_dist_to_downtown_m": 1183.8202325925577 }, "geometry": { "type": "Polygon", "coordinates": [ [ [ -118.207473287143898, 51.007301520611769 ], [ -118.207960522821949, 51.006937127823576 ], [ -118.207794612531487, 51.006848822994151 ], [ -118.207315869120151, 51.00720691850622 ], [ -118.207473287143898, 51.007301520611769 ] ] ] } },
{ "type": "Feature", "properties": { "PID": "011888229", "PARCEL_CLASS": "Subdivision", "FEATURE_AREA_SQM": 238.1498, "passed_full_funnel": true, "network_dist_to_gondola_base_m": 6761.3648197599559, "network_dist_to_downtown_m": 309.0652105281024 }, "geometry": { "type": "Polygon", "coordinates": [ [ [ -118.194848091018912, 50.99840022522573 ], [ -118.195147387337087, 50.998201581806903 ], [ -118.195066898163134, 50.998153296790235 ], [ -118.194767323594036, 50.998351759800748 ], [ -118.194848091018912, 50.99840022522573 ] ] ] } },
{ "type": "Feature", "properties": { "PID": "016220544", "PARCEL_CLASS": "Subdivision", "FEATURE_AREA_SQM": 231.3307, "passed_full_funnel": true, "network_dist_to_gondola_base_m": 6555.4201898531319, "network_dist_to_downtown_m": 516.20562471714277 }, "geometry": { "type": "Polygon", "coordinates": [ [ [ -118.197080938142165, 50.996999251360599 ], [ -118.197394141026436, 50.99718741908724 ], [ -118.197468960627148, 50.997137792471115 ], [ -118.197155783455216, 50.996949642090385 ], [ -118.197080938142165, 50.996999251360599 ] ] ] } },
{ "type": "Feature", "properties": { "PID": "016178009", "PARCEL_CLASS": "Subdivision", "FEATURE_AREA_SQM": 326.2811, "passed_full_funnel": true, "network_dist_to_gondola_base_m": 6795.7768503707375, "network_dist_to_downtown_m": 684.80226049028363 }, "geometry": { "type": "Polygon", "coordinates": [ [ [ -118.199668238751329, 50.998639089536574 ], [ -118.19991091207001, 50.99886619231971 ], [ -118.200016279967784, 50.998964794230737 ], [ -118.200092753368054, 50.998914001022321 ], [ -118.19975817898677, 50.998600818388141 ], [ -118.199668238751329, 50.998639089536574 ] ] ] } },
{ "type": "Feature", "properties": { "PID": "017646995", "PARCEL_CLASS": "Subdivision", "FEATURE_AREA_SQM": 230.5963, "passed_full_funnel": true, "network_dist_to_gondola_base_m": 6877.9220336953167, "network_dist_to_downtown_m": 319.08118537975326 }, "geometry": { "type": "Polygon", "coordinates": [ [ [ -118.194071795476816, 50.998994601394905 ], [ -118.194386760988024, 50.999183139281094 ], [ -118.194461026401584, 50.999133848792034 ], [ -118.194146059031382, 50.998945305551075 ], [ -118.194071795476816, 50.998994601394905 ] ] ] } },
{ "type": "Feature", "properties": { "PID": "016178866", "PARCEL_CLASS": "Subdivision", "FEATURE_AREA_SQM": 282.0007, "passed_full_funnel": true, "network_dist_to_gondola_base_m": 6782.0179582347228, "network_dist_to_downtown_m": 422.50665722759368 }, "geometry": { "type": "Polygon", "coordinates": [ [ [ -118.193548393437624, 50.998944201777995 ], [ -118.193627128836425, 50.998991388071879 ], [ -118.193980672806205, 50.998741587312608 ], [ -118.193901544111995, 50.998695700063067 ], [ -118.193548393437624, 50.998944201777995 ] ] ] } },
{ "type": "Feature", "properties": { "PID": "016178891", "PARCEL_CLASS": "Subdivision", "FEATURE_AREA_SQM": 340.4354, "passed_full_funnel": true, "network_dist_to_gondola_base_m": 6808.7964264703969, "network_dist_to_downtown_m": 396.27581286742782 }, "geometry": { "type": "Polygon", "coordinates": [ [ [ -118.193705868654206, 50.999038574604612 ], [ -118.19380040149359, 50.99909523058426 ], [ -118.194154850772563, 50.998842588812799 ], [ -118.194058584907935, 50.998788348215029 ], [ -118.193705868654206, 50.999038574604612 ] ] ] } }
]
}
