{
"type": "FeatureCollection",
"name": "10_runs",
"crs": { "type": "name", "properties": { "name": "urn:ogc:def:crs:OGC:1.3:CRS84" } },
"features": [
{ "type": "Feature", "properties": { "osm_id": 137286053, "name": "Critical Path", "osm_difficulty": "intermediate", "length_m": 450.6, "vert_drop_m": 174.1, "mean_slope_deg": 24.3, "max_slope_deg": 38.8 }, "geometry": { "type": "LineString", "coordinates": [ [ -118.142626800000016, 50.9578606 ], [ -118.1448925, 50.957619 ], [ -118.147175899999979, 50.9566215 ], [ -118.14756220000001, 50.9558105 ] ] } },
{ "type": "Feature", "properties": { "osm_id": 137286054, "name": "Sunshine", "osm_difficulty": "easy", "length_m": 1476.9, "vert_drop_m": 290.2, "mean_slope_deg": 13.3, "max_slope_deg": 34.9 }, "geometry": { "type": "LineString", "coordinates": [ [ -118.138287800000015, 50.9537957 ], [ -118.1380311, 50.9534658 ], [ -118.137832, 50.9519663 ], [ -118.138846299999983, 50.950240799999989 ], [ -118.139436, 50.9496304 ], [ -118.1406074, 50.9493092 ], [ -118.143614, 50.9497561 ], [ -118.1453306, 50.9505942 ], [ -118.1467039, 50.951431 ], [ -118.148062700000011, 50.9530419 ], [ -118.1499568, 50.9542386 ] ] } },
{ "type": "Feature", "properties": { "osm_id": 137286056, "name": "Lightning Rod", "osm_difficulty": "intermediate", "length_m": 612.1, "vert_drop_m": 229.4, "mean_slope_deg": 23.2, "max_slope_deg": 45.4 }, "geometry": { "type": "LineString", "coordinates": [ [ -118.1417104, 50.957260199999986 ], [ -118.143670300000011, 50.95619150000001 ], [ -118.14756220000001, 50.9558105 ], [ -118.149346100000017, 50.9550122 ] ] } },
{ "type": "Feature", "properties": { "osm_id": 137286057, "name": "Snow Rodeo (Lower)", "osm_difficulty": "intermediate", "length_m": 234.6, "vert_drop_m": 106.9, "mean_slope_deg": 23.9, "max_slope_deg": 35.2 }, "geometry": { "type": "LineString", "coordinates": [ [ -118.1538776, 50.9541935 ], [ -118.1572178, 50.954205699999989 ] ] } },
{ "type": "Feature", "properties": { "osm_id": 137286058, "name": "Snow Rodeo", "osm_difficulty": "intermediate", "length_m": 1880.6, "vert_drop_m": 641.3, "mean_slope_deg": 19.7, "max_slope_deg": 27.5 }, "geometry": { "type": "LineString", "coordinates": [ [ -118.1233018, 50.955329 ], [ -118.125009300000016, 50.954614 ], [ -118.1256611, 50.954232099999984 ], [ -118.126601900000011, 50.953436 ], [ -118.1275708, 50.952931799999988 ], [ -118.1288697, 50.9525514 ], [ -118.134867200000016, 50.95243390000001 ], [ -118.1362994, 50.951951799999989 ], [ -118.1383354, 50.9519176 ], [ -118.142283600000013, 50.9522691 ], [ -118.148062700000011, 50.9530419 ] ] } },
{ "type": "Feature", "properties": { "osm_id": 137286061, "name": "Wooley Bully", "osm_difficulty": "intermediate", "length_m": 1201.7, "vert_drop_m": 383.8, "mean_slope_deg": 19.3, "max_slope_deg": 29.0 }, "geometry": { "type": "LineString", "coordinates": [ [ -118.127773499999989, 50.9553115 ], [ -118.1278121, 50.9542223 ], [ -118.128128100000012, 50.9538022 ], [ -118.130129, 50.9535456 ], [ -118.1310909, 50.9532272 ], [ -118.1318, 50.9531785 ], [ -118.1331199, 50.9532803 ], [ -118.1347979, 50.953121 ], [ -118.1361951, 50.9531962 ], [ -118.1380311, 50.9534658 ], [ -118.1385413, 50.9533992 ], [ -118.142063300000018, 50.952247 ] ] } },
{ "type": "Feature", "properties": { "osm_id": 137286062, "name": "Cannonball", "osm_difficulty": "advanced", "length_m": 1553.6, "vert_drop_m": 554.4, "mean_slope_deg": 22.0, "max_slope_deg": 32.0 }, "geometry": { "type": "LineString", "coordinates": [ [ -118.125315, 50.9548476 ], [ -118.13752, 50.953783 ], [ -118.138287800000015, 50.9537957 ], [ -118.1405189, 50.9540633 ], [ -118.145284799999985, 50.9541259 ], [ -118.1472618, 50.9542696 ] ] } },
{ "type": "Feature", "properties": { "osm_id": 137286063, "name": "Feller Buncher", "osm_difficulty": "easy", "length_m": 338.7, "vert_drop_m": 91.3, "mean_slope_deg": 16.8, "max_slope_deg": 32.6 }, "geometry": { "type": "LineString", "coordinates": [ [ -118.1263242, 50.955325899999984 ], [ -118.1275208, 50.9552649 ], [ -118.128384399999987, 50.9554241 ], [ -118.1294723, 50.9557893 ], [ -118.1300536, 50.9558066 ], [ -118.130529800000019, 50.9556376 ], [ -118.1306421, 50.955420899999986 ] ] } },
{ "type": "Feature", "properties": { "osm_id": 137286064, "name": "Follow Me", "osm_difficulty": "intermediate", "length_m": 384.4, "vert_drop_m": 118.8, "mean_slope_deg": 17.3, "max_slope_deg": 31.1 }, "geometry": { "type": "LineString", "coordinates": [ [ -118.1533948, 50.9542138 ], [ -118.1542329, 50.9550055 ], [ -118.15485870000002, 50.9554153 ], [ -118.1578703, 50.9551345 ] ] } },
{ "type": "Feature", "properties": { "osm_id": 137286065, "name": "Short Shot", "osm_difficulty": "advanced", "length_m": 553.9, "vert_drop_m": 196.4, "mean_slope_deg": 19.5, "max_slope_deg": 29.8 }, "geometry": { "type": "LineString", "coordinates": [ [ -118.1380407, 50.9516483 ], [ -118.1424982, 50.9506753 ], [ -118.1456562, 50.950809 ] ] } },
{ "type": "Feature", "properties": { "osm_id": 137286066, "name": "Locomotion", "osm_difficulty": "intermediate", "length_m": 615.8, "vert_drop_m": 193.9, "mean_slope_deg": 17.8, "max_slope_deg": 37.5 }, "geometry": { "type": "LineString", "coordinates": [ [ -118.151123100000021, 50.9551479 ], [ -118.151649799999987, 50.9561325 ], [ -118.151836100000011, 50.9562503 ], [ -118.152143599999988, 50.9562766 ], [ -118.1533877, 50.9561123 ], [ -118.1552463, 50.9562605 ], [ -118.155843899999979, 50.9562337 ], [ -118.158531400000015, 50.9557281 ] ] } },
{ "type": "Feature", "properties": { "osm_id": 137286067, "name": "The Last Spike (Lower)", "osm_difficulty": "easy", "length_m": 2203.2, "vert_drop_m": 259.7, "mean_slope_deg": 17.1, "max_slope_deg": 42.4 }, "geometry": { "type": "LineString", "coordinates": [ [ -118.1509807, 50.9537001 ], [ -118.1512933, 50.9545007 ], [ -118.151123100000021, 50.9551479 ], [ -118.1516365, 50.9546143 ], [ -118.1518902, 50.9541246 ], [ -118.1519855, 50.9530145 ], [ -118.1525043, 50.9529972 ], [ -118.1529013, 50.9533893 ], [ -118.1533948, 50.9542138 ], [ -118.1536495, 50.9542673 ], [ -118.1538776, 50.9541935 ], [ -118.1540135, 50.9512577 ], [ -118.154303100000021, 50.9507575 ], [ -118.154839600000017, 50.9508691 ], [ -118.155865100000014, 50.9520062 ], [ -118.1578703, 50.9551345 ], [ -118.158531400000015, 50.9557281 ], [ -118.16049120000001, 50.9570182 ], [ -118.160816700000012, 50.9575087 ], [ -118.1609319, 50.958115 ], [ -118.1613844, 50.9584985 ], [ -118.1623386, 50.9587835 ], [ -118.1634927, 50.9587737 ] ] } },
{ "type": "Feature", "properties": { "osm_id": 137286068, "name": "SWF", "osm_difficulty": "advanced", "length_m": 1776.5, "vert_drop_m": 632.8, "mean_slope_deg": 20.1, "max_slope_deg": 40.9 }, "geometry": { "type": "LineString", "coordinates": [ [ -118.1024131, 50.9628579 ], [ -118.1097074, 50.963119699999979 ], [ -118.112226800000016, 50.9633659 ], [ -118.121052, 50.96387 ], [ -118.1275745, 50.9644006 ] ] } },
{ "type": "Feature", "properties": { "osm_id": 137286069, "name": null, "osm_difficulty": "easy", "length_m": 26.1, "vert_drop_m": 0.5, "mean_slope_deg": 3.6, "max_slope_deg": 9.3 }, "geometry": { "type": "LineString", "coordinates": [ [ -118.1267184, 50.9696688 ], [ -118.126599500000012, 50.9694466 ] ] } },
{ "type": "Feature", "properties": { "osm_id": 172817306, "name": "Stihl Life Glades", "osm_difficulty": "advanced", "length_m": 1403.6, "vert_drop_m": 178.6, "mean_slope_deg": 31.2, "max_slope_deg": 48.4 }, "geometry": { "type": "LineString", "coordinates": [ [ -118.119629, 50.956480099999986 ], [ -118.1194807, 50.9578753 ], [ -118.119147200000015, 50.9585374 ], [ -118.119676400000017, 50.959309099999984 ], [ -118.121329300000014, 50.9608296 ], [ -118.12180050000002, 50.9605419 ], [ -118.1222282, 50.9600123 ], [ -118.1221485, 50.9596287 ], [ -118.1224312, 50.9593136 ], [ -118.1233519, 50.9590077 ], [ -118.1237651, 50.9590442 ], [ -118.123924599999981, 50.9589392 ], [ -118.1238883, 50.9586972 ], [ -118.1233519, 50.957537299999984 ], [ -118.122452900000013, 50.9563775 ], [ -118.122134, 50.9561811 ], [ -118.122163, 50.955929900000015 ], [ -118.1206333, 50.9561309 ], [ -118.1199881, 50.956299799999989 ], [ -118.119629, 50.956480099999986 ] ] } },
{ "type": "Feature", "properties": { "osm_id": 172832480, "name": "Stihl Life Glades", "osm_difficulty": "advanced", "length_m": 1180.0, "vert_drop_m": 179.4, "mean_slope_deg": 27.6, "max_slope_deg": 52.7 }, "geometry": { "type": "LineString", "coordinates": [ [ -118.117550200000011, 50.962142299999982 ], [ -118.1188625, 50.9619292 ], [ -118.120610499999984, 50.9612674 ], [ -118.1212257, 50.9609574 ], [ -118.1195494, 50.9593656 ], [ -118.1189548, 50.9585875 ], [ -118.1181295, 50.958884599999983 ], [ -118.1163405, 50.9597402 ], [ -118.1157151, 50.9602245 ], [ -118.1154844, 50.9605312 ], [ -118.115433100000018, 50.9607895 ], [ -118.1157612, 50.9610963 ], [ -118.1169863, 50.9616128 ], [ -118.117550200000011, 50.962142299999982 ] ] } },
{ "type": "Feature", "properties": { "osm_id": 172832503, "name": "Iron Glaiden", "osm_difficulty": "advanced", "length_m": 1223.7, "vert_drop_m": 125.9, "mean_slope_deg": 29.8, "max_slope_deg": 50.0 }, "geometry": { "type": "LineString", "coordinates": [ [ -118.104797099999985, 50.9592587 ], [ -118.1065451, 50.959291 ], [ -118.1072987, 50.9593943 ], [ -118.1072525, 50.959249 ], [ -118.106417, 50.9586646 ], [ -118.1063708, 50.9585452 ], [ -118.1064836, 50.9584935 ], [ -118.109743800000018, 50.9593394 ], [ -118.110077, 50.9595364 ], [ -118.110338500000012, 50.9593201 ], [ -118.110292300000012, 50.9590489 ], [ -118.1100514, 50.9587615 ], [ -118.10894930000002, 50.9580156 ], [ -118.1085084, 50.9578283 ], [ -118.1073192, 50.9575636 ], [ -118.1062683, 50.957654 ], [ -118.1053558, 50.9581415 ], [ -118.105386599999989, 50.9582804 ], [ -118.1048381, 50.9587195 ], [ -118.1048996, 50.958994 ], [ -118.104797099999985, 50.9592587 ] ] } },
{ "type": "Feature", "properties": { "osm_id": 172832508, "name": "Tally-Ho Glades", "osm_difficulty": "advanced", "length_m": 1774.2, "vert_drop_m": 233.2, "mean_slope_deg": 26.0, "max_slope_deg": 40.8 }, "geometry": { "type": "LineString", "coordinates": [ [ -118.098278400000012, 50.9595486 ], [ -118.099065700000011, 50.9597824 ], [ -118.099050300000016, 50.9599148 ], [ -118.0992656, 50.9599083 ], [ -118.099465600000016, 50.9597921 ], [ -118.1000653, 50.9597921 ], [ -118.1002345, 50.9598696 ], [ -118.1001268, 50.9600407 ], [ -118.1002396, 50.9601182 ], [ -118.1006599, 50.9600213 ], [ -118.1008189, 50.9598922 ], [ -118.1010341, 50.9598793 ], [ -118.101193100000017, 50.959692 ], [ -118.1030385, 50.9597856 ], [ -118.1034588, 50.9596597 ], [ -118.1040688, 50.9592206 ], [ -118.104135500000012, 50.9586426 ], [ -118.10430460000002, 50.9583294 ], [ -118.105037700000011, 50.9575803 ], [ -118.105376, 50.957435 ], [ -118.1056836, 50.9574738 ], [ -118.1058835, 50.9573801 ], [ -118.106027, 50.9571767 ], [ -118.1045661, 50.9570346 ], [ -118.1040176, 50.9568926 ], [ -118.103110200000017, 50.9564147 ], [ -118.1015775, 50.9559045 ], [ -118.1011879, 50.9556591 ], [ -118.100214, 50.95532 ], [ -118.1000038, 50.955387799999983 ], [ -118.09934250000002, 50.9562726 ], [ -118.099234900000013, 50.9570088 ], [ -118.0985428, 50.9585974 ], [ -118.098278400000012, 50.9595486 ] ] } },
{ "type": "Feature", "properties": { "osm_id": 172832519, "name": "Clyde's Secret Glades", "osm_difficulty": "advanced", "length_m": 1827.5, "vert_drop_m": 177.1, "mean_slope_deg": 21.4, "max_slope_deg": 50.7 }, "geometry": { "type": "LineString", "coordinates": [ [ -118.108605800000021, 50.960986099999985 ], [ -118.110179499999987, 50.9607407 ], [ -118.1108921, 50.960960299999989 ], [ -118.1120608, 50.9609377 ], [ -118.1133936, 50.960589 ], [ -118.113168099999982, 50.9603081 ], [ -118.112081300000014, 50.9595816 ], [ -118.111937800000021, 50.9592975 ], [ -118.111609699999988, 50.9590456 ], [ -118.110102600000019, 50.9583514 ], [ -118.1099489, 50.9583837 ], [ -118.1099079, 50.9584967 ], [ -118.1104564, 50.9590004 ], [ -118.1105127, 50.9593362 ], [ -118.1104205, 50.9595784 ], [ -118.110225699999987, 50.9597269 ], [ -118.1097695, 50.9597301 ], [ -118.1094824, 50.959384699999987 ], [ -118.106791200000018, 50.9586743 ], [ -118.1066528, 50.9586743 ], [ -118.1067194, 50.9587809 ], [ -118.1074678, 50.959255499999983 ], [ -118.1075293, 50.9594557 ], [ -118.1074063, 50.9595073 ], [ -118.1065451, 50.9593814 ], [ -118.105191800000014, 50.9593039 ], [ -118.1048227, 50.9593265 ], [ -118.104735599999984, 50.959404 ], [ -118.105140599999984, 50.9596559 ], [ -118.105279, 50.9598657 ], [ -118.105607, 50.960011 ], [ -118.1077139, 50.9605115 ], [ -118.108605800000021, 50.960986099999985 ] ] } },
{ "type": "Feature", "properties": { "osm_id": 172832524, "name": "Snorkel Glades", "osm_difficulty": "advanced", "length_m": 2160.4, "vert_drop_m": 218.9, "mean_slope_deg": 25.9, "max_slope_deg": 51.8 }, "geometry": { "type": "LineString", "coordinates": [ [ -118.110248100000021, 50.9751921 ], [ -118.110103, 50.9744098 ], [ -118.1098348, 50.974045 ], [ -118.1075978, 50.9734438 ], [ -118.1074584, 50.973231 ], [ -118.107302800000014, 50.9731904 ], [ -118.1072062, 50.973231 ], [ -118.1072438, 50.9733999 ], [ -118.1075388, 50.9738086 ], [ -118.1071258, 50.9741194 ], [ -118.106766300000018, 50.9740754 ], [ -118.106530299999989, 50.973710599999983 ], [ -118.1063265, 50.9735721 ], [ -118.105017500000017, 50.9727074 ], [ -118.104052, 50.9722311 ], [ -118.1031689, 50.9720127 ], [ -118.102476900000013, 50.9719869 ], [ -118.102072, 50.972045 ], [ -118.101882300000014, 50.9722064 ], [ -118.10188740000001, 50.972852 ], [ -118.102056600000012, 50.9730424 ], [ -118.102020699999983, 50.9732619 ], [ -118.1021642, 50.9733684 ], [ -118.1023744, 50.9733523 ], [ -118.1026973, 50.9728713 ], [ -118.102907499999986, 50.97276810000001 ], [ -118.10325610000001, 50.9728552 ], [ -118.1034201, 50.9730327 ], [ -118.103404800000021, 50.9734201 ], [ -118.1050301, 50.9760564 ], [ -118.106665299999989, 50.9765793 ], [ -118.1072036, 50.9768859 ], [ -118.1074548, 50.9771312 ], [ -118.108628699999983, 50.9771764 ], [ -118.1097868, 50.9769157 ], [ -118.1097304, 50.9765413 ], [ -118.110248100000021, 50.9751921 ] ] } },
{ "type": "Feature", "properties": { "osm_id": 373396427, "name": "007", "osm_difficulty": "intermediate", "length_m": 640.5, "vert_drop_m": 153.2, "mean_slope_deg": 19.4, "max_slope_deg": 48.2 }, "geometry": { "type": "LineString", "coordinates": [ [ -118.1444574, 50.9596547 ], [ -118.1468386, 50.9596767 ], [ -118.147965400000018, 50.9599055 ], [ -118.148972900000018, 50.9610177 ], [ -118.1492924, 50.9611592 ], [ -118.149780299999989, 50.9611636 ], [ -118.150250700000015, 50.960807599999988 ], [ -118.150398700000011, 50.9596029 ] ] } },
{ "type": "Feature", "properties": { "osm_id": 373396429, "name": "Tumbelina", "osm_difficulty": "intermediate", "length_m": 283.1, "vert_drop_m": 108.7, "mean_slope_deg": 21.6, "max_slope_deg": 28.3 }, "geometry": { "type": "LineString", "coordinates": [ [ -118.152173, 50.9529708 ], [ -118.1527206, 50.9527585 ], [ -118.153971900000016, 50.9525731 ], [ -118.155865100000014, 50.9520062 ] ] } },
{ "type": "Feature", "properties": { "osm_id": 373396430, "name": "Home Run", "osm_difficulty": "intermediate", "length_m": 517.5, "vert_drop_m": 139.3, "mean_slope_deg": 16.2, "max_slope_deg": 26.2 }, "geometry": { "type": "LineString", "coordinates": [ [ -118.1533877, 50.9561123 ], [ -118.154300799999987, 50.9569439 ], [ -118.1549186, 50.9570898 ], [ -118.155662800000016, 50.957129599999988 ], [ -118.1576638, 50.9569616 ], [ -118.159939199999982, 50.956617199999982 ] ] } },
{ "type": "Feature", "properties": { "osm_id": 373396431, "name": "Big Woody", "osm_difficulty": "advanced", "length_m": 1968.0, "vert_drop_m": 325.3, "mean_slope_deg": 17.3, "max_slope_deg": 36.6 }, "geometry": { "type": "LineString", "coordinates": [ [ -118.0957321, 50.9793699 ], [ -118.0949779, 50.9804773 ], [ -118.09415460000001, 50.9811278 ], [ -118.0936414, 50.981780799999989 ], [ -118.0935538, 50.982347 ], [ -118.093307, 50.9827725 ], [ -118.093366, 50.9831643 ], [ -118.0932326, 50.9839564 ], [ -118.0933875, 50.9841842 ], [ -118.0940849, 50.9845759 ], [ -118.0945087, 50.9851399 ], [ -118.0954313, 50.9859208 ], [ -118.097164, 50.9872606 ], [ -118.0983213, 50.9877506 ], [ -118.09965, 50.987578 ], [ -118.101085400000017, 50.9875713 ], [ -118.1040841, 50.9881251 ], [ -118.104833, 50.9881856 ], [ -118.1076877, 50.9879304 ], [ -118.1086117, 50.9879292 ], [ -118.10911280000002, 50.9878511 ], [ -118.1100064, 50.9874324 ] ] } },
{ "type": "Feature", "properties": { "osm_id": 373396432, "name": "Burn Down", "osm_difficulty": "intermediate", "length_m": 1268.0, "vert_drop_m": 321.3, "mean_slope_deg": 16.6, "max_slope_deg": 26.1 }, "geometry": { "type": "LineString", "coordinates": [ [ -118.103970700000019, 50.9758738 ], [ -118.106123, 50.9765519 ], [ -118.1075329, 50.9772521 ], [ -118.1110233, 50.9774101 ], [ -118.1119009, 50.97756480000001 ], [ -118.1127013, 50.9778477 ], [ -118.1134946, 50.9786523 ], [ -118.1140563, 50.9801817 ], [ -118.1144495, 50.9807342 ], [ -118.114813900000016, 50.9816558 ], [ -118.1146199, 50.9824483 ], [ -118.11401020000001, 50.9827427 ] ] } },
{ "type": "Feature", "properties": { "osm_id": 373396433, "name": "Chopper", "osm_difficulty": "intermediate", "length_m": 2453.5, "vert_drop_m": 515.1, "mean_slope_deg": 15.0, "max_slope_deg": 30.9 }, "geometry": { "type": "LineString", "coordinates": [ [ -118.1022228, 50.973491 ], [ -118.1015482, 50.974189 ], [ -118.1001721, 50.9752146 ], [ -118.099540300000015, 50.9772083 ], [ -118.099631500000015, 50.9776548 ], [ -118.1006215, 50.9782206 ], [ -118.101049799999984, 50.979232899999985 ], [ -118.1014078, 50.9797634 ], [ -118.102116900000013, 50.9804397 ], [ -118.1021661, 50.980669499999983 ], [ -118.100839100000016, 50.9818674 ], [ -118.099617499999979, 50.9825039 ], [ -118.099449, 50.982822099999986 ], [ -118.0995543, 50.98325530000001 ], [ -118.1010568, 50.9837194 ], [ -118.1018923, 50.984223299999989 ], [ -118.1031435, 50.9847278 ], [ -118.1034875, 50.9849576 ], [ -118.1042107, 50.9850283 ], [ -118.1056289, 50.985351 ], [ -118.1074614, 50.9860847 ], [ -118.108156400000013, 50.986288 ], [ -118.1087392, 50.987141 ], [ -118.108977900000014, 50.9873222 ], [ -118.1095185, 50.987419399999986 ], [ -118.1109009, 50.9874766 ], [ -118.1117099, 50.9876502 ], [ -118.1122559, 50.988017 ], [ -118.11222290000002, 50.9885324 ], [ -118.1121124, 50.9885983 ], [ -118.112001899999981, 50.9885709 ], [ -118.1119039, 50.9884195 ] ] } },
{ "type": "Feature", "properties": { "osm_id": 373396434, "name": "Critical Path", "osm_difficulty": "intermediate", "length_m": 1966.9, "vert_drop_m": 580.4, "mean_slope_deg": 19.1, "max_slope_deg": 32.3 }, "geometry": { "type": "LineString", "coordinates": [ [ -118.1021567, 50.9629968 ], [ -118.102379700000014, 50.9631306 ], [ -118.1058662, 50.963419 ], [ -118.1071524, 50.9640825 ], [ -118.1084825, 50.9645179 ], [ -118.1098867, 50.9647567 ], [ -118.1110241, 50.964792 ], [ -118.1117121, 50.9649424 ], [ -118.113001299999979, 50.966032 ], [ -118.11474, 50.966627 ], [ -118.1151613, 50.9668481 ], [ -118.1154351, 50.9671222 ], [ -118.1155615, 50.967462699999984 ], [ -118.1159827, 50.9678341 ], [ -118.116305700000012, 50.9679225 ], [ -118.1168744, 50.967935799999985 ], [ -118.117618600000014, 50.9678296 ], [ -118.119029800000021, 50.9672814 ], [ -118.120679700000011, 50.967042600000013 ], [ -118.1217539, 50.966733099999985 ], [ -118.1221752, 50.9663529 ], [ -118.1226315, 50.9654862 ], [ -118.1228983, 50.965340299999987 ], [ -118.1245061, 50.9654464 ], [ -118.1252462, 50.9652442 ] ] } },
{ "type": "Feature", "properties": { "osm_id": 373396435, "name": "Denver Dollars", "osm_difficulty": "intermediate", "length_m": 1752.0, "vert_drop_m": 521.3, "mean_slope_deg": 19.0, "max_slope_deg": 38.0 }, "geometry": { "type": "LineString", "coordinates": [ [ -118.1029649, 50.9732462 ], [ -118.1029898, 50.9731178 ], [ -118.1031212, 50.9731043 ], [ -118.1048332, 50.9761419 ], [ -118.1117099, 50.9876502 ] ] } },
{ "type": "Feature", "properties": { "osm_id": 373396436, "name": "Devil's Club", "osm_difficulty": "intermediate", "length_m": 2004.2, "vert_drop_m": 604.2, "mean_slope_deg": 21.0, "max_slope_deg": 29.7 }, "geometry": { "type": "LineString", "coordinates": [ [ -118.1214374, 50.9543452 ], [ -118.122462400000018, 50.9535093 ], [ -118.1233471, 50.953084699999984 ], [ -118.124372100000016, 50.9527884 ], [ -118.1254253, 50.9520321 ], [ -118.126281800000015, 50.9516251 ], [ -118.1268435, 50.9515632 ], [ -118.1290274, 50.9518097 ], [ -118.129826900000012, 50.9515803 ], [ -118.1308447, 50.9508848 ], [ -118.132860400000013, 50.9505408 ], [ -118.134061799999984, 50.9496713 ], [ -118.1357863, 50.948971 ], [ -118.1365446, 50.9489842 ], [ -118.1374012, 50.9488029 ], [ -118.1383279, 50.9487542 ], [ -118.1394864, 50.9489311 ], [ -118.1406074, 50.9493092 ], [ -118.143532600000015, 50.9497803 ], [ -118.1456562, 50.950809 ] ] } },
{ "type": "Feature", "properties": { "osm_id": 373396437, "name": "Devil's Club", "osm_difficulty": "advanced", "length_m": 1617.8, "vert_drop_m": 629.2, "mean_slope_deg": 23.1, "max_slope_deg": 31.4 }, "geometry": { "type": "LineString", "coordinates": [ [ -118.1034896, 50.9598587 ], [ -118.1041372, 50.9594459 ], [ -118.1049376, 50.958061699999988 ], [ -118.1053448, 50.9577566 ], [ -118.105997799999983, 50.9575664 ], [ -118.1068614, 50.9569826 ], [ -118.1079496, 50.9568234 ], [ -118.1082796, 50.9567438 ], [ -118.1085253, 50.9565846 ], [ -118.108293599999982, 50.9560627 ], [ -118.1085081, 50.9557668 ], [ -118.1088693, 50.9555939 ], [ -118.1127131, 50.955920599999985 ], [ -118.1130571, 50.9558631 ], [ -118.114005, 50.955456299999987 ], [ -118.1146719, 50.9552705 ], [ -118.11693480000001, 50.9550532 ], [ -118.1176547, 50.9548906 ], [ -118.119367400000016, 50.9551064 ], [ -118.1200426, 50.9550688 ], [ -118.1209958, 50.954731099999989 ], [ -118.1214374, 50.9543452 ] ] } },
{ "type": "Feature", "properties": { "osm_id": 373396438, "name": "Devil's Club", "osm_difficulty": "intermediate", "length_m": 721.1, "vert_drop_m": 214.3, "mean_slope_deg": 20.6, "max_slope_deg": 35.8 }, "geometry": { "type": "LineString", "coordinates": [ [ -118.1456562, 50.950809 ], [ -118.1473905, 50.9506125 ], [ -118.1490213, 50.9502972 ], [ -118.1503088, 50.9494316 ], [ -118.151243800000017, 50.9493114 ], [ -118.15206830000001, 50.9494046 ], [ -118.152862199999987, 50.9497242 ], [ -118.154303100000021, 50.9507575 ] ] } },
{ "type": "Feature", "properties": { "osm_id": 373396439, "name": "Downtowner", "osm_difficulty": "intermediate", "length_m": 448.6, "vert_drop_m": 38.0, "mean_slope_deg": 5.9, "max_slope_deg": 11.7 }, "geometry": { "type": "LineString", "coordinates": [ [ -118.1206211, 50.9702758 ], [ -118.120829499999985, 50.9701813 ], [ -118.1209577, 50.9695074 ], [ -118.1211573, 50.9691442 ], [ -118.1221452, 50.968484599999989 ], [ -118.122259600000021, 50.968322499999985 ], [ -118.12218, 50.9676404 ], [ -118.121906899999985, 50.967062 ], [ -118.121894, 50.966633699999988 ] ] } },
{ "type": "Feature", "properties": { "osm_id": 373396441, "name": "Downtowner", "osm_difficulty": "easy", "length_m": 1673.8, "vert_drop_m": 193.1, "mean_slope_deg": 15.5, "max_slope_deg": 36.3 }, "geometry": { "type": "LineString", "coordinates": [ [ -118.1029649, 50.9732462 ], [ -118.1027484, 50.9731448 ], [ -118.1024296, 50.973471299999986 ], [ -118.101997200000014, 50.9734239 ], [ -118.101681200000016, 50.97248 ], [ -118.1017291, 50.9721158 ], [ -118.102077900000012, 50.9719029 ], [ -118.1033487, 50.9718587 ], [ -118.104107, 50.9715713 ], [ -118.1046546, 50.9715448 ], [ -118.1053707, 50.9716288 ], [ -118.10778590000001, 50.9721903 ], [ -118.1099554, 50.9723185 ], [ -118.111141900000021, 50.9720709 ], [ -118.1126023, 50.9716067 ], [ -118.114420699999982, 50.9712707 ], [ -118.116073499999985, 50.9713942 ], [ -118.1174952, 50.9712284 ], [ -118.1186817, 50.971289400000011 ], [ -118.1201308, 50.9705915 ], [ -118.1206211, 50.9702758 ] ] } },
{ "type": "Feature", "properties": { "osm_id": 373396442, "name": "Fast Fred's", "osm_difficulty": "intermediate", "length_m": 1902.6, "vert_drop_m": 340.2, "mean_slope_deg": 14.0, "max_slope_deg": 29.0 }, "geometry": { "type": "LineString", "coordinates": [ [ -118.117811500000016, 50.9570796 ], [ -118.1176923, 50.9562478 ], [ -118.1173597, 50.955578499999987 ], [ -118.1170916, 50.955319 ], [ -118.1161831, 50.9536615 ], [ -118.115880200000021, 50.9532706 ], [ -118.1154334, 50.9529422 ], [ -118.1151008, 50.9524261 ], [ -118.115071, 50.9521978 ], [ -118.115781, 50.952079 ], [ -118.1164661, 50.9522041 ], [ -118.117315, 50.9524824 ], [ -118.117682400000021, 50.9525262 ], [ -118.1196334, 50.9532455 ], [ -118.1200107, 50.9534488 ], [ -118.121241900000015, 50.9536552 ], [ -118.1212817, 50.9535114 ], [ -118.1205982, 50.95136440000001 ], [ -118.1203876, 50.9511211 ], [ -118.119969800000021, 50.950924300000011 ], [ -118.119766199999987, 50.9506722 ], [ -118.1197732, 50.950513 ], [ -118.1201278, 50.9504665 ], [ -118.1218058, 50.9507076 ], [ -118.1228028, 50.9509796 ], [ -118.124375400000019, 50.9509398 ], [ -118.124737, 50.9509884 ], [ -118.125873, 50.9514549 ] ] } },
{ "type": "Feature", "properties": { "osm_id": 373396443, "name": "Fast Fred's", "osm_difficulty": "intermediate", "length_m": 282.7, "vert_drop_m": 120.1, "mean_slope_deg": 29.2, "max_slope_deg": 38.5 }, "geometry": { "type": "LineString", "coordinates": [ [ -118.116408299999989, 50.9594338 ], [ -118.1175434, 50.957949 ], [ -118.117811500000016, 50.9570796 ] ] } },
{ "type": "Feature", "properties": { "osm_id": 373396444, "name": "Feller Buncher", "osm_difficulty": "intermediate", "length_m": 1263.5, "vert_drop_m": 450.6, "mean_slope_deg": 19.9, "max_slope_deg": 31.2 }, "geometry": { "type": "LineString", "coordinates": [ [ -118.1306421, 50.955420899999986 ], [ -118.130858100000012, 50.9546981 ], [ -118.1309761, 50.954558399999989 ], [ -118.1312746, 50.9545049 ], [ -118.133582200000021, 50.9547145 ], [ -118.1350938, 50.9550658 ], [ -118.13653290000002, 50.9552428 ], [ -118.1407357, 50.9549013 ], [ -118.142283600000013, 50.9547022 ], [ -118.144754500000019, 50.9545675 ], [ -118.1472618, 50.9542696 ] ] } },
{ "type": "Feature", "properties": { "osm_id": 373396445, "name": "Greenhorn", "osm_difficulty": "easy", "length_m": 2279.7, "vert_drop_m": 286.1, "mean_slope_deg": 9.3, "max_slope_deg": 21.9 }, "geometry": { "type": "LineString", "coordinates": [ [ -118.1055225, 50.960079899999982 ], [ -118.1071905, 50.9604645 ], [ -118.1078061, 50.9606771 ], [ -118.108233100000021, 50.9608991 ], [ -118.108535900000021, 50.9611837 ], [ -118.108809, 50.9621436 ], [ -118.1092061, 50.9625876 ], [ -118.1094145, 50.9631092 ], [ -118.1093504, 50.963872 ], [ -118.1096146, 50.9648863 ], [ -118.1095551, 50.965349 ], [ -118.109773500000017, 50.9654772 ], [ -118.1101607, 50.9652865 ], [ -118.1104338, 50.9653146 ], [ -118.1104884, 50.9654584 ], [ -118.1101508, 50.9658055 ], [ -118.1101707, 50.9659931 ], [ -118.110319600000011, 50.9660619 ], [ -118.1105678, 50.9661056 ], [ -118.1107912, 50.9660525 ], [ -118.111054399999986, 50.9654772 ], [ -118.1112529, 50.9653021 ], [ -118.111446599999979, 50.965286499999984 ], [ -118.1115905, 50.965361499999986 ], [ -118.11167, 50.9656992 ], [ -118.1121187, 50.9661574 ], [ -118.112511200000014, 50.9663764 ], [ -118.112720399999986, 50.9663076 ], [ -118.113001299999979, 50.966032 ], [ -118.1131235, 50.9657648 ], [ -118.1131583, 50.964998799999989 ], [ -118.113481, 50.9639482 ], [ -118.1133818, 50.9634252 ], [ -118.113545499999987, 50.9630978 ], [ -118.1134561, 50.962438 ], [ -118.113659700000014, 50.9622942 ], [ -118.1139713, 50.9624548 ], [ -118.114012200000019, 50.962731899999987 ], [ -118.114842199999984, 50.9641045 ], [ -118.1151897, 50.964586499999989 ], [ -118.115551300000021, 50.9648275 ], [ -118.1162507, 50.9650805 ], [ -118.1165723, 50.9650492 ], [ -118.116795699999983, 50.9647428 ], [ -118.1170787, 50.9646302 ], [ -118.1191682, 50.9644951 ] ] } },
{ "type": "Feature", "properties": { "osm_id": 373396446, "name": "Hickory Run", "osm_difficulty": "intermediate", "length_m": 842.8, "vert_drop_m": 274.9, "mean_slope_deg": 18.0, "max_slope_deg": 28.3 }, "geometry": { "type": "LineString", "coordinates": [ [ -118.1288697, 50.9525514 ], [ -118.1295474, 50.9521699 ], [ -118.130530400000012, 50.951842599999985 ], [ -118.132573500000021, 50.951692199999989 ], [ -118.1328964, 50.951599299999984 ], [ -118.1333598, 50.9512809 ], [ -118.1338793, 50.9511172 ], [ -118.1355293, 50.951006599999985 ], [ -118.1365192, 50.9506218 ], [ -118.136954500000016, 50.9502636 ], [ -118.137846200000013, 50.949865499999987 ], [ -118.139436, 50.9496304 ] ] } },
{ "type": "Feature", "properties": { "osm_id": 373396447, "name": "Hollywood", "osm_difficulty": "intermediate", "length_m": 678.9, "vert_drop_m": 201.6, "mean_slope_deg": 19.7, "max_slope_deg": 37.5 }, "geometry": { "type": "LineString", "coordinates": [ [ -118.1181819, 50.9627968 ], [ -118.118919800000015, 50.9629972 ], [ -118.119741299999987, 50.9634527 ], [ -118.1202538, 50.9635632 ], [ -118.1206399, 50.9635234 ], [ -118.1221845, 50.9631033 ], [ -118.1227392, 50.9631033 ], [ -118.1248244, 50.9633377 ], [ -118.1253791, 50.96332 ], [ -118.125765, 50.963227799999984 ], [ -118.127263199999987, 50.9632712 ] ] } },
{ "type": "Feature", "properties": { "osm_id": 373396448, "name": "Hot Sauce", "osm_difficulty": "advanced", "length_m": 795.7, "vert_drop_m": 307.6, "mean_slope_deg": 25.9, "max_slope_deg": 42.8 }, "geometry": { "type": "LineString", "coordinates": [ [ -118.0985431, 50.961205599999985 ], [ -118.097738, 50.960812199999985 ], [ -118.097469800000013, 50.9604811 ], [ -118.0974913, 50.9602919 ], [ -118.098124200000015, 50.958893399999987 ], [ -118.09904760000002, 50.9563479 ], [ -118.0997823, 50.9552971 ], [ -118.100275399999987, 50.9550037 ], [ -118.1007154, 50.954884899999989 ] ] } },
{ "type": "Feature", "properties": { "osm_id": 373396449, "name": "Jalapeno", "osm_difficulty": "advanced", "length_m": 772.8, "vert_drop_m": 286.9, "mean_slope_deg": 26.8, "max_slope_deg": 35.9 }, "geometry": { "type": "LineString", "coordinates": [ [ -118.097738, 50.960812199999985 ], [ -118.0963647, 50.9601432 ], [ -118.0954528, 50.9594269 ], [ -118.094983299999981, 50.9592099 ], [ -118.094951100000017, 50.9591153 ], [ -118.0955091, 50.9579911 ], [ -118.09623, 50.9569935 ], [ -118.09617040000002, 50.9563744 ], [ -118.0965477, 50.955617599999982 ], [ -118.0968593, 50.9553491 ], [ -118.0975083, 50.9551976 ] ] } },
{ "type": "Feature", "properties": { "osm_id": 373396450, "name": "Kill The Banker", "osm_difficulty": "advanced", "length_m": 2149.0, "vert_drop_m": 897.3, "mean_slope_deg": 25.6, "max_slope_deg": 57.3 }, "geometry": { "type": "LineString", "coordinates": [ [ -118.126599500000012, 50.9694466 ], [ -118.1277887, 50.9689313 ], [ -118.1321972, 50.9665552 ], [ -118.1493014, 50.956507499999987 ] ] } },
{ "type": "Feature", "properties": { "osm_id": 373396451, "name": "Ninja Traverse", "osm_difficulty": "intermediate", "length_m": 2317.0, "vert_drop_m": 283.5, "mean_slope_deg": 21.4, "max_slope_deg": 47.4 }, "geometry": { "type": "LineString", "coordinates": [ [ -118.0975083, 50.9551976 ], [ -118.0978856, 50.9551507 ], [ -118.098794199999986, 50.9548411 ], [ -118.10044240000002, 50.9548599 ], [ -118.1021601, 50.9550757 ], [ -118.1034161, 50.9554916 ], [ -118.104558, 50.9557011 ], [ -118.1051239, 50.9559294 ], [ -118.1059133, 50.956092 ], [ -118.1070214, 50.956008399999988 ], [ -118.1085081, 50.9557668 ], [ -118.1090344, 50.955760499999982 ], [ -118.110528699999989, 50.9561076 ], [ -118.112852, 50.9570628 ], [ -118.114291699999981, 50.9573724 ], [ -118.115776100000019, 50.9578258 ], [ -118.1166499, 50.9585763 ], [ -118.117517, 50.959051500000015 ], [ -118.1185842, 50.9595336 ], [ -118.1203535, 50.960135 ], [ -118.1217268, 50.961196 ], [ -118.1244556, 50.9624501 ], [ -118.125765, 50.963227799999984 ] ] } },
{ "type": "Feature", "properties": { "osm_id": 373396452, "name": "Pitch Black", "osm_difficulty": "advanced", "length_m": 2974.7, "vert_drop_m": 1167.0, "mean_slope_deg": 22.4, "max_slope_deg": 30.8 }, "geometry": { "type": "LineString", "coordinates": [ [ -118.1097074, 50.963119699999979 ], [ -118.1120283, 50.9624333 ], [ -118.1134445, 50.9627036 ], [ -118.1144744, 50.9622171 ], [ -118.1177789, 50.9623792 ], [ -118.119715499999984, 50.9618965 ], [ -118.1217268, 50.961196 ], [ -118.122882800000014, 50.9597488 ], [ -118.123528100000016, 50.9594048 ], [ -118.127824800000013, 50.958858 ], [ -118.1297537, 50.9577797 ], [ -118.1306535, 50.9575406 ], [ -118.133571800000013, 50.9573514 ], [ -118.134881300000018, 50.9575043 ], [ -118.1359589, 50.95745620000001 ], [ -118.1370699, 50.9570819 ], [ -118.1381804, 50.9565412 ], [ -118.138813500000012, 50.9563398 ], [ -118.1419546, 50.9561598 ], [ -118.145751500000017, 50.9549703 ], [ -118.1472618, 50.9542696 ] ] } },
{ "type": "Feature", "properties": { "osm_id": 373396456, "name": "Short Final", "osm_difficulty": "intermediate", "length_m": 701.0, "vert_drop_m": 264.1, "mean_slope_deg": 19.7, "max_slope_deg": 31.5 }, "geometry": { "type": "LineString", "coordinates": [ [ -118.1402013, 50.9557706 ], [ -118.14423140000001, 50.955064 ], [ -118.1453266, 50.9546837 ], [ -118.1472618, 50.9542696 ], [ -118.1497358, 50.9545133 ] ] } },
{ "type": "Feature", "properties": { "osm_id": 373396457, "name": "Snow Rodeo", "osm_difficulty": "advanced", "length_m": 1905.7, "vert_drop_m": 770.2, "mean_slope_deg": 23.5, "max_slope_deg": 39.4 }, "geometry": { "type": "LineString", "coordinates": [ [ -118.1017183, 50.9624798 ], [ -118.102352400000015, 50.9622463 ], [ -118.1029211, 50.9621579 ], [ -118.1051888, 50.962157899999987 ], [ -118.105575, 50.9621048 ], [ -118.1061998, 50.9619014 ], [ -118.107463600000017, 50.9613088 ], [ -118.1078217, 50.961229199999984 ], [ -118.1089029, 50.9611983 ], [ -118.109612, 50.96107 ], [ -118.110180699999987, 50.9610612 ], [ -118.1115849, 50.9612734 ], [ -118.11284160000001, 50.9610744 ], [ -118.1145579, 50.9609978 ], [ -118.1151585, 50.9605394 ], [ -118.1161134, 50.9595798 ], [ -118.117517, 50.959051500000015 ], [ -118.1185145, 50.958514 ], [ -118.118984900000015, 50.9581646 ], [ -118.1192587, 50.9575057 ], [ -118.1194483, 50.9567317 ], [ -118.119385100000017, 50.9563868 ], [ -118.1194975, 50.9562939 ], [ -118.1197572, 50.9561391 ], [ -118.1206489, 50.9558693 ], [ -118.1233018, 50.955329 ] ] } },
{ "type": "Feature", "properties": { "osm_id": 373396458, "name": "The Last Spike", "osm_difficulty": "easy", "length_m": 8155.7, "vert_drop_m": 912.3, "mean_slope_deg": 9.1, "max_slope_deg": 22.4 }, "geometry": { "type": "LineString", "coordinates": [ [ -118.126599500000012, 50.9694466 ], [ -118.12644779999998, 50.9691631 ], [ -118.1264483, 50.9683054 ], [ -118.1262762, 50.9675145 ], [ -118.125718300000017, 50.9665956 ], [ -118.125076, 50.9659289 ], [ -118.1252462, 50.9652442 ], [ -118.125325600000011, 50.9651249 ], [ -118.125572800000015, 50.965124699999983 ], [ -118.1256285, 50.9653876 ], [ -118.125761200000014, 50.9654875 ], [ -118.1259214, 50.965447 ], [ -118.1261903, 50.9648118 ], [ -118.1261474, 50.9643794 ], [ -118.126373200000018, 50.9643651 ], [ -118.1267053, 50.9645956 ], [ -118.12732530000001, 50.965622599999989 ], [ -118.127604399999981, 50.9656815 ], [ -118.1277878, 50.9655956 ], [ -118.1279069, 50.9642983 ], [ -118.127263199999987, 50.9632712 ], [ -118.127263199999987, 50.9629198 ], [ -118.1266195, 50.9623252 ], [ -118.1264907, 50.9617846 ], [ -118.1245006, 50.9597674 ], [ -118.1241599, 50.9588365 ], [ -118.12350330000001, 50.9575566 ], [ -118.1227362, 50.9563867 ], [ -118.1223966, 50.956079199999984 ], [ -118.1224251, 50.9560039 ], [ -118.122584300000014, 50.955985 ], [ -118.12288550000001, 50.9561462 ], [ -118.1234892, 50.9567176 ], [ -118.123809, 50.9567882 ], [ -118.123846599999979, 50.9566363 ], [ -118.1235179, 50.9561342 ], [ -118.1232292, 50.9550806 ], [ -118.1228, 50.9547562 ], [ -118.122977600000013, 50.9546269 ], [ -118.123329, 50.9546844 ], [ -118.123460399999985, 50.9545695 ], [ -118.1227577, 50.953968 ], [ -118.1228322, 50.9537695 ], [ -118.1231707, 50.953821 ], [ -118.125009300000016, 50.954614 ], [ -118.125734899999983, 50.95509830000001 ], [ -118.1276924, 50.9558916 ], [ -118.1284586, 50.956778599999986 ], [ -118.1287472, 50.9572916 ], [ -118.1290872, 50.9574223 ], [ -118.129243300000013, 50.9573286 ], [ -118.1296407, 50.956586699999988 ], [ -118.129423, 50.9560368 ], [ -118.129691500000021, 50.9554439 ], [ -118.129535600000011, 50.9551068 ], [ -118.129205200000015, 50.9547545 ], [ -118.12928890000002, 50.954667499999985 ], [ -118.1294789, 50.9546679 ], [ -118.1301196, 50.955170199999984 ], [ -118.1323814, 50.9562033 ], [ -118.1327657, 50.9564599 ], [ -118.1331426, 50.9579191 ], [ -118.1343395, 50.9586937 ], [ -118.1351119, 50.959339 ], [ -118.1357771, 50.959558699999988 ], [ -118.136968, 50.9604237 ], [ -118.1377137, 50.9611298 ], [ -118.137868700000013, 50.9611291 ], [ -118.1379497, 50.9610285 ], [ -118.138077899999985, 50.960000499999985 ], [ -118.1378371, 50.9593796 ], [ -118.1379175, 50.958994399999987 ], [ -118.138883100000015, 50.9583456 ], [ -118.1395745, 50.957598 ], [ -118.139559, 50.957359 ], [ -118.1388664, 50.956702599999986 ], [ -118.138862, 50.955345 ], [ -118.1385847, 50.9544859 ], [ -118.1379115, 50.9540607 ], [ -118.1379193, 50.9538792 ], [ -118.138287800000015, 50.9537957 ], [ -118.1389321, 50.9541919 ], [ -118.1392349, 50.9547298 ], [ -118.1418115, 50.9573784 ], [ -118.142626800000016, 50.9578606 ], [ -118.1428649, 50.9580813 ], [ -118.1430561, 50.9584765 ], [ -118.143747, 50.958796499999984 ], [ -118.144173100000017, 50.9594082 ], [ -118.145052899999982, 50.9601586 ], [ -118.146426099999985, 50.9606307 ], [ -118.1465414, 50.9611536 ], [ -118.148937, 50.9642933 ], [ -118.149264500000015, 50.964233900000011 ], [ -118.149453599999987, 50.963938099999979 ], [ -118.1494402, 50.961962399999983 ], [ -118.1495558, 50.9616419 ], [ -118.150436700000014, 50.9614772 ], [ -118.150780800000021, 50.9612188 ], [ -118.150652100000016, 50.9601087 ], [ -118.150398700000011, 50.9596029 ], [ -118.1503088, 50.9588382 ], [ -118.1492483, 50.9572098 ], [ -118.149245600000015, 50.9554946 ], [ -118.149346100000017, 50.9550122 ], [ -118.150199799999982, 50.9540189 ] ] } },
{ "type": "Feature", "properties": { "osm_id": 373396459, "name": "The Last Spike", "osm_difficulty": "easy", "length_m": 791.2, "vert_drop_m": 83.9, "mean_slope_deg": 6.2, "max_slope_deg": 14.2 }, "geometry": { "type": "LineString", "coordinates": [ [ -118.1191682, 50.9644951 ], [ -118.1206278, 50.9656332 ], [ -118.1211193, 50.966321 ], [ -118.1214968, 50.9666149 ], [ -118.1223405, 50.9666149 ], [ -118.123313600000017, 50.967284 ], [ -118.124979, 50.9679544 ], [ -118.1257583, 50.968821 ], [ -118.126599500000012, 50.9694466 ] ] } },
{ "type": "Feature", "properties": { "osm_id": 373396460, "name": "The Last Spike", "osm_difficulty": "easy", "length_m": 1421.8, "vert_drop_m": 162.1, "mean_slope_deg": 19.6, "max_slope_deg": 47.8 }, "geometry": { "type": "LineString", "coordinates": [ [ -118.102083900000011, 50.9629119 ], [ -118.1014309, 50.9622353 ], [ -118.1007814, 50.9619493 ], [ -118.098922200000018, 50.9614556 ], [ -118.097727599999985, 50.9612249 ], [ -118.097706200000019, 50.9611488 ], [ -118.0985431, 50.961205599999985 ], [ -118.0992381, 50.961337599999986 ], [ -118.1014045, 50.961105199999984 ], [ -118.1021385, 50.9611907 ], [ -118.104064300000019, 50.9615891 ], [ -118.104187700000011, 50.9615249 ], [ -118.1041609, 50.961308699999989 ], [ -118.1038175, 50.9609539 ], [ -118.1014518, 50.9599639 ], [ -118.101457199999984, 50.9598794 ], [ -118.1029683, 50.9598275 ], [ -118.1044833, 50.959900499999989 ], [ -118.1055225, 50.960079899999982 ] ] } },
{ "type": "Feature", "properties": { "osm_id": 373396461, "name": "The Last Spike", "osm_difficulty": "easy", "length_m": 1889.0, "vert_drop_m": 286.1, "mean_slope_deg": 13.0, "max_slope_deg": 29.4 }, "geometry": { "type": "LineString", "coordinates": [ [ -118.1055225, 50.960079899999982 ], [ -118.104552, 50.9593615 ], [ -118.1049789, 50.9592865 ], [ -118.1065726, 50.9593334 ], [ -118.107352, 50.9594303 ], [ -118.1074116, 50.9593615 ], [ -118.1072924, 50.9592302 ], [ -118.1065676, 50.9587393 ], [ -118.1066123, 50.9586111 ], [ -118.109233500000016, 50.9592552 ], [ -118.109878899999984, 50.959577299999985 ], [ -118.1102513, 50.959546 ], [ -118.1104151, 50.959270899999986 ], [ -118.110320800000011, 50.9589707 ], [ -118.109559, 50.9583533 ], [ -118.109860899999987, 50.9582073 ], [ -118.1100434, 50.9582338 ], [ -118.1111808, 50.958715899999987 ], [ -118.1118759, 50.9591802 ], [ -118.1121708, 50.959565 ], [ -118.1140173, 50.9608562 ], [ -118.1154636, 50.96111710000001 ], [ -118.116257, 50.9613869 ], [ -118.1177789, 50.9623792 ], [ -118.1181819, 50.9627968 ], [ -118.1191682, 50.9644951 ] ] } },
{ "type": "Feature", "properties": { "osm_id": 373396462, "name": "The Ripper Connector", "osm_difficulty": "easy", "length_m": 1478.8, "vert_drop_m": 193.6, "mean_slope_deg": 11.3, "max_slope_deg": 31.4 }, "geometry": { "type": "LineString", "coordinates": [ [ -118.112511200000014, 50.9663764 ], [ -118.112901, 50.9667726 ], [ -118.11420889999998, 50.9677035 ], [ -118.11515270000001, 50.968252 ], [ -118.1154009, 50.968586299999984 ], [ -118.115737100000018, 50.9687727 ], [ -118.1160138, 50.9690674 ], [ -118.115972600000021, 50.9693967 ], [ -118.1156066, 50.9701234 ], [ -118.1153447, 50.9703613 ], [ -118.1149612, 50.9705955 ], [ -118.1141631, 50.970908799999982 ], [ -118.1136811, 50.9712409 ], [ -118.113569400000017, 50.9714114 ], [ -118.112478899999985, 50.9719929 ], [ -118.1116731, 50.972252 ], [ -118.1110412, 50.9726588 ], [ -118.110921100000013, 50.972954 ], [ -118.1108903, 50.9744678 ], [ -118.110513400000016, 50.9749299 ], [ -118.1100731, 50.9760417 ], [ -118.1098547, 50.9773227 ] ] } },
{ "type": "Feature", "properties": { "osm_id": 373396463, "name": "Tickle Trunk", "osm_difficulty": "intermediate", "length_m": 452.8, "vert_drop_m": 133.4, "mean_slope_deg": 16.6, "max_slope_deg": 31.3 }, "geometry": { "type": "LineString", "coordinates": [ [ -118.1509807, 50.9537001 ], [ -118.1510808, 50.9529865 ], [ -118.151463100000015, 50.9523954 ], [ -118.1516964, 50.9517855 ], [ -118.1520936, 50.9514697 ], [ -118.1523021, 50.951085 ], [ -118.153573, 50.9507441 ], [ -118.154195800000011, 50.9508488 ] ] } },
{ "type": "Feature", "properties": { "osm_id": 373396464, "name": "Vertigo Ridge", "osm_difficulty": "advanced", "length_m": 1445.8, "vert_drop_m": 415.1, "mean_slope_deg": 27.1, "max_slope_deg": 45.4 }, "geometry": { "type": "LineString", "coordinates": [ [ -118.102379700000014, 50.9631306 ], [ -118.1027386, 50.9634599 ], [ -118.103279500000014, 50.9643226 ], [ -118.1033653, 50.964630099999987 ], [ -118.102882500000021, 50.9663193 ], [ -118.1029522, 50.9665794 ], [ -118.1032339, 50.9669291 ], [ -118.103276800000017, 50.9675017 ], [ -118.1040756, 50.9677363 ], [ -118.105199900000017, 50.9685389 ], [ -118.1055969, 50.9690118 ], [ -118.1059885, 50.9700016 ], [ -118.1065571, 50.9703935 ], [ -118.1073189, 50.970684 ], [ -118.1080055, 50.9708461 ], [ -118.1101449, 50.9711201 ], [ -118.1120687, 50.9709974 ], [ -118.112973, 50.9711974 ], [ -118.113569400000017, 50.9714114 ] ] } },
{ "type": "Feature", "properties": { "osm_id": 373396465, "name": null, "osm_difficulty": "easy", "length_m": 312.6, "vert_drop_m": 17.4, "mean_slope_deg": 5.0, "max_slope_deg": 18.3 }, "geometry": { "type": "LineString", "coordinates": [ [ -118.1162507, 50.9650805 ], [ -118.1176469, 50.9667132 ], [ -118.118138800000011, 50.967209 ], [ -118.1185788, 50.9674489 ] ] } },
{ "type": "Feature", "properties": { "osm_id": 392716048, "name": "Monkey Bars", "osm_difficulty": "advanced", "length_m": 842.7, "vert_drop_m": 152.9, "mean_slope_deg": 20.6, "max_slope_deg": 43.2 }, "geometry": { "type": "LineString", "coordinates": [ [ -118.1015066, 50.9732464 ], [ -118.100282, 50.9741512 ], [ -118.0990292, 50.9745077 ], [ -118.098130200000014, 50.9748821 ], [ -118.097931200000019, 50.9750415 ], [ -118.097899, 50.9758285 ], [ -118.097646800000021, 50.976146 ], [ -118.097652200000013, 50.9765648 ], [ -118.0974632, 50.9770875 ], [ -118.0970085, 50.977762899999988 ], [ -118.0962273, 50.9785924 ], [ -118.0957321, 50.9793699 ] ] } },
{ "type": "Feature", "properties": { "osm_id": 392716049, "name": "Greely Trail", "osm_difficulty": "advanced", "length_m": 1210.2, "vert_drop_m": 118.7, "mean_slope_deg": 13.2, "max_slope_deg": 34.6 }, "geometry": { "type": "LineString", "coordinates": [ [ -118.089653900000016, 50.97089 ], [ -118.0898537, 50.971073 ], [ -118.0900133, 50.9718291 ], [ -118.09040490000001, 50.9726702 ], [ -118.0910111, 50.9731533 ], [ -118.0910308, 50.9736781 ], [ -118.0921349, 50.9740788 ], [ -118.093763, 50.9741683 ], [ -118.094849300000021, 50.9748287 ], [ -118.0959624, 50.9751952 ], [ -118.096616899999987, 50.975659599999986 ], [ -118.0973696, 50.9759358 ], [ -118.09784, 50.9763622 ], [ -118.097963300000018, 50.9767945 ], [ -118.097689800000012, 50.977348399999983 ], [ -118.097829200000021, 50.9777031 ], [ -118.098371, 50.977899 ], [ -118.099561900000012, 50.977750399999984 ] ] } },
{ "type": "Feature", "properties": { "osm_id": 392716050, "name": "Powder Assault", "osm_difficulty": "expert", "length_m": 818.0, "vert_drop_m": 360.8, "mean_slope_deg": 27.9, "max_slope_deg": 47.6 }, "geometry": { "type": "LineString", "coordinates": [ [ -118.0968858, 50.9629688 ], [ -118.0972016, 50.9666234 ], [ -118.097083600000019, 50.9670896 ], [ -118.0963755, 50.967832799999989 ], [ -118.0961931, 50.9688801 ], [ -118.0964291, 50.969765099999982 ], [ -118.0968475, 50.9700624 ] ] } },
{ "type": "Feature", "properties": { "osm_id": 392716051, "name": "Discipline", "osm_difficulty": "expert", "length_m": 772.3, "vert_drop_m": 356.7, "mean_slope_deg": 30.2, "max_slope_deg": 49.5 }, "geometry": { "type": "LineString", "coordinates": [ [ -118.0986593, 50.963339199999986 ], [ -118.0981115, 50.963796 ], [ -118.0979768, 50.9641047 ], [ -118.097966, 50.9650575 ], [ -118.0977059, 50.9666436 ], [ -118.0975235, 50.9674139 ], [ -118.0970192, 50.9684274 ], [ -118.097072900000015, 50.9692179 ], [ -118.0968154, 50.9697449 ], [ -118.0968475, 50.9700624 ] ] } },
{ "type": "Feature", "properties": { "osm_id": 392716052, "name": "Mania", "osm_difficulty": "expert", "length_m": 671.2, "vert_drop_m": 338.5, "mean_slope_deg": 28.9, "max_slope_deg": 58.9 }, "geometry": { "type": "LineString", "coordinates": [ [ -118.1001801, 50.9643509 ], [ -118.099323700000014, 50.9648119 ], [ -118.0987251, 50.9655288 ], [ -118.0983925, 50.966245 ], [ -118.09817790000001, 50.9673193 ], [ -118.0982208, 50.9686098 ], [ -118.0980599, 50.9691436 ], [ -118.0981565, 50.9695962 ], [ -118.0983925, 50.9699611 ] ] } },
{ "type": "Feature", "properties": { "osm_id": 392716053, "name": null, "osm_difficulty": "advanced", "length_m": 402.7, "vert_drop_m": 81.7, "mean_slope_deg": 16.7, "max_slope_deg": 34.0 }, "geometry": { "type": "LineString", "coordinates": [ [ -118.099277599999979, 50.97019920000001 ], [ -118.098993300000018, 50.9707583 ], [ -118.098102800000021, 50.9714474 ], [ -118.097738, 50.9716298 ], [ -118.09733030000001, 50.9724541 ], [ -118.0966544, 50.9730688 ], [ -118.0963647, 50.9732107 ] ] } },
{ "type": "Feature", "properties": { "osm_id": 392716054, "name": "Sweet Spot", "osm_difficulty": "advanced", "length_m": 257.9, "vert_drop_m": 84.7, "mean_slope_deg": 22.5, "max_slope_deg": 42.0 }, "geometry": { "type": "LineString", "coordinates": [ [ -118.100713, 50.9665455 ], [ -118.1001284, 50.966812 ], [ -118.099690699999982, 50.9671166 ], [ -118.099358100000018, 50.967724699999984 ], [ -118.099508299999982, 50.9680321 ], [ -118.099358100000018, 50.9685017 ] ] } },
{ "type": "Feature", "properties": { "osm_id": 392716055, "name": "Unlimited Assets", "osm_difficulty": "expert", "length_m": 527.8, "vert_drop_m": 255.0, "mean_slope_deg": 30.8, "max_slope_deg": 54.0 }, "geometry": { "type": "LineString", "coordinates": [ [ -118.1025634, 50.9672452 ], [ -118.102469400000018, 50.9674882 ], [ -118.1019598, 50.9675152 ], [ -118.101611100000014, 50.9677179 ], [ -118.1013537, 50.9680017 ], [ -118.1011713, 50.9684949 ], [ -118.1012035, 50.9692246 ], [ -118.1017399, 50.9701232 ], [ -118.101568199999988, 50.9709948 ], [ -118.1016487, 50.9714322 ] ] } },
{ "type": "Feature", "properties": { "osm_id": 392716056, "name": "Meet the Neighbours", "osm_difficulty": "advanced", "length_m": 234.4, "vert_drop_m": 105.1, "mean_slope_deg": 29.8, "max_slope_deg": 45.1 }, "geometry": { "type": "LineString", "coordinates": [ [ -118.1040756, 50.9677363 ], [ -118.1040627, 50.9680119 ], [ -118.10417, 50.9681436 ], [ -118.1034029, 50.9681233 ], [ -118.1031615, 50.9682382 ], [ -118.1027967, 50.9686436 ], [ -118.1025356, 50.9691329 ] ] } },
{ "type": "Feature", "properties": { "osm_id": 392716057, "name": "Brake Check", "osm_difficulty": "expert", "length_m": 72.4, "vert_drop_m": 66.2, "mean_slope_deg": 43.7, "max_slope_deg": 74.2 }, "geometry": { "type": "LineString", "coordinates": [ [ -118.1046318, 50.9688396 ], [ -118.10410730000001, 50.9694001 ] ] } },
{ "type": "Feature", "properties": { "osm_id": 392716058, "name": "Parachute", "osm_difficulty": "advanced", "length_m": 104.4, "vert_drop_m": 83.8, "mean_slope_deg": 38.4, "max_slope_deg": 73.6 }, "geometry": { "type": "LineString", "coordinates": [ [ -118.1053039, 50.9690936 ], [ -118.1045825, 50.969914599999989 ] ] } },
{ "type": "Feature", "properties": { "osm_id": 392716061, "name": "Bread & Butter", "osm_difficulty": "intermediate", "length_m": 262.9, "vert_drop_m": 116.2, "mean_slope_deg": 26.5, "max_slope_deg": 48.4 }, "geometry": { "type": "LineString", "coordinates": [ [ -118.1058662, 50.963419 ], [ -118.1063784, 50.9632797 ], [ -118.1076843, 50.9631588 ], [ -118.1091301, 50.963239599999987 ], [ -118.109386299999983, 50.9634452 ] ] } },
{ "type": "Feature", "properties": { "osm_id": 773577453, "name": null, "osm_difficulty": "easy", "length_m": 369.3, "vert_drop_m": 16.8, "mean_slope_deg": 9.2, "max_slope_deg": 31.8 }, "geometry": { "type": "LineString", "coordinates": [ [ -118.118423, 50.971285599999987 ], [ -118.1194201, 50.9717513 ], [ -118.1198269, 50.9720931 ], [ -118.1201171, 50.9721304 ], [ -118.120294199999989, 50.9720456 ], [ -118.1206211, 50.9702758 ] ] } },
{ "type": "Feature", "properties": { "osm_id": 773577456, "name": "Over Easy", "osm_difficulty": "easy", "length_m": 1432.6, "vert_drop_m": 179.9, "mean_slope_deg": 9.3, "max_slope_deg": 23.1 }, "geometry": { "type": "LineString", "coordinates": [ [ -118.121360200000012, 50.9718991 ], [ -118.1212772, 50.9723905 ], [ -118.1217279, 50.9731674 ], [ -118.1221788, 50.9736741 ], [ -118.1224477, 50.9747821 ], [ -118.1241961, 50.975086 ], [ -118.1244536, 50.9753022 ], [ -118.1244012, 50.975893 ], [ -118.1244876, 50.9761616 ], [ -118.1248407, 50.9763884 ], [ -118.124570799999987, 50.9767692 ], [ -118.124568, 50.9769275 ], [ -118.1248604, 50.9773887 ], [ -118.12485070000001, 50.9775627 ], [ -118.1244235, 50.9785276 ], [ -118.1234478, 50.9791526 ], [ -118.122458, 50.979328299999985 ], [ -118.1220933, 50.979666 ], [ -118.1216427, 50.9797876 ], [ -118.1210177, 50.9797796 ], [ -118.1202062, 50.9796634 ], [ -118.1195169, 50.9800529 ], [ -118.1190154, 50.980219 ], [ -118.1187888, 50.9806657 ], [ -118.118574200000012, 50.9808819 ], [ -118.1183811, 50.9809294 ] ] } },
{ "type": "Feature", "properties": { "osm_id": 773577457, "name": "Bacon & Eggs", "osm_difficulty": "easy", "length_m": 343.4, "vert_drop_m": 58.7, "mean_slope_deg": 12.9, "max_slope_deg": 26.1 }, "geometry": { "type": "LineString", "coordinates": [ [ -118.1243609, 50.9752244 ], [ -118.1246621, 50.9744461 ], [ -118.1248613, 50.9742078 ], [ -118.1255552, 50.973711399999985 ], [ -118.126171600000021, 50.973393899999984 ], [ -118.1273612, 50.9729985 ] ] } },
{ "type": "Feature", "properties": { "osm_id": 876357455, "name": "Fowlie's Lap", "osm_difficulty": "intermediate", "length_m": 282.3, "vert_drop_m": 69.5, "mean_slope_deg": 18.5, "max_slope_deg": 40.9 }, "geometry": { "type": "LineString", "coordinates": [ [ -118.121689600000011, 50.9731095 ], [ -118.1220966, 50.973053899999989 ], [ -118.1238025, 50.973189 ], [ -118.1245857, 50.9736822 ], [ -118.12524160000001, 50.973931 ] ] } },
{ "type": "Feature", "properties": { "osm_id": 876357456, "name": "Practically Pro", "osm_difficulty": "intermediate", "length_m": 498.0, "vert_drop_m": 119.8, "mean_slope_deg": 17.2, "max_slope_deg": 46.9 }, "geometry": { "type": "LineString", "coordinates": [ [ -118.121549400000021, 50.9718311 ], [ -118.1218981, 50.9716318 ], [ -118.1223542, 50.9715643 ], [ -118.122735, 50.9715778 ], [ -118.1238025, 50.971794 ], [ -118.1249022, 50.9716588 ], [ -118.1254547, 50.9716723 ], [ -118.126066300000019, 50.9718784 ], [ -118.126854800000018, 50.9725608 ], [ -118.1276461, 50.9728715 ] ] } },
{ "type": "Feature", "properties": { "osm_id": 876357457, "name": "Big Bend", "osm_difficulty": "easy", "length_m": 944.5, "vert_drop_m": 120.4, "mean_slope_deg": 9.6, "max_slope_deg": 32.1 }, "geometry": { "type": "LineString", "coordinates": [ [ -118.1214851, 50.9717433 ], [ -118.1216889, 50.9712366 ], [ -118.122246799999985, 50.970588 ], [ -118.1232017, 50.9702299 ], [ -118.1234055, 50.970007 ], [ -118.1234646, 50.9694226 ], [ -118.123700600000021, 50.969199599999989 ], [ -118.1241726, 50.969132 ], [ -118.1247198, 50.9692706 ], [ -118.1249934, 50.9695374 ], [ -118.125277800000021, 50.9696725 ], [ -118.127096300000019, 50.9699799 ], [ -118.127493200000018, 50.970378599999989 ], [ -118.1279224, 50.971290599999989 ], [ -118.128018900000015, 50.971756799999987 ], [ -118.1279546, 50.9723716 ], [ -118.1277722, 50.972837699999985 ] ] } },
{ "type": "Feature", "properties": { "osm_id": 876357459, "name": "Downtowner", "osm_difficulty": "easy", "length_m": 693.2, "vert_drop_m": 60.1, "mean_slope_deg": 20.7, "max_slope_deg": 43.8 }, "geometry": { "type": "LineString", "coordinates": [ [ -118.1033487, 50.9718587 ], [ -118.103975600000012, 50.9719595 ], [ -118.105306, 50.972652 ], [ -118.106529099999989, 50.9735234 ], [ -118.106765100000018, 50.973895 ], [ -118.10695819999998, 50.9739828 ], [ -118.1072372, 50.9739355 ], [ -118.107323, 50.9738072 ], [ -118.106969, 50.9732938 ], [ -118.106936800000014, 50.9730843 ], [ -118.1070011, 50.9728681 ], [ -118.1072264, 50.9726992 ], [ -118.10797190000001, 50.9726898 ], [ -118.108676, 50.9723982 ], [ -118.1093658, 50.9722933 ] ] } },
{ "type": "Feature", "properties": { "osm_id": 876357460, "name": "Blowdown", "osm_difficulty": "intermediate", "length_m": 609.0, "vert_drop_m": 131.1, "mean_slope_deg": 14.4, "max_slope_deg": 25.2 }, "geometry": { "type": "LineString", "coordinates": [ [ -118.1033487, 50.9718587 ], [ -118.1039667, 50.9718339 ], [ -118.104588899999982, 50.9719285 ], [ -118.105640400000013, 50.972252799999985 ], [ -118.1081134, 50.9732999 ], [ -118.1106385, 50.9741098 ], [ -118.110921799999986, 50.9743133 ] ] } },
{ "type": "Feature", "properties": { "osm_id": 876357461, "name": "Sally Alley", "osm_difficulty": "easy", "length_m": 3313.8, "vert_drop_m": 526.7, "mean_slope_deg": 12.4, "max_slope_deg": 48.4 }, "geometry": { "type": "LineString", "coordinates": [ [ -118.1029649, 50.9732462 ], [ -118.1027484, 50.9731448 ], [ -118.1025854, 50.9733707 ], [ -118.1022228, 50.973491 ], [ -118.101997200000014, 50.9734239 ], [ -118.10176730000002, 50.973104 ], [ -118.1016298, 50.9731192 ], [ -118.1011772, 50.973685 ], [ -118.101305900000014, 50.9740903 ], [ -118.1011557, 50.9742525 ], [ -118.1005656, 50.9744822 ], [ -118.1004583, 50.9746105 ], [ -118.100533399999989, 50.9747456 ], [ -118.1007759, 50.9748123 ], [ -118.1011156, 50.9751022 ], [ -118.1026883, 50.9754249 ], [ -118.1031306, 50.9757918 ], [ -118.103568100000018, 50.9757009 ], [ -118.1038283, 50.9757329 ], [ -118.103970700000019, 50.9758738 ], [ -118.10431, 50.9767452 ], [ -118.10431, 50.9769276 ], [ -118.103980099999987, 50.977326199999986 ], [ -118.1040793, 50.97749 ], [ -118.104801, 50.9777825 ], [ -118.1049979, 50.9780158 ], [ -118.1050288, 50.978174 ], [ -118.1048572, 50.978454299999989 ], [ -118.104975200000013, 50.9785894 ], [ -118.1080919, 50.9787361 ], [ -118.1087888, 50.9783612 ], [ -118.109874, 50.9775331 ], [ -118.1103225, 50.9773577 ], [ -118.1110233, 50.9774101 ], [ -118.1122371, 50.977670900000014 ], [ -118.114031200000014, 50.977754 ], [ -118.115713, 50.978196499999989 ], [ -118.1158417, 50.978367099999986 ], [ -118.1156083, 50.9786356 ], [ -118.1155425, 50.978946 ], [ -118.116134100000011, 50.9791101 ], [ -118.11778360000001, 50.9798514 ], [ -118.1183925, 50.9805354 ], [ -118.118470300000013, 50.980766699999975 ], [ -118.1183811, 50.9809294 ], [ -118.1176301, 50.9811926 ], [ -118.1173082, 50.981814 ], [ -118.117029300000013, 50.9820166 ], [ -118.1156218, 50.9822902 ], [ -118.11531260000001, 50.982584 ], [ -118.1149518, 50.9827538 ], [ -118.1146743, 50.9828102 ], [ -118.11401020000001, 50.9827427 ], [ -118.113672, 50.9829622 ], [ -118.113602499999985, 50.9834373 ], [ -118.1133217, 50.9837722 ], [ -118.11324, 50.9841419 ], [ -118.113036600000015, 50.9843187 ], [ -118.1127387, 50.9849812 ], [ -118.1127089, 50.9854688 ], [ -118.1133745, 50.9862898 ], [ -118.113371, 50.9867738 ], [ -118.1131781, 50.9869978 ], [ -118.1126147, 50.9873681 ], [ -118.1122559, 50.988017 ] ] } },
{ "type": "Feature", "properties": { "osm_id": 876357462, "name": "Chopper", "osm_difficulty": "intermediate", "length_m": 449.6, "vert_drop_m": 101.2, "mean_slope_deg": 18.4, "max_slope_deg": 39.4 }, "geometry": { "type": "LineString", "coordinates": [ [ -118.102116900000013, 50.9804397 ], [ -118.102518300000014, 50.9807138 ], [ -118.1029474, 50.9814027 ], [ -118.1030547, 50.9816189 ], [ -118.103011800000019, 50.981889099999982 ], [ -118.102781100000016, 50.9822403 ], [ -118.1027329, 50.9829157 ], [ -118.1026041, 50.983212899999984 ], [ -118.1023037, 50.983402 ], [ -118.101223100000013, 50.9838057 ] ] } },
{ "type": "Feature", "properties": { "osm_id": 876357463, "name": null, "osm_difficulty": "easy", "length_m": 144.3, "vert_drop_m": 4.3, "mean_slope_deg": 14.4, "max_slope_deg": 32.2 }, "geometry": { "type": "LineString", "coordinates": [ [ -118.1159261, 50.9677848 ], [ -118.1158743, 50.9685465 ], [ -118.1160138, 50.9690674 ] ] } },
{ "type": "Feature", "properties": { "osm_id": 901305799, "name": "Simmer Down", "osm_difficulty": "intermediate", "length_m": 328.1, "vert_drop_m": 83.8, "mean_slope_deg": 17.3, "max_slope_deg": 31.1 }, "geometry": { "type": "LineString", "coordinates": [ [ -118.116539100000011, 50.97928229999998 ], [ -118.116953400000014, 50.9802193 ], [ -118.1169695, 50.9814115 ], [ -118.116386300000016, 50.9821055 ] ] } },
{ "type": "Feature", "properties": { "osm_id": 901305801, "name": "\"Stop at the Road\" Glades", "osm_difficulty": "advanced", "length_m": 1235.6, "vert_drop_m": 158.2, "mean_slope_deg": 18.9, "max_slope_deg": 40.0 }, "geometry": { "type": "LineString", "coordinates": [ [ -118.1163292, 50.981444699999983 ], [ -118.1161498, 50.9815254 ], [ -118.1162165, 50.9817158 ], [ -118.1157756, 50.9820127 ], [ -118.115473199999983, 50.9820256 ], [ -118.1152015, 50.9819223 ], [ -118.114914400000018, 50.9812607 ], [ -118.1147145, 50.9810994 ], [ -118.114545400000011, 50.9806443 ], [ -118.1141865, 50.9801505 ], [ -118.113668799999985, 50.9782463 ], [ -118.1130695, 50.9777689 ], [ -118.1141585, 50.9778112 ], [ -118.114314100000016, 50.977899 ], [ -118.1142792, 50.9780425 ], [ -118.1144804, 50.9779632 ], [ -118.114695, 50.977996899999987 ], [ -118.1148291, 50.978110099999988 ], [ -118.1152314, 50.9781287 ], [ -118.115609600000013, 50.9783043 ], [ -118.115690099999981, 50.9784309 ], [ -118.1153736, 50.9788751 ], [ -118.115577400000021, 50.9791064 ], [ -118.115918, 50.9791605 ], [ -118.1161889, 50.9795421 ], [ -118.1165028, 50.9803814 ], [ -118.116467900000018, 50.9813811 ], [ -118.1163292, 50.981444699999983 ] ] } },
{ "type": "Feature", "properties": { "osm_id": 914279229, "name": "Stay Hungry", "osm_difficulty": "advanced", "length_m": 400.3, "vert_drop_m": 204.9, "mean_slope_deg": 29.2, "max_slope_deg": 47.7 }, "geometry": { "type": "LineString", "coordinates": [ [ -118.1032389, 50.9649058 ], [ -118.1046957, 50.9653294 ], [ -118.107983600000011, 50.9655158 ], [ -118.1086625, 50.9657747 ] ] } },
{ "type": "Feature", "properties": { "osm_id": 914279230, "name": "Pyromania", "osm_difficulty": "advanced", "length_m": 600.1, "vert_drop_m": 229.8, "mean_slope_deg": 24.5, "max_slope_deg": 41.0 }, "geometry": { "type": "LineString", "coordinates": [ [ -118.1029306, 50.9659325 ], [ -118.1043787, 50.9665767 ], [ -118.105392599999988, 50.9669449 ], [ -118.1056881, 50.9669646 ], [ -118.10609580000002, 50.966853099999987 ], [ -118.1065513, 50.9665293 ], [ -118.1069541, 50.9663666 ], [ -118.1078701, 50.9661715 ], [ -118.1080216, 50.966299 ], [ -118.1081778, 50.966277 ], [ -118.1085205, 50.9664342 ], [ -118.10947, 50.9671403 ], [ -118.1098323, 50.9672351 ] ] } },
{ "type": "Feature", "properties": { "osm_id": 914279231, "name": "Hysteria", "osm_difficulty": "advanced", "length_m": 535.4, "vert_drop_m": 197.1, "mean_slope_deg": 24.1, "max_slope_deg": 48.6 }, "geometry": { "type": "LineString", "coordinates": [ [ -118.1040756, 50.9677363 ], [ -118.1063962, 50.9681639 ], [ -118.1077047, 50.9682421 ], [ -118.1104727, 50.9688502 ], [ -118.1114115, 50.9689212 ] ] } },
{ "type": "Feature", "properties": { "osm_id": 914279232, "name": "Metal Health", "osm_difficulty": "expert", "length_m": 415.0, "vert_drop_m": 113.2, "mean_slope_deg": 22.1, "max_slope_deg": 38.1 }, "geometry": { "type": "LineString", "coordinates": [ [ -118.1057793, 50.9693598 ], [ -118.1078231, 50.9698124 ], [ -118.1082787, 50.96984 ], [ -118.108643900000018, 50.969782 ], [ -118.1089336, 50.9696401 ], [ -118.10920179999998, 50.9689307 ], [ -118.109985, 50.9689983 ], [ -118.1104727, 50.9688502 ] ] } },
{ "type": "Feature", "properties": { "osm_id": 1148726637, "name": "Separate Reality", "osm_difficulty": "advanced", "length_m": 943.7, "vert_drop_m": 176.6, "mean_slope_deg": 26.7, "max_slope_deg": 44.4 }, "geometry": { "type": "LineString", "coordinates": [ [ -118.105591499999989, 50.9639814 ], [ -118.104733199999984, 50.964163899999988 ], [ -118.1041539, 50.9647044 ], [ -118.10426120000001, 50.9651436 ], [ -118.104926400000011, 50.9653936 ], [ -118.1060314, 50.9653463 ], [ -118.1076622, 50.9655558 ], [ -118.108542, 50.9658599 ], [ -118.1088317, 50.965859899999984 ], [ -118.109293, 50.9656774 ], [ -118.109443200000015, 50.96506930000001 ], [ -118.1091857, 50.9647044 ], [ -118.1066859, 50.964103 ], [ -118.105591499999989, 50.9639814 ] ] } },
{ "type": "Feature", "properties": { "osm_id": 1148726652, "name": "Beauty Glades", "osm_difficulty": "advanced", "length_m": 2437.4, "vert_drop_m": 299.4, "mean_slope_deg": 21.4, "max_slope_deg": 49.0 }, "geometry": { "type": "LineString", "coordinates": [ [ -118.094852, 50.9804861 ], [ -118.0935878, 50.9817808 ], [ -118.0929862, 50.9833808 ], [ -118.092014, 50.9825509 ], [ -118.0933045, 50.9794425 ], [ -118.090581899999989, 50.9748523 ], [ -118.0910111, 50.9737444 ], [ -118.0943799, 50.9744335 ], [ -118.0956566, 50.9793716 ], [ -118.094852, 50.9804861 ] ] } },
{ "type": "Feature", "properties": { "osm_id": 1148726653, "name": "Upper South Side", "osm_difficulty": "advanced", "length_m": 1627.6, "vert_drop_m": 162.3, "mean_slope_deg": 27.7, "max_slope_deg": 47.7 }, "geometry": { "type": "LineString", "coordinates": [ [ -118.098821700000016, 50.9632719 ], [ -118.0992347, 50.9637686 ], [ -118.101638, 50.9624982 ], [ -118.1011069, 50.9621772 ], [ -118.100227100000012, 50.9618596 ], [ -118.096590100000014, 50.9610555 ], [ -118.095506400000019, 50.9606771 ], [ -118.0936933, 50.960596 ], [ -118.0929852, 50.9608055 ], [ -118.09238430000002, 50.9616164 ], [ -118.092556, 50.9626097 ], [ -118.093092500000012, 50.96267730000001 ], [ -118.09394, 50.9625286 ], [ -118.0948949, 50.96292050000001 ], [ -118.095517200000018, 50.9630895 ], [ -118.095871200000019, 50.9630692 ], [ -118.096568600000012, 50.9628665 ], [ -118.098821700000016, 50.9632719 ] ] } },
{ "type": "Feature", "properties": { "osm_id": 1158075529, "name": "Tumbelina", "osm_difficulty": "intermediate", "length_m": 266.8, "vert_drop_m": 84.0, "mean_slope_deg": 21.4, "max_slope_deg": 35.9 }, "geometry": { "type": "LineString", "coordinates": [ [ -118.152412, 50.952878 ], [ -118.152765500000015, 50.9522454 ], [ -118.1531296, 50.952067 ], [ -118.154444500000011, 50.951897 ], [ -118.1552724, 50.952168 ] ] } },
{ "type": "Feature", "properties": { "osm_id": 1284767739, "name": "Fast Fred's", "osm_difficulty": "intermediate", "length_m": 356.3, "vert_drop_m": 27.9, "mean_slope_deg": 7.2, "max_slope_deg": 14.6 }, "geometry": { "type": "LineString", "coordinates": [ [ -118.125961100000012, 50.9515142 ], [ -118.126602800000015, 50.9519721 ], [ -118.1276701, 50.952284899999988 ], [ -118.128529, 50.9526477 ], [ -118.1296857, 50.9535828 ] ] } },
{ "type": "Feature", "properties": { "osm_id": 1284767740, "name": "Fast Fred's", "osm_difficulty": "intermediate", "length_m": 9.0, "vert_drop_m": 0.2, "mean_slope_deg": 2.0, "max_slope_deg": 5.0 }, "geometry": { "type": "LineString", "coordinates": [ [ -118.125873, 50.9514549 ], [ -118.125961100000012, 50.9515142 ] ] } },
{ "type": "Feature", "properties": { "osm_id": 1317062099, "name": null, "osm_difficulty": "intermediate", "length_m": 246.4, "vert_drop_m": 109.7, "mean_slope_deg": 24.4, "max_slope_deg": 37.9 }, "geometry": { "type": "LineString", "coordinates": [ [ -118.1063784, 50.9632797 ], [ -118.1074691, 50.9635084 ], [ -118.108424, 50.963839499999985 ], [ -118.109444400000015, 50.9643167 ] ] } },
{ "type": "Feature", "properties": { "osm_id": 1317062101, "name": null, "osm_difficulty": "advanced", "length_m": 319.9, "vert_drop_m": 48.8, "mean_slope_deg": 13.4, "max_slope_deg": 33.7 }, "geometry": { "type": "LineString", "coordinates": [ [ -118.1081778, 50.966277 ], [ -118.1097677, 50.966180799999989 ], [ -118.1109828, 50.9665693 ], [ -118.111414600000018, 50.9665879 ], [ -118.112511200000014, 50.9663764 ] ] } },
{ "type": "Feature", "properties": { "osm_id": 1317062102, "name": null, "osm_difficulty": "advanced", "length_m": 111.0, "vert_drop_m": 18.1, "mean_slope_deg": 10.4, "max_slope_deg": 29.3 }, "geometry": { "type": "LineString", "coordinates": [ [ -118.1086625, 50.9657747 ], [ -118.109877699999984, 50.96587 ], [ -118.1101707, 50.9659931 ] ] } },
{ "type": "Feature", "properties": { "osm_id": 1317062103, "name": "Stay Hungry", "osm_difficulty": "advanced", "length_m": 561.7, "vert_drop_m": 136.6, "mean_slope_deg": 18.9, "max_slope_deg": 36.2 }, "geometry": { "type": "LineString", "coordinates": [ [ -118.1098323, 50.9672351 ], [ -118.110445900000016, 50.9675665 ], [ -118.1107893, 50.967857 ], [ -118.1112184, 50.968455 ], [ -118.1114115, 50.9689212 ], [ -118.112565299999986, 50.9691199 ], [ -118.1131013, 50.9696204 ], [ -118.113273, 50.9698299 ], [ -118.1133807, 50.9704543 ], [ -118.1136811, 50.9712409 ] ] } },
{ "type": "Feature", "properties": { "osm_id": 1317062104, "name": "Drop In", "osm_difficulty": "advanced", "length_m": 550.8, "vert_drop_m": 266.4, "mean_slope_deg": 27.8, "max_slope_deg": 52.6 }, "geometry": { "type": "LineString", "coordinates": [ [ -118.1008575, 50.9656647 ], [ -118.100127, 50.9661929 ], [ -118.0990899, 50.967299 ], [ -118.0989236, 50.9679477 ], [ -118.099358100000018, 50.9685017 ], [ -118.099358100000018, 50.9689274 ], [ -118.0989075, 50.9698766 ], [ -118.0990899, 50.9701097 ] ] } },
{ "type": "Feature", "properties": { "osm_id": 1317062105, "name": "Powder Assault", "osm_difficulty": "expert", "length_m": 610.5, "vert_drop_m": 136.1, "mean_slope_deg": 18.9, "max_slope_deg": 39.8 }, "geometry": { "type": "LineString", "coordinates": [ [ -118.0968475, 50.9700624 ], [ -118.0969548, 50.9703935 ], [ -118.096933400000012, 50.970920499999984 ], [ -118.096225300000015, 50.9714542 ], [ -118.0961609, 50.9717379 ], [ -118.0965042, 50.9724608 ], [ -118.0964935, 50.9726973 ], [ -118.0962896, 50.9736904 ], [ -118.0959892, 50.9739099 ], [ -118.0958551, 50.9741396 ], [ -118.0960965, 50.9748523 ], [ -118.0959624, 50.9751952 ] ] } },
{ "type": "Feature", "properties": { "osm_id": 1317062106, "name": null, "osm_difficulty": "advanced", "length_m": 513.2, "vert_drop_m": 74.6, "mean_slope_deg": 27.7, "max_slope_deg": 46.7 }, "geometry": { "type": "LineString", "coordinates": [ [ -118.096922600000013, 50.9694679 ], [ -118.0971801, 50.9697989 ], [ -118.097502, 50.9699881 ], [ -118.0978775, 50.9700286 ], [ -118.0983925, 50.9699611 ], [ -118.0990899, 50.9701097 ], [ -118.0994117, 50.970358 ], [ -118.099387600000014, 50.9707161 ], [ -118.0995351, 50.9709289 ], [ -118.100852099999983, 50.9712447 ], [ -118.1013644, 50.9712836 ], [ -118.1016487, 50.9714322 ], [ -118.102077900000012, 50.9719029 ] ] } },
{ "type": "Feature", "properties": { "osm_id": 1317062107, "name": "Gracias Ridge", "osm_difficulty": "expert", "length_m": 418.6, "vert_drop_m": 97.5, "mean_slope_deg": 24.7, "max_slope_deg": 49.1 }, "geometry": { "type": "LineString", "coordinates": [ [ -118.0960803, 50.965510499999986 ], [ -118.0958176, 50.9659409 ], [ -118.0960053, 50.9661335 ], [ -118.0959785, 50.9662923 ], [ -118.095377700000014, 50.9665355 ], [ -118.0951899, 50.9668801 ], [ -118.0948949, 50.9670288 ], [ -118.094444300000021, 50.9675423 ], [ -118.09424580000001, 50.9687686 ] ] } },
{ "type": "Feature", "properties": { "osm_id": 1317062114, "name": "Greely Bowl", "osm_difficulty": "advanced", "length_m": 792.4, "vert_drop_m": 253.7, "mean_slope_deg": 23.3, "max_slope_deg": 40.3 }, "geometry": { "type": "LineString", "coordinates": [ [ -118.0960803, 50.965510499999986 ], [ -118.095441400000013, 50.9658574 ], [ -118.0948573, 50.965924 ], [ -118.0931036, 50.9673079 ], [ -118.0916816, 50.9677922 ], [ -118.091168300000021, 50.9683296 ], [ -118.089653900000016, 50.9704712 ], [ -118.089653900000016, 50.97089 ] ] } },
{ "type": "Feature", "properties": { "osm_id": 1317761505, "name": null, "osm_difficulty": "freeride", "length_m": 387.0, "vert_drop_m": 157.8, "mean_slope_deg": 25.5, "max_slope_deg": 37.4 }, "geometry": { "type": "LineString", "coordinates": [ [ -118.0806389, 50.9560511 ], [ -118.08025, 50.9556424 ], [ -118.0799496, 50.9547705 ], [ -118.079102099999986, 50.9538311 ], [ -118.077908500000021, 50.9531333 ] ] } },
{ "type": "Feature", "properties": { "osm_id": 1317761506, "name": null, "osm_difficulty": "freeride", "length_m": 538.0, "vert_drop_m": 154.9, "mean_slope_deg": 23.5, "max_slope_deg": 48.0 }, "geometry": { "type": "LineString", "coordinates": [ [ -118.07514310000002, 50.9548179 ], [ -118.0751485, 50.9545002 ], [ -118.0755723, 50.954115 ], [ -118.0759478, 50.9539933 ], [ -118.076859699999986, 50.9539325 ], [ -118.0772781, 50.9537365 ], [ -118.077908500000021, 50.9531333 ], [ -118.077943300000015, 50.9525875 ], [ -118.078211599999989, 50.9523172 ], [ -118.0788875, 50.9518914 ], [ -118.0797565, 50.9515196 ] ] } },
{ "type": "Feature", "properties": { "osm_id": 1317761507, "name": null, "osm_difficulty": "freeride", "length_m": 669.4, "vert_drop_m": 234.4, "mean_slope_deg": 28.0, "max_slope_deg": 42.2 }, "geometry": { "type": "LineString", "coordinates": [ [ -118.1053877, 50.9552166 ], [ -118.107394, 50.954527199999987 ], [ -118.1089282, 50.9544191 ], [ -118.110516100000012, 50.95406770000001 ], [ -118.1117821, 50.9536013 ], [ -118.1130374, 50.952844399999989 ], [ -118.1137347, 50.952574 ] ] } },
{ "type": "Feature", "properties": { "osm_id": 1317761508, "name": null, "osm_difficulty": "freeride", "length_m": 385.6, "vert_drop_m": 156.4, "mean_slope_deg": 23.7, "max_slope_deg": 39.4 }, "geometry": { "type": "LineString", "coordinates": [ [ -118.104744, 50.9550206 ], [ -118.105773900000017, 50.953844599999982 ], [ -118.1069327, 50.952939 ], [ -118.108069900000018, 50.9523037 ] ] } },
{ "type": "Feature", "properties": { "osm_id": 1317761509, "name": null, "osm_difficulty": "freeride", "length_m": 423.0, "vert_drop_m": 152.9, "mean_slope_deg": 26.1, "max_slope_deg": 40.3 }, "geometry": { "type": "LineString", "coordinates": [ [ -118.101568199999988, 50.9542096 ], [ -118.103349199999982, 50.9531012 ], [ -118.106310399999984, 50.9518981 ] ] } },
{ "type": "Feature", "properties": { "osm_id": 1317761510, "name": null, "osm_difficulty": "freeride", "length_m": 530.3, "vert_drop_m": 171.1, "mean_slope_deg": 20.5, "max_slope_deg": 37.6 }, "geometry": { "type": "LineString", "coordinates": [ [ -118.0960751, 50.9541691 ], [ -118.0974055, 50.9535337 ], [ -118.1018687, 50.9511141 ] ] } },
{ "type": "Feature", "properties": { "osm_id": 1317761511, "name": null, "osm_difficulty": "freeride", "length_m": 332.1, "vert_drop_m": 94.4, "mean_slope_deg": 29.6, "max_slope_deg": 43.2 }, "geometry": { "type": "LineString", "coordinates": [ [ -118.07392, 50.9553653 ], [ -118.073405, 50.9547435 ], [ -118.0732977, 50.9541217 ], [ -118.0736518, 50.9528781 ], [ -118.0738664, 50.9525064 ] ] } },
{ "type": "Feature", "properties": { "osm_id": 1317761512, "name": null, "osm_difficulty": "freeride", "length_m": 349.9, "vert_drop_m": 164.3, "mean_slope_deg": 25.3, "max_slope_deg": 49.1 }, "geometry": { "type": "LineString", "coordinates": [ [ -118.070797900000017, 50.9535202 ], [ -118.071312899999981, 50.9531282 ], [ -118.073351400000021, 50.952736199999983 ], [ -118.0738664, 50.9525064 ], [ -118.0741883, 50.952209 ], [ -118.0744779, 50.9517156 ] ] } },
{ "type": "Feature", "properties": { "osm_id": 1317761513, "name": null, "osm_difficulty": "freeride", "length_m": 1255.2, "vert_drop_m": 421.9, "mean_slope_deg": 24.1, "max_slope_deg": 40.7 }, "geometry": { "type": "LineString", "coordinates": [ [ -118.0757761, 50.9475317 ], [ -118.0784154, 50.9465583 ], [ -118.0806256, 50.9459499 ], [ -118.081618, 50.9455545 ], [ -118.0820364, 50.9454869 ], [ -118.082814200000016, 50.9455072 ], [ -118.083871, 50.9453483 ], [ -118.0848903, 50.945328 ], [ -118.0909252, 50.9434792 ], [ -118.0920839, 50.9432933 ] ] } },
{ "type": "Feature", "properties": { "osm_id": 1317761514, "name": null, "osm_difficulty": "freeride", "length_m": 510.5, "vert_drop_m": 144.7, "mean_slope_deg": 21.1, "max_slope_deg": 38.5 }, "geometry": { "type": "LineString", "coordinates": [ [ -118.0797565, 50.9515196 ], [ -118.0812398, 50.9510938 ], [ -118.0821598, 50.950701799999983 ], [ -118.0828679, 50.9505463 ], [ -118.0855179, 50.9504787 ], [ -118.086623, 50.9506004 ] ] } },
{ "type": "Feature", "properties": { "osm_id": 1317761515, "name": null, "osm_difficulty": "freeride", "length_m": 852.9, "vert_drop_m": 313.8, "mean_slope_deg": 28.5, "max_slope_deg": 40.7 }, "geometry": { "type": "LineString", "coordinates": [ [ -118.07127, 50.9476804 ], [ -118.0723858, 50.9484104 ], [ -118.074102400000015, 50.9490999 ], [ -118.075701, 50.9494175 ], [ -118.076731, 50.9495798 ], [ -118.0773532, 50.949573 ], [ -118.077932599999983, 50.9493702 ], [ -118.0789197, 50.948843 ], [ -118.0792093, 50.948816 ], [ -118.079896, 50.9489106 ], [ -118.0814409, 50.9493297 ], [ -118.081812199999987, 50.9495473 ] ] } },
{ "type": "Feature", "properties": { "osm_id": 1317761516, "name": null, "osm_difficulty": "freeride", "length_m": 1491.7, "vert_drop_m": 383.4, "mean_slope_deg": 20.3, "max_slope_deg": 37.9 }, "geometry": { "type": "LineString", "coordinates": [ [ -118.0764263, 50.9560009 ], [ -118.07514310000002, 50.9548179 ], [ -118.074832, 50.954446099999984 ], [ -118.074767599999987, 50.9542028 ], [ -118.0748212, 50.9535878 ], [ -118.0744779, 50.9517156 ], [ -118.0745208, 50.9514115 ], [ -118.075304, 50.950695 ], [ -118.075497200000015, 50.9504111 ], [ -118.0760551, 50.950201599999986 ], [ -118.0767632, 50.9501881 ], [ -118.077406900000014, 50.9500056 ], [ -118.078082800000018, 50.9500259 ], [ -118.078447600000018, 50.9501881 ], [ -118.0788553, 50.9501678 ], [ -118.080904500000017, 50.949654099999989 ], [ -118.0818808, 50.9495392 ], [ -118.083339900000013, 50.949573 ], [ -118.0836189, 50.9495122 ], [ -118.0844772, 50.9490661 ], [ -118.0857432, 50.948768699999988 ], [ -118.086301100000014, 50.9488058 ] ] } },
{ "type": "Feature", "properties": { "osm_id": 1317761517, "name": null, "osm_difficulty": "freeride", "length_m": 875.4, "vert_drop_m": 406.7, "mean_slope_deg": 26.4, "max_slope_deg": 42.1 }, "geometry": { "type": "LineString", "coordinates": [ [ -118.080388200000016, 50.956625099999989 ], [ -118.0807436, 50.9558113 ], [ -118.0815804, 50.9548179 ], [ -118.0824924, 50.9543583 ], [ -118.0833936, 50.9536351 ], [ -118.08452010000002, 50.9521482 ], [ -118.0857432, 50.9508437 ], [ -118.0861938, 50.9506612 ], [ -118.086623, 50.9506004 ], [ -118.08735710000002, 50.9506173 ] ] } },
{ "type": "Feature", "properties": { "osm_id": 1317761518, "name": null, "osm_difficulty": "freeride", "length_m": 484.2, "vert_drop_m": 175.7, "mean_slope_deg": 21.3, "max_slope_deg": 37.3 }, "geometry": { "type": "LineString", "coordinates": [ [ -118.0870216, 50.9598189 ], [ -118.088404, 50.9571968 ], [ -118.089460699999989, 50.9557539 ] ] } },
{ "type": "Feature", "properties": { "osm_id": 1317761519, "name": null, "osm_difficulty": "freeride", "length_m": 790.7, "vert_drop_m": 258.6, "mean_slope_deg": 27.0, "max_slope_deg": 42.6 }, "geometry": { "type": "LineString", "coordinates": [ [ -118.0896109, 50.9589099 ], [ -118.089696800000013, 50.9581936 ], [ -118.0896109, 50.9580077 ], [ -118.090233200000014, 50.956764199999988 ], [ -118.0896807, 50.9561526 ], [ -118.089460699999989, 50.9557539 ], [ -118.089788, 50.9543853 ], [ -118.0896807, 50.953398599999986 ], [ -118.089906, 50.9528714 ], [ -118.0905224, 50.9521525 ] ] } },
{ "type": "Feature", "properties": { "osm_id": 1317761521, "name": null, "osm_difficulty": "freeride", "length_m": 790.3, "vert_drop_m": 368.6, "mean_slope_deg": 29.0, "max_slope_deg": 42.4 }, "geometry": { "type": "LineString", "coordinates": [ [ -118.0823046, 50.9573015 ], [ -118.0834365, 50.9554667 ], [ -118.0839515, 50.9549666 ], [ -118.0889644, 50.9517123 ] ] } },
{ "type": "Feature", "properties": { "osm_id": 1317761522, "name": "Greely Bowl", "osm_difficulty": "advanced", "length_m": 420.9, "vert_drop_m": 117.3, "mean_slope_deg": 19.0, "max_slope_deg": 38.7 }, "geometry": { "type": "LineString", "coordinates": [ [ -118.0916816, 50.9677922 ], [ -118.09040490000001, 50.968353099999987 ], [ -118.0896807, 50.9688294 ], [ -118.0893964, 50.9691773 ], [ -118.0893213, 50.9699543 ], [ -118.089514400000013, 50.9707448 ], [ -118.089653900000016, 50.97089 ] ] } },
{ "type": "Feature", "properties": { "osm_id": 1317761523, "name": null, "osm_difficulty": "freeride", "length_m": 2097.6, "vert_drop_m": 332.5, "mean_slope_deg": 26.8, "max_slope_deg": 43.2 }, "geometry": { "type": "LineString", "coordinates": [ [ -118.0875349, 50.9494209 ], [ -118.0893481, 50.9490525 ], [ -118.089686, 50.9490762 ], [ -118.090539, 50.9494175 ], [ -118.091864, 50.9496 ], [ -118.092282400000016, 50.9495865 ], [ -118.092808099999985, 50.9497149 ], [ -118.0937362, 50.9502962 ], [ -118.0946696, 50.950438199999986 ], [ -118.0961877, 50.9502286 ], [ -118.0966812, 50.9502286 ], [ -118.098145700000018, 50.9499853 ], [ -118.0991435, 50.9498974 ], [ -118.0995673, 50.949948099999986 ], [ -118.1003076, 50.9501104 ], [ -118.1008065, 50.9503165 ], [ -118.1011444, 50.9506477 ], [ -118.101986700000012, 50.9506511 ], [ -118.102732299999985, 50.9507829 ], [ -118.1045401, 50.9513574 ], [ -118.105119500000015, 50.9513168 ], [ -118.105371600000012, 50.951398 ], [ -118.106482, 50.9514757 ], [ -118.107431500000018, 50.951844 ], [ -118.108086, 50.9520096 ], [ -118.108724399999986, 50.9520401 ], [ -118.1093574, 50.952290099999985 ], [ -118.110644800000017, 50.9522699 ], [ -118.1110632, 50.952182 ], [ -118.111465600000017, 50.95223270000001 ], [ -118.112345300000015, 50.9521076 ], [ -118.1134397, 50.9523814 ], [ -118.1151554, 50.95214150000001 ] ] } }
]
}
